name,company,street,postcode,city,country,capacity,energy_source,technology,chp,commissioned,type,lat,lon,eic_code,energy_source_level_1,energy_source_level_2,energy_source_level_3,additional_info,comment,source
"Val Giuf",,,,Rueras,CH,1.5,Hydro,Run-of-river,,1979,,46.6713364433,8.75072947495,,"Renewable energy",Hydro,,,,https://www.bfe.admin.ch/bfe/de/home/versorgung/statistik-und-geodaten/geoinformation/geodaten/wasser/statistik-der-wasserkraftanlagen.html
"Val Strem",,,,Sedrun,CH,2,Hydro,Run-of-river,,2009,,,,,"Renewable energy",Hydro,,,,https://www.bfe.admin.ch/bfe/de/home/versorgung/statistik-und-geodaten/geoinformation/geodaten/wasser/statistik-der-wasserkraftanlagen.html
"Sedrun 1",,,,Sedrun,CH,150,Hydro,Reservoir,,2011,,46.670049651,8.76860353742,12W-0000000021-S,"Renewable energy",Hydro,,,"- Zentralen Sedrun 1 und Sedrun 2 in einer Kaverne; ",https://www.bfe.admin.ch/bfe/de/home/versorgung/statistik-und-geodaten/geoinformation/geodaten/wasser/statistik-der-wasserkraftanlagen.html
"Sedrun 2",,,,Sedrun,CH,0.75,Hydro,Run-of-river,,1968,,46.670049651,8.76860353742,12W-0000000021-S,"Renewable energy",Hydro,,,"- Zentralen Sedrun 1 und Sedrun 2 in einer Kaverne; ",https://www.bfe.admin.ch/bfe/de/home/versorgung/statistik-und-geodaten/geoinformation/geodaten/wasser/statistik-der-wasserkraftanlagen.html
"Tavanasa (KVR)",,,,Tavanasa,CH,180,Hydro,Reservoir,,1962,,46.7510368203,9.04692392804,12W-0000000021-S,"Renewable energy",Hydro,,,,https://www.bfe.admin.ch/bfe/de/home/versorgung/statistik-und-geodaten/geoinformation/geodaten/wasser/statistik-der-wasserkraftanlagen.html
Russein,,,,Somvix,CH,24.87,Hydro,Run-of-river,,2015,,46.7202818447,8.89856834691,,"Renewable energy",Hydro,,,,https://www.bfe.admin.ch/bfe/de/home/versorgung/statistik-und-geodaten/geoinformation/geodaten/wasser/statistik-der-wasserkraftanlagen.html
Ferrera,,,,Trun,CH,4.23,Hydro,Run-of-river,,1999,,46.7435050176,8.98649363197,12W-0000000016-H,"Renewable energy",Hydro,,,,https://www.bfe.admin.ch/bfe/de/home/versorgung/statistik-und-geodaten/geoinformation/geodaten/wasser/statistik-der-wasserkraftanlagen.html
Trun,,,,Trun,CH,0.6,Hydro,Run-of-river,,2005,,46.7435050176,8.98649363197,,"Renewable energy",Hydro,,,"#NAME?; ",https://www.bfe.admin.ch/bfe/de/home/versorgung/statistik-und-geodaten/geoinformation/geodaten/wasser/statistik-der-wasserkraftanlagen.html
"Dardin (Casut)",,,,"Dardin, Casut",CH,0.4,Hydro,Run-of-river,,2008,,46.7573816308,9.04999337816,,"Renewable energy",Hydro,,,"#NAME?; ",https://www.bfe.admin.ch/bfe/de/home/versorgung/statistik-und-geodaten/geoinformation/geodaten/wasser/statistik-der-wasserkraftanlagen.html
"Tavanasa (AHSAG)",,,,Tavanasa,CH,10.14,Hydro,Run-of-river,,1946,,,,,"Renewable energy",Hydro,,,,https://www.bfe.admin.ch/bfe/de/home/versorgung/statistik-und-geodaten/geoinformation/geodaten/wasser/statistik-der-wasserkraftanlagen.html
"Kraftwerk Tschar",,,,"Obersaxen, St. Joseph",CH,4.26,Hydro,Run-of-river,,2017,,,,,"Renewable energy",Hydro,,,,https://www.bfe.admin.ch/bfe/de/home/versorgung/statistik-und-geodaten/geoinformation/geodaten/wasser/statistik-der-wasserkraftanlagen.html
Brigels-Tavanasa,,,,Tavanasa,CH,12.5,Hydro,Run-of-river,,1960,,46.7580621697,9.07174622905,,"Renewable energy",Hydro,,,"- Ersatzenergie:	Abgabe an Repower AG als Realersatz für das stillgelegte Kraftwerk Waltensburg  ;                                    ; ",https://www.bfe.admin.ch/bfe/de/home/versorgung/statistik-und-geodaten/geoinformation/geodaten/wasser/statistik-der-wasserkraftanlagen.html
Ladral,,,,Waltensburg,CH,5.1,Hydro,Run-of-river,,1973,,46.771415734,9.11876991407,,"Renewable energy",Hydro,,,,https://www.bfe.admin.ch/bfe/de/home/versorgung/statistik-und-geodaten/geoinformation/geodaten/wasser/statistik-der-wasserkraftanlagen.html
"Ilanz 1 (Stufe Tavanasa)",,,,Ilanz,CH,34.5,Hydro,Run-of-river,,1990,,46.7747637594,9.1952255793,,"Renewable energy",Hydro,,,"- Zentralen Ilanz 1 und Ilanz 2 in einem Gebäude              ; ",https://www.bfe.admin.ch/bfe/de/home/versorgung/statistik-und-geodaten/geoinformation/geodaten/wasser/statistik-der-wasserkraftanlagen.html
"Ilanz 2 (Stufe Panix (Pigniu))",,,,Ilanz,CH,49.5,Hydro,Reservoir,,1992,,46.7747637594,9.1952255793,,"Renewable energy",Hydro,,,"- Zentralen Ilanz 1 und Ilanz 2 in einem Gebäude              ; ",https://www.bfe.admin.ch/bfe/de/home/versorgung/statistik-und-geodaten/geoinformation/geodaten/wasser/statistik-der-wasserkraftanlagen.html
"Seekraftwerk Zervreila",,,,"Vals, Staumauer Zervreila",CH,22,Hydro,Reservoir,,1999,,46.5789495911,9.1193155643,12W-0000000011-W,"Renewable energy",Hydro,,,"- Ampervreila und Peilerbach werden nur im Sommer genutzt (Zubringer-Pumpbetrieb)       ;                                          ; ",https://www.bfe.admin.ch/bfe/de/home/versorgung/statistik-und-geodaten/geoinformation/geodaten/wasser/statistik-der-wasserkraftanlagen.html
"Safien Platz",,,,"Safien Platz",CH,90,Hydro,Reservoir,,1997,,46.6778242878,9.31587383275,12W-0000000011-W,"Renewable energy",Hydro,,,,https://www.bfe.admin.ch/bfe/de/home/versorgung/statistik-und-geodaten/geoinformation/geodaten/wasser/statistik-der-wasserkraftanlagen.html
Rothenbrunnen,,,,Rothenbrunnen,CH,135,Hydro,Reservoir,,2011,,46.7658960254,9.41820114963,12W-0000000011-W,"Renewable energy",Hydro,,,,https://www.bfe.admin.ch/bfe/de/home/versorgung/statistik-und-geodaten/geoinformation/geodaten/wasser/statistik-der-wasserkraftanlagen.html
Rabiusa-Realta,,,,Rothenbrunnen,CH,26,Hydro,Run-of-river,,2004,,46.7649113824,9.41790308497,12W-0000000011-W,"Renewable energy",Hydro,,,,https://www.bfe.admin.ch/bfe/de/home/versorgung/statistik-und-geodaten/geoinformation/geodaten/wasser/statistik-der-wasserkraftanlagen.html
Lunschania,,,,"St. Martin, Lunschania",CH,0.94,Hydro,Run-of-river,,1996,,46.6601503473,9.18823038522,,"Renewable energy",Hydro,,,,https://www.bfe.admin.ch/bfe/de/home/versorgung/statistik-und-geodaten/geoinformation/geodaten/wasser/statistik-der-wasserkraftanlagen.html
Bargaus,,,,Sagogn,CH,2.82,Hydro,Run-of-river,,1963,,46.7931455833,9.27364512391,,"Renewable energy",Hydro,,,,https://www.bfe.admin.ch/bfe/de/home/versorgung/statistik-und-geodaten/geoinformation/geodaten/wasser/statistik-der-wasserkraftanlagen.html
"Punt Gronda (Segnas)",,,,Flims,CH,2.62,Hydro,Run-of-river,,2012,,46.8384516549,9.26509335259,,"Renewable energy",Hydro,,,"- Zentralen Punt Gronda (Segnas), Punt Gronda (Platt Alva) und Punt Gronda (Tarschlims) in einem Gebäude; ",https://www.bfe.admin.ch/bfe/de/home/versorgung/statistik-und-geodaten/geoinformation/geodaten/wasser/statistik-der-wasserkraftanlagen.html
"Punt Gronda (Platt Alva)",,,,Flims,CH,0.64,Hydro,Run-of-river,,2012,,46.8384516549,9.26509335259,,"Renewable energy",Hydro,,,"- Zentrale Punt Gronda (Platt Alva), Punt Gronda (Segnas) und Punt Gronda (Tarschlims) in einem Gebäude;  ; ",https://www.bfe.admin.ch/bfe/de/home/versorgung/statistik-und-geodaten/geoinformation/geodaten/wasser/statistik-der-wasserkraftanlagen.html
"Punt Gronda (Tarschlims)",,,,Flims,CH,0.3,Hydro,Run-of-river,,2013,,46.8384516549,9.26509335259,,"Renewable energy",Hydro,,,"- Zentrale Punt Gronda (Tarschlims), Punt Gronda (Platt Alva) und  Punt Gronda (Segnas) in einem Gebäude; #NAME?; ",https://www.bfe.admin.ch/bfe/de/home/versorgung/statistik-und-geodaten/geoinformation/geodaten/wasser/statistik-der-wasserkraftanlagen.html
"Stenna (Flims) Flembach",,,,Flims,CH,1.73,Hydro,Run-of-river,,1999,,46.8337568535,9.28289622392,,"Renewable energy",Hydro,,,,https://www.bfe.admin.ch/bfe/de/home/versorgung/statistik-und-geodaten/geoinformation/geodaten/wasser/statistik-der-wasserkraftanlagen.html
"Flims, Felsbach (Karstwasser)",,,,Flims,CH,0.88,Hydro,Run-of-river,,2011,,46.8340905068,9.31765249379,,"Renewable energy",Hydro,,,"- Zentrale Flims, Felsbach (Karstwasser) und Zentrale Flims, Felsbach (Bergwasser) sind in einem Gebäude Felsbach			;   			;  ; 			;  ; ",https://www.bfe.admin.ch/bfe/de/home/versorgung/statistik-und-geodaten/geoinformation/geodaten/wasser/statistik-der-wasserkraftanlagen.html
"Flims, Felsbach (Bergwasser)",,,,Flims,CH,0.28,Hydro,Run-of-river,,2011,,46.8340905068,9.31765249379,,"Renewable energy",Hydro,,,"- Zentrale Flims, Felsbach (Bergwasser) und Zentrale Flims, Felsbach (Karstwasser) sind in einem Gebäude Felsbach		; ",https://www.bfe.admin.ch/bfe/de/home/versorgung/statistik-und-geodaten/geoinformation/geodaten/wasser/statistik-der-wasserkraftanlagen.html
Mulin,,,,"Trin Mulin",CH,1.6,Hydro,Run-of-river,,2004,,46.833447951,9.34018135796,,"Renewable energy",Hydro,,,,https://www.bfe.admin.ch/bfe/de/home/versorgung/statistik-und-geodaten/geoinformation/geodaten/wasser/statistik-der-wasserkraftanlagen.html
Pintrun,,,,Trin,CH,6.48,Hydro,Run-of-river,,1944,,46.8148577632,9.34883064445,,"Renewable energy",Hydro,,,,https://www.bfe.admin.ch/bfe/de/home/versorgung/statistik-und-geodaten/geoinformation/geodaten/wasser/statistik-der-wasserkraftanlagen.html
"Ferrera 1",,,,Ausserferrera,CH,180,Hydro,"Pumped storage",,2017,,46.5329177645,9.43419338513,12W-0000000016-H,"Renewable energy",Hydro,,,"- Zentralen Ferrera 1 und Ferrera 2 in einem Gebäude          ; ",https://www.bfe.admin.ch/bfe/de/home/versorgung/statistik-und-geodaten/geoinformation/geodaten/wasser/statistik-der-wasserkraftanlagen.html
"Ferrera 2",,,,Ausserferrera,CH,4.4,Hydro,Run-of-river,,2017,,46.5329177645,9.43419338513,12W-0000000016-H,"Renewable energy",Hydro,,,"- Zentralen Ferrera 1 und Ferrera 2 in einem Gebäude          ; ",https://www.bfe.admin.ch/bfe/de/home/versorgung/statistik-und-geodaten/geoinformation/geodaten/wasser/statistik-der-wasserkraftanlagen.html
Nufenen,,,,Nufenen,CH,0.3,Hydro,Run-of-river,,2009,,46.5430537927,9.24795177052,,"Renewable energy",Hydro,,,,https://www.bfe.admin.ch/bfe/de/home/versorgung/statistik-und-geodaten/geoinformation/geodaten/wasser/statistik-der-wasserkraftanlagen.html
"Splügen (Tambobach)",,,,Splügen,CH,1.8,Hydro,Run-of-river,,2012,,46.5459228175,9.30973326414,,"Renewable energy",Hydro,,,,https://www.bfe.admin.ch/bfe/de/home/versorgung/statistik-und-geodaten/geoinformation/geodaten/wasser/statistik-der-wasserkraftanlagen.html
"Stauanlage Sufers Dotieranlage",,,,Sufers,CH,0.71,Hydro,Run-of-river,,2010,,,,,"Renewable energy",Hydro,,,"- Dotieranlage wurde 1989 erbaut; - Erneuerung der Dotieranlage im Rahmen der Gesamterneuerung der KWH (2010 - 2017); ",https://www.bfe.admin.ch/bfe/de/home/versorgung/statistik-und-geodaten/geoinformation/geodaten/wasser/statistik-der-wasserkraftanlagen.html
Bärenburg,,,,Andeer,CH,220,Hydro,Reservoir,,2017,,46.5901915365,9.42142722621,12W-0000000016-H,"Renewable energy",Hydro,,,,https://www.bfe.admin.ch/bfe/de/home/versorgung/statistik-und-geodaten/geoinformation/geodaten/wasser/statistik-der-wasserkraftanlagen.html
"Bärenburg Dotieranlage",,,,Andeer,CH,1.6,Hydro,Run-of-river,,2017,,46.5901915365,9.42142722621,12W-0000000016-H,"Renewable energy",Hydro,,,,https://www.bfe.admin.ch/bfe/de/home/versorgung/statistik-und-geodaten/geoinformation/geodaten/wasser/statistik-der-wasserkraftanlagen.html
Sils,,,,"Sils, Nisellas",CH,247,Hydro,Reservoir,,1961,,46.7031360141,9.46664904976,12W-0000000016-H,"Renewable energy",Hydro,,,,https://www.bfe.admin.ch/bfe/de/home/versorgung/statistik-und-geodaten/geoinformation/geodaten/wasser/statistik-der-wasserkraftanlagen.html
Thusis,,,,Thusis,CH,4.6,Hydro,Run-of-river,,2017,,46.6901486217,9.44288408447,,"Renewable energy",Hydro,,,,https://www.bfe.admin.ch/bfe/de/home/versorgung/statistik-und-geodaten/geoinformation/geodaten/wasser/statistik-der-wasserkraftanlagen.html
Frauenkirch,,,,"Davos, Frauenkirch",CH,0.7,Hydro,Run-of-river,,1963,,46.7688686224,9.80558112281,,"Renewable energy",Hydro,,,,https://www.bfe.admin.ch/bfe/de/home/versorgung/statistik-und-geodaten/geoinformation/geodaten/wasser/statistik-der-wasserkraftanlagen.html
Glaris,,,,"Davos, Glaris",CH,1.13,Hydro,Run-of-river,,1964,,46.7360930283,9.77586865383,,"Renewable energy",Hydro,,,,https://www.bfe.admin.ch/bfe/de/home/versorgung/statistik-und-geodaten/geoinformation/geodaten/wasser/statistik-der-wasserkraftanlagen.html
Filisur,,,,Filisur,CH,65,Hydro,Run-of-river,,2002,,46.6698919694,9.68920263555,,"Renewable energy",Hydro,,,,https://www.bfe.admin.ch/bfe/de/home/versorgung/statistik-und-geodaten/geoinformation/geodaten/wasser/statistik-der-wasserkraftanlagen.html
Filisur-Tiefencastel,,,,Tiefencastel,CH,24,Hydro,Run-of-river,,1989,,46.6608466013,9.57955507518,,"Renewable energy",Hydro,,,,https://www.bfe.admin.ch/bfe/de/home/versorgung/statistik-und-geodaten/geoinformation/geodaten/wasser/statistik-der-wasserkraftanlagen.html
"Stalvedro (Julia)",,,,Bivio,CH,0.65,Hydro,Run-of-river,,1980,,46.4796105068,9.6452128901,12W-0000000064-3,"Renewable energy",Hydro,,,,https://www.bfe.admin.ch/bfe/de/home/versorgung/statistik-und-geodaten/geoinformation/geodaten/wasser/statistik-der-wasserkraftanlagen.html
"Mulegn, Tinizong-Rona",,,,Tinizong-Rona,CH,7,Hydro,Run-of-river,,2016,,,,,"Renewable energy",Hydro,,,,https://www.bfe.admin.ch/bfe/de/home/versorgung/statistik-und-geodaten/geoinformation/geodaten/wasser/statistik-der-wasserkraftanlagen.html
Tinizong,,,,Tinizong,CH,69.5,Hydro,Reservoir,,1971,,46.5825064851,9.61064835764,,"Renewable energy",Hydro,,,,https://www.bfe.admin.ch/bfe/de/home/versorgung/statistik-und-geodaten/geoinformation/geodaten/wasser/statistik-der-wasserkraftanlagen.html
Nandrò,,,,"Riom - Parsonz",CH,1.59,Hydro,Run-of-river,,2011,,46.5681520979,9.5702754213,,"Renewable energy",Hydro,,,,https://www.bfe.admin.ch/bfe/de/home/versorgung/statistik-und-geodaten/geoinformation/geodaten/wasser/statistik-der-wasserkraftanlagen.html
"Tiefencastel Ost",,,,Tiefencastel,CH,52,Hydro,Reservoir,,1970,,46.6644016578,9.56270347437,,"Renewable energy",Hydro,,,"#NAME?;                                                  ; ",https://www.bfe.admin.ch/bfe/de/home/versorgung/statistik-und-geodaten/geoinformation/geodaten/wasser/statistik-der-wasserkraftanlagen.html
"Tiefencastel West",,,,Tiefencastel,CH,26,Hydro,Run-of-river,,1949,,46.6644016578,9.56270347437,,"Renewable energy",Hydro,,,"#NAME?;                                                  ; ",https://www.bfe.admin.ch/bfe/de/home/versorgung/statistik-und-geodaten/geoinformation/geodaten/wasser/statistik-der-wasserkraftanlagen.html
Solis,,,,Vaz/Obervaz,CH,7.3,Hydro,Run-of-river,,1978,,46.6819220936,9.52521300017,,"Renewable energy",Hydro,,,,https://www.bfe.admin.ch/bfe/de/home/versorgung/statistik-und-geodaten/geoinformation/geodaten/wasser/statistik-der-wasserkraftanlagen.html
"Sils (EWZ)",,,,"Sils im Domleschg",CH,26,Hydro,Run-of-river,,1996,,46.7040817391,9.46406852744,12W-0000000016-H,"Renewable energy",Hydro,,,"#NAME?; ",https://www.bfe.admin.ch/bfe/de/home/versorgung/statistik-und-geodaten/geoinformation/geodaten/wasser/statistik-der-wasserkraftanlagen.html
"Rothenbrunnen (EWZ)",,,,Rothenbrunnen,CH,44,Hydro,Reservoir,,1976,,46.7739461705,9.42098533692,12W-0000000011-W,"Renewable energy",Hydro,,,,https://www.bfe.admin.ch/bfe/de/home/versorgung/statistik-und-geodaten/geoinformation/geodaten/wasser/statistik-der-wasserkraftanlagen.html
Reichenau,,,,Domat-Ems,CH,19.06,Hydro,Run-of-river,,1962,,46.8377337086,9.44733101447,,"Renewable energy",Hydro,,,,https://www.bfe.admin.ch/bfe/de/home/versorgung/statistik-und-geodaten/geoinformation/geodaten/wasser/statistik-der-wasserkraftanlagen.html
Arosa-Litzirüti,,,,Litzirüti,CH,5,Hydro,Run-of-river,,1969,,46.8000493529,9.70591198066,,"Renewable energy",Hydro,,,,https://www.bfe.admin.ch/bfe/de/home/versorgung/statistik-und-geodaten/geoinformation/geodaten/wasser/statistik-der-wasserkraftanlagen.html
"KW Sagenbach",,,,"Lüen, Tewald",CH,3.55,Hydro,Run-of-river,,2013,,46.8284428074,9.60614992526,,"Renewable energy",Hydro,,,"- Zentralen Lüen (Sagenbach) und Lüen (Plessur, Clasaurer) in einem Gebäude; ",https://www.bfe.admin.ch/bfe/de/home/versorgung/statistik-und-geodaten/geoinformation/geodaten/wasser/statistik-der-wasserkraftanlagen.html
Molinis-Lüen,,,,"Lüen, Tewald",CH,7.2,Hydro,Run-of-river,,1990,,46.8284428074,9.60614992526,,"Renewable energy",Hydro,,,"- Zentralen Lüen (Plessur, Clasaurer) und Lüen (Sagenbach) in einem Gebäude; ",https://www.bfe.admin.ch/bfe/de/home/versorgung/statistik-und-geodaten/geoinformation/geodaten/wasser/statistik-der-wasserkraftanlagen.html
Plessurwerk,,,,"Chur, Sand",CH,9.4,Hydro,Run-of-river,,2011,,46.8404306281,9.54250541843,,"Renewable energy",Hydro,,,"#NAME?; ",https://www.bfe.admin.ch/bfe/de/home/versorgung/statistik-und-geodaten/geoinformation/geodaten/wasser/statistik-der-wasserkraftanlagen.html
Rabiusawerk,,,,"Chur, Sand",CH,0.71,Hydro,Run-of-river,,2012,,46.8404306281,9.54250541843,,"Renewable energy",Hydro,,,"#NAME?;  ; ",https://www.bfe.admin.ch/bfe/de/home/versorgung/statistik-und-geodaten/geoinformation/geodaten/wasser/statistik-der-wasserkraftanlagen.html
Klosters,,,,Klosters,CH,16.5,Hydro,Reservoir,,1982,,46.861014512,9.89557404649,,"Renewable energy",Hydro,,,,https://www.bfe.admin.ch/bfe/de/home/versorgung/statistik-und-geodaten/geoinformation/geodaten/wasser/statistik-der-wasserkraftanlagen.html
Schlappin,,,,Klosters-Dorf,CH,6.1,Hydro,Run-of-river,,2000,,46.8850480052,9.87855790113,,"Renewable energy",Hydro,,,,https://www.bfe.admin.ch/bfe/de/home/versorgung/statistik-und-geodaten/geoinformation/geodaten/wasser/statistik-der-wasserkraftanlagen.html
Küblis,,,,Küblis,CH,45.6,Hydro,Run-of-river,,2006,,46.913974185,9.78202924909,,"Renewable energy",Hydro,,,,https://www.bfe.admin.ch/bfe/de/home/versorgung/statistik-und-geodaten/geoinformation/geodaten/wasser/statistik-der-wasserkraftanlagen.html
Taschinas,,,,Seewis,CH,11.33,Hydro,Run-of-river,,2011,,46.9828412314,9.64486330331,,"Renewable energy",Hydro,,,,https://www.bfe.admin.ch/bfe/de/home/versorgung/statistik-und-geodaten/geoinformation/geodaten/wasser/statistik-der-wasserkraftanlagen.html
"Igiser Mülbach 1 (Landquart 1)",,,,Landquart-Fabriken,CH,0.5,Hydro,Run-of-river,,1978,,46.9593278102,9.57988985784,,"Renewable energy",Hydro,,,,https://www.bfe.admin.ch/bfe/de/home/versorgung/statistik-und-geodaten/geoinformation/geodaten/wasser/statistik-der-wasserkraftanlagen.html
"Igiser Mülbach 2 (Landquart 2)",,,,Landquart-Fabriken,CH,0.71,Hydro,Run-of-river,,1988,,46.9548019948,9.5668303331,,"Renewable energy",Hydro,,,,https://www.bfe.admin.ch/bfe/de/home/versorgung/statistik-und-geodaten/geoinformation/geodaten/wasser/statistik-der-wasserkraftanlagen.html
Mapragg,,,,Vadura,CH,279.9,Hydro,"Pumped storage",,1977,,46.9484407976,9.4812988795,12W-0000000917-6,"Renewable energy",Hydro,,,"#NAME?; #NAME?; ",https://www.bfe.admin.ch/bfe/de/home/versorgung/statistik-und-geodaten/geoinformation/geodaten/wasser/statistik-der-wasserkraftanlagen.html
Sarelli,,,,"Bad Ragaz",CH,90,Hydro,Reservoir,,1978,,46.9770980292,9.53865885488,12W-0000000917-6,"Renewable energy",Hydro,,,"#NAME?; ",https://www.bfe.admin.ch/bfe/de/home/versorgung/statistik-und-geodaten/geoinformation/geodaten/wasser/statistik-der-wasserkraftanlagen.html
Ragaz,,,,Ragaz,CH,0.7,Hydro,Run-of-river,,1956,,47.0000948296,9.50115288825,,"Renewable energy",Hydro,,,"#NAME?;                                              ; ",https://www.bfe.admin.ch/bfe/de/home/versorgung/statistik-und-geodaten/geoinformation/geodaten/wasser/statistik-der-wasserkraftanlagen.html
Jenins,,,,Jenins,CH,0.46,Hydro,Run-of-river,,1997,,46.9931780282,9.55480652195,,"Renewable energy",Hydro,,,,https://www.bfe.admin.ch/bfe/de/home/versorgung/statistik-und-geodaten/geoinformation/geodaten/wasser/statistik-der-wasserkraftanlagen.html
Valeis,,,,Vilters,CH,1.2,Hydro,Run-of-river,,2004,,47.0232622307,9.44809505335,,"Renewable energy",Hydro,,,,https://www.bfe.admin.ch/bfe/de/home/versorgung/statistik-und-geodaten/geoinformation/geodaten/wasser/statistik-der-wasserkraftanlagen.html
Grossbach,,,,"Wangs, Gaschiels",CH,0.7,Hydro,Run-of-river,,1993,,47.0258051067,9.44161096561,,"Renewable energy",Hydro,,,"#NAME?; ",https://www.bfe.admin.ch/bfe/de/home/versorgung/statistik-und-geodaten/geoinformation/geodaten/wasser/statistik-der-wasserkraftanlagen.html
Sevelen,,,,Sevelen,CH,1.14,Hydro,Run-of-river,,1989,,47.1209036183,9.48300188061,,"Renewable energy",Hydro,,,,https://www.bfe.admin.ch/bfe/de/home/versorgung/statistik-und-geodaten/geoinformation/geodaten/wasser/statistik-der-wasserkraftanlagen.html
Buchs-Vorderberg,,,,"Buchs, Waldrand",CH,0.98,Hydro,Run-of-river,,1987,,47.1490022349,9.44582705102,,"Renewable energy",Hydro,,,"#NAME?; ",https://www.bfe.admin.ch/bfe/de/home/versorgung/statistik-und-geodaten/geoinformation/geodaten/wasser/statistik-der-wasserkraftanlagen.html
Buchs-Tobeläckerli,,,,"Buchs, Steig - Aspenhölzli",CH,0.69,Hydro,Run-of-river,,2013,,47.1562316902,9.46456548914,,"Renewable energy",Hydro,,,"#NAME?; ",https://www.bfe.admin.ch/bfe/de/home/versorgung/statistik-und-geodaten/geoinformation/geodaten/wasser/statistik-der-wasserkraftanlagen.html
Buchs-Altendorf,,,,"Buchs, Altendorf",CH,3.56,Hydro,Run-of-river,,1987,,47.1569967916,9.46710077053,,"Renewable energy",Hydro,,,,https://www.bfe.admin.ch/bfe/de/home/versorgung/statistik-und-geodaten/geoinformation/geodaten/wasser/statistik-der-wasserkraftanlagen.html
"Grabs (Bannwald)",,,,"Grabs, Bannwald",CH,0.44,Hydro,Run-of-river,,1994,,47.17262767,9.41689346785,,"Renewable energy",Hydro,,,,https://www.bfe.admin.ch/bfe/de/home/versorgung/statistik-und-geodaten/geoinformation/geodaten/wasser/statistik-der-wasserkraftanlagen.html
"Grabs (Löchli)",,,,"Grabs, Löchli",CH,1.43,Hydro,Run-of-river,,1996,,47.1757270944,9.43020364886,,"Renewable energy",Hydro,,,,https://www.bfe.admin.ch/bfe/de/home/versorgung/statistik-und-geodaten/geoinformation/geodaten/wasser/statistik-der-wasserkraftanlagen.html
Sennwald,,,,Sennwald,CH,1.22,Hydro,Run-of-river,,1990,,47.2615761557,9.49605409189,,"Renewable energy",Hydro,,,,https://www.bfe.admin.ch/bfe/de/home/versorgung/statistik-und-geodaten/geoinformation/geodaten/wasser/statistik-der-wasserkraftanlagen.html
Lienz,,,,Lienz,CH,0.38,Hydro,Run-of-river,,1989,,47.2751747537,9.525398933,,"Renewable energy",Hydro,,,,https://www.bfe.admin.ch/bfe/de/home/versorgung/statistik-und-geodaten/geoinformation/geodaten/wasser/statistik-der-wasserkraftanlagen.html
"Blatten (SAK)",,,,"Oberriet, Blatten",CH,0.38,Hydro,Run-of-river,,1989,,47.307700421,9.56728348718,,"Renewable energy",Hydro,,,,https://www.bfe.admin.ch/bfe/de/home/versorgung/statistik-und-geodaten/geoinformation/geodaten/wasser/statistik-der-wasserkraftanlagen.html
Montlingen,,,,Montlingen,CH,0.38,Hydro,Run-of-river,,1989,,47.3392405944,9.57926456954,,"Renewable energy",Hydro,,,,https://www.bfe.admin.ch/bfe/de/home/versorgung/statistik-und-geodaten/geoinformation/geodaten/wasser/statistik-der-wasserkraftanlagen.html
"Gstaldenbach, Heiden",,,,"Heiden, Hinterlochen",CH,0.72,Hydro,Run-of-river,,1982,,,,,"Renewable energy",Hydro,,,,https://www.bfe.admin.ch/bfe/de/home/versorgung/statistik-und-geodaten/geoinformation/geodaten/wasser/statistik-der-wasserkraftanlagen.html
Lochmühle,,,,"Untereggen, Lochmüli",CH,0.63,Hydro,Run-of-river,,2003,,47.4603255412,9.43979811879,,"Renewable energy",Hydro,,,,https://www.bfe.admin.ch/bfe/de/home/versorgung/statistik-und-geodaten/geoinformation/geodaten/wasser/statistik-der-wasserkraftanlagen.html
"Morgental (Abwasser)",,,,Steinach,CH,1.2,Hydro,Run-of-river,,2014,,47.5005666197,9.42790432392,,"Renewable energy",Hydro,,,"#NAME?; ",https://www.bfe.admin.ch/bfe/de/home/versorgung/statistik-und-geodaten/geoinformation/geodaten/wasser/statistik-der-wasserkraftanlagen.html
Schaffhausen,,,,Schaffhausen,CH,28.9,Hydro,Run-of-river,,1964,,47.6931243898,8.63042746026,,"Renewable energy",Hydro,,,,https://www.bfe.admin.ch/bfe/de/home/versorgung/statistik-und-geodaten/geoinformation/geodaten/wasser/statistik-der-wasserkraftanlagen.html
Engeweiher,,,,Schaffhausen,CH,5,Hydro,"Pumped storage with natural inflow",,1993,,47.6934840779,8.63043555306,,"Renewable energy",Hydro,,,"#NAME?; ",https://www.bfe.admin.ch/bfe/de/home/versorgung/statistik-und-geodaten/geoinformation/geodaten/wasser/statistik-der-wasserkraftanlagen.html
Neuhausen,,,,Neuhausen,CH,5.6,Hydro,Run-of-river,,2011,,47.6798806585,8.61494656661,,"Renewable energy",Hydro,,,,https://www.bfe.admin.ch/bfe/de/home/versorgung/statistik-und-geodaten/geoinformation/geodaten/wasser/statistik-der-wasserkraftanlagen.html
Rheinau,,,,Rheinau,CH,36.8,Hydro,Run-of-river,,2005,,47.6389102371,8.60166117811,,"Renewable energy",Hydro,,,,https://www.bfe.admin.ch/bfe/de/home/versorgung/statistik-und-geodaten/geoinformation/geodaten/wasser/statistik-der-wasserkraftanlagen.html
Giessen,,,,"Nesslau, unterer Giessenfall",CH,1.9,Hydro,Run-of-river,,2001,,47.2178452198,9.20939259186,,"Renewable energy",Hydro,,,,https://www.bfe.admin.ch/bfe/de/home/versorgung/statistik-und-geodaten/geoinformation/geodaten/wasser/statistik-der-wasserkraftanlagen.html
"Nesslau (Ijentalerbach)",,,,"Nesslau, Schneit",CH,1.25,Hydro,Run-of-river,,2010,,47.2216373141,9.18495516077,,"Renewable energy",Hydro,,,,https://www.bfe.admin.ch/bfe/de/home/versorgung/statistik-und-geodaten/geoinformation/geodaten/wasser/statistik-der-wasserkraftanlagen.html
Herrentöbeli,,,,Krummenau,CH,0.84,Hydro,Run-of-river,,1991,,47.2447757187,9.17791678684,,"Renewable energy",Hydro,,,,https://www.bfe.admin.ch/bfe/de/home/versorgung/statistik-und-geodaten/geoinformation/geodaten/wasser/statistik-der-wasserkraftanlagen.html
Trempel,,,,"Trempel, Ebnat-Kappel",CH,1.8,Hydro,Run-of-river,,2007,,47.2494883643,9.16366835457,,"Renewable energy",Hydro,,,,https://www.bfe.admin.ch/bfe/de/home/versorgung/statistik-und-geodaten/geoinformation/geodaten/wasser/statistik-der-wasserkraftanlagen.html
"Im Roos",,,,"Ebnat - Kappel",CH,0.86,Hydro,Run-of-river,,2004,,47.2585402791,9.12960201415,,"Renewable energy",Hydro,,,,https://www.bfe.admin.ch/bfe/de/home/versorgung/statistik-und-geodaten/geoinformation/geodaten/wasser/statistik-der-wasserkraftanlagen.html
"Stadtbrücke, Lichtensteig",,,,Lichtensteig,CH,0.57,Hydro,Run-of-river,,2013,,47.3232416909,9.08494859192,,"Renewable energy",Hydro,,,,https://www.bfe.admin.ch/bfe/de/home/versorgung/statistik-und-geodaten/geoinformation/geodaten/wasser/statistik-der-wasserkraftanlagen.html
Dietfurt,,,,Bütschwil,CH,0.98,Hydro,Run-of-river,,2002,,47.3444435336,9.08070597557,,"Renewable energy",Hydro,,,,https://www.bfe.admin.ch/bfe/de/home/versorgung/statistik-und-geodaten/geoinformation/geodaten/wasser/statistik-der-wasserkraftanlagen.html
Soor,,,,Bütschwil,CH,0.98,Hydro,Run-of-river,,2001,,47.3564409783,9.07842778781,,"Renewable energy",Hydro,,,,https://www.bfe.admin.ch/bfe/de/home/versorgung/statistik-und-geodaten/geoinformation/geodaten/wasser/statistik-der-wasserkraftanlagen.html
Mülau,,,,"Mülau bei Bazenheid Kirchberg",CH,1.37,Hydro,Run-of-river,,2010,,47.410872339,9.07811617053,,"Renewable energy",Hydro,,,"- Ersatz alte Zentrale Mülau im Jahr 2010;  ; ",https://www.bfe.admin.ch/bfe/de/home/versorgung/statistik-und-geodaten/geoinformation/geodaten/wasser/statistik-der-wasserkraftanlagen.html
Niederglatt-Gossau,,,,Glattmüli,CH,0.35,Hydro,Run-of-river,,1967,,47.4314001196,9.17553013871,,"Renewable energy",Hydro,,,,https://www.bfe.admin.ch/bfe/de/home/versorgung/statistik-und-geodaten/geoinformation/geodaten/wasser/statistik-der-wasserkraftanlagen.html
Bischofszell,,,,Bischofszell,CH,1.02,Hydro,Run-of-river,,1935,,47.4930279409,9.23422119529,,"Renewable energy",Hydro,,,,https://www.bfe.admin.ch/bfe/de/home/versorgung/statistik-und-geodaten/geoinformation/geodaten/wasser/statistik-der-wasserkraftanlagen.html
"Seealp - Wasserauen",,,,Rässenaueli,CH,2.5,Hydro,Reservoir,,2005,,47.2807040389,9.42116368952,,"Renewable energy",Hydro,,,,https://www.bfe.admin.ch/bfe/de/home/versorgung/statistik-und-geodaten/geoinformation/geodaten/wasser/statistik-der-wasserkraftanlagen.html
Rossfall,,,,Urnäsch,CH,0.38,Hydro,Run-of-river,,1991,,47.2868596876,9.27779379793,,"Renewable energy",Hydro,,,,https://www.bfe.admin.ch/bfe/de/home/versorgung/statistik-und-geodaten/geoinformation/geodaten/wasser/statistik-der-wasserkraftanlagen.html
"EW Zürchersmühle",,,,Urnäsch,CH,0.36,Hydro,Run-of-river,,1987,,47.3318002224,9.29178339624,,"Renewable energy",Hydro,,,"#NAME?; ",https://www.bfe.admin.ch/bfe/de/home/versorgung/statistik-und-geodaten/geoinformation/geodaten/wasser/statistik-der-wasserkraftanlagen.html
Kubel,,,,"St. Gallen",CH,15,Hydro,Run-of-river,,1976,,47.4019094764,9.32364063827,,"Renewable energy",Hydro,,,,https://www.bfe.admin.ch/bfe/de/home/versorgung/statistik-und-geodaten/geoinformation/geodaten/wasser/statistik-der-wasserkraftanlagen.html
Sittertal,,,,"St. Gallen, Sittertal",CH,0.46,Hydro,Run-of-river,,2007,,47.410010524,9.32339732284,,"Renewable energy",Hydro,,,,https://www.bfe.admin.ch/bfe/de/home/versorgung/statistik-und-geodaten/geoinformation/geodaten/wasser/statistik-der-wasserkraftanlagen.html
"Kraftwerk Grafenau",,,,"St. Gallen, Grafenau",CH,0.31,Hydro,Run-of-river,,2018,,,,,"Renewable energy",Hydro,,,,https://www.bfe.admin.ch/bfe/de/home/versorgung/statistik-und-geodaten/geoinformation/geodaten/wasser/statistik-der-wasserkraftanlagen.html
Burentobel,,,,"St. Gallen",CH,0.3,Hydro,Run-of-river,,2008,,47.4191628646,9.34135118586,,"Renewable energy",Hydro,,,,https://www.bfe.admin.ch/bfe/de/home/versorgung/statistik-und-geodaten/geoinformation/geodaten/wasser/statistik-der-wasserkraftanlagen.html
Erlenholz,,,,Wittenbach,CH,0.48,Hydro,Run-of-river,,2003,,47.4572264157,9.36804900144,,"Renewable energy",Hydro,,,,https://www.bfe.admin.ch/bfe/de/home/versorgung/statistik-und-geodaten/geoinformation/geodaten/wasser/statistik-der-wasserkraftanlagen.html
Thurfeld,,,,Schönenberg,CH,1.7,Hydro,Run-of-river,,2011,,47.5192647047,9.20708697249,,"Renewable energy",Hydro,,,,https://www.bfe.admin.ch/bfe/de/home/versorgung/statistik-und-geodaten/geoinformation/geodaten/wasser/statistik-der-wasserkraftanlagen.html
Au-Schönenberg,,,,"Schönenberg an der Thur",CH,2.3,Hydro,Run-of-river,,2002,,47.5239809806,9.18679102533,,"Renewable energy",Hydro,,,,https://www.bfe.admin.ch/bfe/de/home/versorgung/statistik-und-geodaten/geoinformation/geodaten/wasser/statistik-der-wasserkraftanlagen.html
"Bürglen (Säge)",,,,Bürglen,CH,0.44,Hydro,Run-of-river,,2008,,47.547257475,9.15221424841,,"Renewable energy",Hydro,,,,https://www.bfe.admin.ch/bfe/de/home/versorgung/statistik-und-geodaten/geoinformation/geodaten/wasser/statistik-der-wasserkraftanlagen.html
"Kleinwasserkraftwerk Bürglen",,,,Bürglen,CH,0.99,Hydro,Run-of-river,,2016,,,,,"Renewable energy",Hydro,,,,https://www.bfe.admin.ch/bfe/de/home/versorgung/statistik-und-geodaten/geoinformation/geodaten/wasser/statistik-der-wasserkraftanlagen.html
Thur,,,,Bürglen,CH,0.7,Hydro,Run-of-river,,1976,,47.5502758294,9.1427446335,,"Renewable energy",Hydro,,,"- Thur 1 und Thur 2 sind in der Zentrale Thur zusammengefasst.  ; - Rechtsgrundlagen:  Konzessionsablauf Thur 1 = 2036, Konzessionsablauf Thur 2 = 2027.            ;                     	             ; ",https://www.bfe.admin.ch/bfe/de/home/versorgung/statistik-und-geodaten/geoinformation/geodaten/wasser/statistik-der-wasserkraftanlagen.html
"Weinfelden (Model)",,,,Weinfelden,CH,0.4,Hydro,Run-of-river,,1948,,47.5608510601,9.1021506291,,"Renewable energy",Hydro,,,,https://www.bfe.admin.ch/bfe/de/home/versorgung/statistik-und-geodaten/geoinformation/geodaten/wasser/statistik-der-wasserkraftanlagen.html
"Weinfelden (Mühle)",,,,Weinfelden,CH,0.4,Hydro,Run-of-river,,1948,,47.5607188536,9.09882399502,,"Renewable energy",Hydro,,,,https://www.bfe.admin.ch/bfe/de/home/versorgung/statistik-und-geodaten/geoinformation/geodaten/wasser/statistik-der-wasserkraftanlagen.html
Widen,,,,"Weinfelden, untere Widen",CH,0.83,Hydro,Run-of-river,,1989,,47.5647136507,9.07728471582,,"Renewable energy",Hydro,,,,https://www.bfe.admin.ch/bfe/de/home/versorgung/statistik-und-geodaten/geoinformation/geodaten/wasser/statistik-der-wasserkraftanlagen.html
Murkart,,,,Matzingen,CH,0.34,Hydro,Run-of-river,,2008,,47.5374877465,8.91438251912,,"Renewable energy",Hydro,,,,https://www.bfe.admin.ch/bfe/de/home/versorgung/statistik-und-geodaten/geoinformation/geodaten/wasser/statistik-der-wasserkraftanlagen.html
"Schlossmühle, Frauenfeld",,,,"Frauenfeld, Schlossmühlestr.",CH,0.31,Hydro,Run-of-river,,2012,,47.5538872916,8.89796299427,,"Renewable energy",Hydro,,,"#NAME?; ",https://www.bfe.admin.ch/bfe/de/home/versorgung/statistik-und-geodaten/geoinformation/geodaten/wasser/statistik-der-wasserkraftanlagen.html
Kollbrunn,,,,"Kollbrunn, Gmde. Zell",CH,0.37,Hydro,Run-of-river,,2010,,47.4592833018,8.76883185531,,"Renewable energy",Hydro,,,,https://www.bfe.admin.ch/bfe/de/home/versorgung/statistik-und-geodaten/geoinformation/geodaten/wasser/statistik-der-wasserkraftanlagen.html
Sennhof,,,,"Sennhof, Illnau-Effretikon",CH,0.47,Hydro,Run-of-river,,2014,,47.4661750376,8.75613687859,,"Renewable energy",Hydro,,,,https://www.bfe.admin.ch/bfe/de/home/versorgung/statistik-und-geodaten/geoinformation/geodaten/wasser/statistik-der-wasserkraftanlagen.html
Pfungen,,,,Neftenbach,CH,0.35,Hydro,Run-of-river,,1994,,47.5214894015,8.64091948594,,"Renewable energy",Hydro,,,,https://www.bfe.admin.ch/bfe/de/home/versorgung/statistik-und-geodaten/geoinformation/geodaten/wasser/statistik-der-wasserkraftanlagen.html
"Hard Wülflingen",,,,"Hard, Wülflingen in Winterthur",CH,0.58,Hydro,Run-of-river,,2015,,47.5179055877,8.67376758421,,"Renewable energy",Hydro,,,,https://www.bfe.admin.ch/bfe/de/home/versorgung/statistik-und-geodaten/geoinformation/geodaten/wasser/statistik-der-wasserkraftanlagen.html
Freienstein,,,,Freienstein,CH,0.6,Hydro,Run-of-river,,2004,,47.528692361,8.58703091713,,"Renewable energy",Hydro,,,"- Ersatz alte Zentrale Freienstein im Jahr 2004; ",https://www.bfe.admin.ch/bfe/de/home/versorgung/statistik-und-geodaten/geoinformation/geodaten/wasser/statistik-der-wasserkraftanlagen.html
Trümpler,,,,Oberuster,CH,0.42,Hydro,Run-of-river,,2000,,47.3456402562,8.73992340849,,"Renewable energy",Hydro,,,,https://www.bfe.admin.ch/bfe/de/home/versorgung/statistik-und-geodaten/geoinformation/geodaten/wasser/statistik-der-wasserkraftanlagen.html
Eglisau,,,,Zweidlen,CH,46.9,Hydro,Run-of-river,,2012,,47.5749161402,8.47332208664,,"Renewable energy",Hydro,,,,https://www.bfe.admin.ch/bfe/de/home/versorgung/statistik-und-geodaten/geoinformation/geodaten/wasser/statistik-der-wasserkraftanlagen.html
Reckingen,,,,Reckingen,CH,39.5,Hydro,Run-of-river,,2004,,47.5710071549,8.3380806201,,"Renewable energy",Hydro,,,,https://www.bfe.admin.ch/bfe/de/home/versorgung/statistik-und-geodaten/geoinformation/geodaten/wasser/statistik-der-wasserkraftanlagen.html
Wunderklingen,,,,Hallau,CH,0.42,Hydro,Run-of-river,,1968,,47.6978059267,8.4073779118,,"Renewable energy",Hydro,,,,https://www.bfe.admin.ch/bfe/de/home/versorgung/statistik-und-geodaten/geoinformation/geodaten/wasser/statistik-der-wasserkraftanlagen.html
Albbruck-Dogern,,,,Leibstadt,CH,28.4,Hydro,Run-of-river,,2009,,47.58581763,8.13293948536,,"Renewable energy",Hydro,,,,https://www.bfe.admin.ch/bfe/de/home/versorgung/statistik-und-geodaten/geoinformation/geodaten/wasser/statistik-der-wasserkraftanlagen.html
Laufenburg,,,,Laufenburg,CH,110,Hydro,Run-of-river,,1992,,47.5558907696,8.04884507333,,"Renewable energy",Hydro,,,,https://www.bfe.admin.ch/bfe/de/home/versorgung/statistik-und-geodaten/geoinformation/geodaten/wasser/statistik-der-wasserkraftanlagen.html
"Rheinkraftwerk Säckingen",,,,"Bad Säckingen",CH,73.6,Hydro,Run-of-river,,1966,,47.5578674161,7.95679136018,,"Renewable energy",Hydro,,,,https://www.bfe.admin.ch/bfe/de/home/versorgung/statistik-und-geodaten/geoinformation/geodaten/wasser/statistik-der-wasserkraftanlagen.html
Ryburg-Schwörstadt,,,,Schwörstadt,CH,120,Hydro,Run-of-river,,1984,,47.5863232345,7.83343789289,,"Renewable energy",Hydro,,,,https://www.bfe.admin.ch/bfe/de/home/versorgung/statistik-und-geodaten/geoinformation/geodaten/wasser/statistik-der-wasserkraftanlagen.html
"Ryburg-Schwörstadt Lockstromz.",,,,"Schwörstaddt, KW Ryburg-Schw.",CH,0.35,Hydro,Run-of-river,,2014,,47.5874006466,7.83397764783,,"Renewable energy",Hydro,,,,https://www.bfe.admin.ch/bfe/de/home/versorgung/statistik-und-geodaten/geoinformation/geodaten/wasser/statistik-der-wasserkraftanlagen.html
Rheinfelden,,,,Rheinfelden,CH,100,Hydro,Run-of-river,,2010,,47.5688531592,7.8129757269,12W-0000000080-7,"Renewable energy",Hydro,,,"- Ersatz alte Zentrale Rheinfelden im Jahr 2010;  ; ",https://www.bfe.admin.ch/bfe/de/home/versorgung/statistik-und-geodaten/geoinformation/geodaten/wasser/statistik-der-wasserkraftanlagen.html
Rheinfelden-Dotierzentrale,,,,Rheinfelden,CH,1.8,Hydro,Run-of-river,,2011,,47.5688531592,7.8129757269,12W-0000000080-7,"Renewable energy",Hydro,,,,https://www.bfe.admin.ch/bfe/de/home/versorgung/statistik-und-geodaten/geoinformation/geodaten/wasser/statistik-der-wasserkraftanlagen.html
Augst,,,,Augst,CH,35,Hydro,Run-of-river,,1994,,47.5367624123,7.70968848078,,"Renewable energy",Hydro,,,,https://www.bfe.admin.ch/bfe/de/home/versorgung/statistik-und-geodaten/geoinformation/geodaten/wasser/statistik-der-wasserkraftanlagen.html
Wyhlen,,,,Grenzach-Wyhlen,CH,38.5,Hydro,Run-of-river,,1994,,47.5387456625,7.70770633233,,"Renewable energy",Hydro,,,,https://www.bfe.admin.ch/bfe/de/home/versorgung/statistik-und-geodaten/geoinformation/geodaten/wasser/statistik-der-wasserkraftanlagen.html
Birsfelden,,,,Birsfelden,CH,100,Hydro,Run-of-river,,1999,,47.5598609367,7.62636460556,,"Renewable energy",Hydro,,,,https://www.bfe.admin.ch/bfe/de/home/versorgung/statistik-und-geodaten/geoinformation/geodaten/wasser/statistik-der-wasserkraftanlagen.html
Moutier,,,,"Gorges de Court",CH,0.92,Hydro,Run-of-river,,1979,,47.2656875543,7.34903942074,,"Renewable energy",Hydro,,,,https://www.bfe.admin.ch/bfe/de/home/versorgung/statistik-und-geodaten/geoinformation/geodaten/wasser/statistik-der-wasserkraftanlagen.html
Choindez,,,,Choindez,CH,0.58,Hydro,Run-of-river,,2003,,47.3222821543,7.37844081384,,"Renewable energy",Hydro,,,,https://www.bfe.admin.ch/bfe/de/home/versorgung/statistik-und-geodaten/geoinformation/geodaten/wasser/statistik-der-wasserkraftanlagen.html
"Blanches-Fontaines Undervelier",,,,"Undervelier, Blanches-Fontaine",CH,0.32,Hydro,Run-of-river,,2001,,47.2948384497,7.22127698932,,"Renewable energy",Hydro,,,,https://www.bfe.admin.ch/bfe/de/home/versorgung/statistik-und-geodaten/geoinformation/geodaten/wasser/statistik-der-wasserkraftanlagen.html
Bassecourt,,,,"Chez Theurillat, Haute-Sorne",CH,1.03,Hydro,Run-of-river,,2001,,47.331015929,7.23197724871,,"Renewable energy",Hydro,,,,https://www.bfe.admin.ch/bfe/de/home/versorgung/statistik-und-geodaten/geoinformation/geodaten/wasser/statistik-der-wasserkraftanlagen.html
Bellerive,,,,Soyhières,CH,0.52,Hydro,Run-of-river,,2002,,47.3828021223,7.35916951758,,"Renewable energy",Hydro,,,,https://www.bfe.admin.ch/bfe/de/home/versorgung/statistik-und-geodaten/geoinformation/geodaten/wasser/statistik-der-wasserkraftanlagen.html
Juramill,,,,Laufen,CH,0.35,Hydro,Run-of-river,,1997,,47.4105191351,7.49467015206,,"Renewable energy",Hydro,,,,https://www.bfe.admin.ch/bfe/de/home/versorgung/statistik-und-geodaten/geoinformation/geodaten/wasser/statistik-der-wasserkraftanlagen.html
"Laufen (Wasserfall)",,,,Laufen,CH,0.72,Hydro,Run-of-river,,1995,,47.4196898837,7.50117302601,,"Renewable energy",Hydro,,,,https://www.bfe.admin.ch/bfe/de/home/versorgung/statistik-und-geodaten/geoinformation/geodaten/wasser/statistik-der-wasserkraftanlagen.html
"Zwingen, Obermatt",,,,Zwingen,CH,0.38,Hydro,Run-of-river,,2005,,47.4364944597,7.52399277792,,"Renewable energy",Hydro,,,"#NAME?; ",https://www.bfe.admin.ch/bfe/de/home/versorgung/statistik-und-geodaten/geoinformation/geodaten/wasser/statistik-der-wasserkraftanlagen.html
Nenzlingen,,,,Nenzlingen,CH,0.34,Hydro,Run-of-river,,1997,,47.4438497021,7.5478685338,,"Renewable energy",Hydro,,,,https://www.bfe.admin.ch/bfe/de/home/versorgung/statistik-und-geodaten/geoinformation/geodaten/wasser/statistik-der-wasserkraftanlagen.html
Moos,,,,Grellingen,CH,0.98,Hydro,Run-of-river,,1999,,47.4387770608,7.58113219065,,"Renewable energy",Hydro,,,,https://www.bfe.admin.ch/bfe/de/home/versorgung/statistik-und-geodaten/geoinformation/geodaten/wasser/statistik-der-wasserkraftanlagen.html
"Büttenen 2",,,,Grellingen,CH,0.5,Hydro,Run-of-river,,2000,,47.4428086273,7.59347246718,,"Renewable energy",Hydro,,,"- Nutzungsdauer:  Bezogen auf die Ausbauwassermenge von 13.0 m3/s (Zentralen Büttenen 1 und Büttenen 2);                        ; ",https://www.bfe.admin.ch/bfe/de/home/versorgung/statistik-und-geodaten/geoinformation/geodaten/wasser/statistik-der-wasserkraftanlagen.html
"Büttenen 1",,,,Grellingen,CH,0.55,Hydro,Run-of-river,,1999,,47.4428086273,7.59347246718,,"Renewable energy",Hydro,,,"- Nutzungsdauer:  Bezogen auf die Ausbauwassermenge von 13.0 m3/s (Zentralen Büttenen 1 und Büttenen 2);                         ; ",https://www.bfe.admin.ch/bfe/de/home/versorgung/statistik-und-geodaten/geoinformation/geodaten/wasser/statistik-der-wasserkraftanlagen.html
Dornachbrugg,,,,Dornach,CH,1.54,Hydro,Run-of-river,,1996,,47.4890184953,7.60740615434,,"Renewable energy",Hydro,,,,https://www.bfe.admin.ch/bfe/de/home/versorgung/statistik-und-geodaten/geoinformation/geodaten/wasser/statistik-der-wasserkraftanlagen.html
Neuewelt,,,,Münchenstein,CH,1.07,Hydro,Run-of-river,,1998,,47.5257818674,7.62173011689,,"Renewable energy",Hydro,,,,https://www.bfe.admin.ch/bfe/de/home/versorgung/statistik-und-geodaten/geoinformation/geodaten/wasser/statistik-der-wasserkraftanlagen.html
"Am. de dotation du Kembs 1",,,,"Barrage de Kembs",CH,2.85,Hydro,Run-of-river,,1966,,47.6194755433,7.57030818507,,"Renewable energy",Hydro,,,,https://www.bfe.admin.ch/bfe/de/home/versorgung/statistik-und-geodaten/geoinformation/geodaten/wasser/statistik-der-wasserkraftanlagen.html
"Am. de dotation du Kembs 2",,,,"Barrage de Kembs",CH,8.4,Hydro,Run-of-river,,2016,,,,,"Renewable energy",Hydro,,,,https://www.bfe.admin.ch/bfe/de/home/versorgung/statistik-und-geodaten/geoinformation/geodaten/wasser/statistik-der-wasserkraftanlagen.html
Kembs,,,,"Kembs, Loechle",CH,155,Hydro,Run-of-river,,1983,,47.6549559529,7.51941590623,,"Renewable energy",Hydro,,,,https://www.bfe.admin.ch/bfe/de/home/versorgung/statistik-und-geodaten/geoinformation/geodaten/wasser/statistik-der-wasserkraftanlagen.html
"Grimsel 2",,,,"Grimsel, Chessituren",CH,388,Hydro,"Pumped storage with natural inflow",,1981,,46.5680720667,8.31932651704,12W-0000000031-O,"Renewable energy",Hydro,,,"- Zentrale Grimsel 2 praktiziert Umwälzbetrieb            ; ",https://www.bfe.admin.ch/bfe/de/home/versorgung/statistik-und-geodaten/geoinformation/geodaten/wasser/statistik-der-wasserkraftanlagen.html
"KW Grimsel Nollen",,,,"Guttannen, Spitelnollen",CH,1.1,Hydro,Run-of-river,,2017,,,,,"Renewable energy",Hydro,,,,https://www.bfe.admin.ch/bfe/de/home/versorgung/statistik-und-geodaten/geoinformation/geodaten/wasser/statistik-der-wasserkraftanlagen.html
"Grimsel 1-Oberaarsee",,,,"Grimsel, Sommerloch u.Hospiz",CH,33.6,Hydro,Reservoir,,2006,,46.5753380766,8.33353407357,12W-0000000031-O,"Renewable energy",Hydro,,,"- Zentralen Grimsel 1 (Oberaarsee) und Grimsel 1 (Grimselsee) in einer Kaverne;     ;                                                    ; ",https://www.bfe.admin.ch/bfe/de/home/versorgung/statistik-und-geodaten/geoinformation/geodaten/wasser/statistik-der-wasserkraftanlagen.html
"Grimsel 1-Grimselsee",,,,"Grimsel, Sommerloch, u.Hospiz",CH,32.2,Hydro,Reservoir,,2007,,46.5753380766,8.33353407357,12W-0000000031-O,"Renewable energy",Hydro,,,"- Zentralen Grimsel 1 (Oberaarsee) und Grimsel 1 (Grimselsee) in einer Kaverne;    ;                                                    ; ",https://www.bfe.admin.ch/bfe/de/home/versorgung/statistik-und-geodaten/geoinformation/geodaten/wasser/statistik-der-wasserkraftanlagen.html
"Handeck 1",,,,Handegg,CH,44.8,Hydro,Reservoir,,1932,,46.6168313032,8.30758712831,12W-0000000031-O,"Renewable energy",Hydro,,,,https://www.bfe.admin.ch/bfe/de/home/versorgung/statistik-und-geodaten/geoinformation/geodaten/wasser/statistik-der-wasserkraftanlagen.html
"Handeck 2",,,,Handegg,CH,215.6,Hydro,Reservoir,,1958,,,,,"Renewable energy",Hydro,,,,https://www.bfe.admin.ch/bfe/de/home/versorgung/statistik-und-geodaten/geoinformation/geodaten/wasser/statistik-der-wasserkraftanlagen.html
"Handeck 3 - Isogyre",,,,Handegg,CH,55.1,Hydro,"Pumped storage",,1976,,46.6156957263,8.30313005616,12W-0000000031-O,"Renewable energy",Hydro,,,"- Zentrale Handeck 3: Pumpen-Turbinenbetrieb mit Isogyre-Maschine     ;   a) 	Im Turbinenbetrieb: Die Isogyre turbiniert das Wasser aus dem Räterichsbodensee. Dieses wird über das Ausgleichsbecken Handeck; 	entweder zur Zentrale Innertkirchen 1 oder über die Reservoirkammern Trift zur Zentrale Hopflauenen (Trift) geleitet ;   b) 	Im Pumpbetrieb: Die Isogyre pumpt das Wasser aus den Reservoirkammern Trift und/oder aus dem Ausgleichsbecken Handeck; 	in den Räterichsbodensee ; - Zentralen Handeck 3 (Isogyre) und Handeck 3 (Pumpzentrale) in einer Kaverne;                    ;       ;                                                     ;          ",https://www.bfe.admin.ch/bfe/de/home/versorgung/statistik-und-geodaten/geoinformation/geodaten/wasser/statistik-der-wasserkraftanlagen.html
"Kraftwerk Hostetbach AG",,,,"Guttannen, Blatti",CH,1.29,Hydro,Run-of-river,,2016,,,,,"Renewable energy",Hydro,,,,https://www.bfe.admin.ch/bfe/de/home/versorgung/statistik-und-geodaten/geoinformation/geodaten/wasser/statistik-der-wasserkraftanlagen.html
"Innertkirchen 3",,,,"Innertkirchen, Underürbach",CH,2.95,Hydro,Run-of-river,,2016,,,,,"Renewable energy",Hydro,,,,https://www.bfe.admin.ch/bfe/de/home/versorgung/statistik-und-geodaten/geoinformation/geodaten/wasser/statistik-der-wasserkraftanlagen.html
"Innertkirchen 1",,,,Innertkirchen,CH,393.5,Hydro,Reservoir,,2007,,,,,"Renewable energy",Hydro,,,,https://www.bfe.admin.ch/bfe/de/home/versorgung/statistik-und-geodaten/geoinformation/geodaten/wasser/statistik-der-wasserkraftanlagen.html
Gental,,,,"Underi-Furen, Innertkirchen",CH,9.6,Hydro,Reservoir,,1961,,46.7271910884,8.33369724917,12W-0000000031-O,"Renewable energy",Hydro,,,"#NAME?; ",https://www.bfe.admin.ch/bfe/de/home/versorgung/statistik-und-geodaten/geoinformation/geodaten/wasser/statistik-der-wasserkraftanlagen.html
Gental,,,,"Underi-Furen, Innertkirchen",CH,0,Hydro,Reservoir,,1961,,46.7271910884,8.33369724917,12W-0000000031-O,"Renewable energy",Hydro,,,"#NAME?; #NAME?;                                                         ;   ; ",https://www.bfe.admin.ch/bfe/de/home/versorgung/statistik-und-geodaten/geoinformation/geodaten/wasser/statistik-der-wasserkraftanlagen.html
Hopflauenen-Trift,,,,Hopflauenen,CH,81.6,Hydro,Reservoir,,1974,,46.715113414,8.27751698219,12W-0000000031-O,"Renewable energy",Hydro,,,"#NAME?;   a) Laufkraftwerkbetrieb:  Sommer, dh. Zufluss zur Reservoirkammer Trift gleich oder  grösser 14 m3/s                                      ;   b) Lauf- und Speicherkraftwerkbetrieb gemischt:  Frühling/Herbst, dh. natürlicher Zufluss zur Reservoirkammer Trift = 2 - 14 m3/s,    ;                                                			  Rest bis 21 m3/s Speicherwasser ab Zentrale Handeck 3 (Isogyre);   c) Speicherkraftwerkbetrieb: Winter, dh. Speicherwasser ab Zentrale Handeck 3 (Isogyre); #NAME?;       ;      ;                                          ;                                    ",https://www.bfe.admin.ch/bfe/de/home/versorgung/statistik-und-geodaten/geoinformation/geodaten/wasser/statistik-der-wasserkraftanlagen.html
Hopflauenen-Leimboden,,,,Hopflauenen,CH,5.4,Hydro,Run-of-river,,1967,,46.715113414,8.27751698219,12W-0000000031-O,"Renewable energy",Hydro,,,"#NAME?;                                                 ; ",https://www.bfe.admin.ch/bfe/de/home/versorgung/statistik-und-geodaten/geoinformation/geodaten/wasser/statistik-der-wasserkraftanlagen.html
"Innertkirchen 2",,,,Innertkirchen,CH,54.8,Hydro,Reservoir,,1974,,46.7085534816,8.22601948865,12W-0000000031-O,"Renewable energy",Hydro,,,"#NAME?;   a) Laufkraftwerkbetrieb im Sommer;   b) Lauf- und Speicherkraftwerkbetrieb gemischt im Frühling und im Herbst;   c) Speicherkraftwerkbetrieb im Winter ;  ; ",https://www.bfe.admin.ch/bfe/de/home/versorgung/statistik-und-geodaten/geoinformation/geodaten/wasser/statistik-der-wasserkraftanlagen.html
"Meiringen 2",,,,"Meiringen, Haselholz",CH,1.65,Hydro,Run-of-river,,1950,,46.7317817542,8.19665922545,,"Renewable energy",Hydro,,,"#NAME?; ",https://www.bfe.admin.ch/bfe/de/home/versorgung/statistik-und-geodaten/geoinformation/geodaten/wasser/statistik-der-wasserkraftanlagen.html
"Meiringen 1",,,,Meiringen,CH,1,Hydro,Run-of-river,,1946,,46.7287537496,8.19203780743,,"Renewable energy",Hydro,,,"#NAME?; ",https://www.bfe.admin.ch/bfe/de/home/versorgung/statistik-und-geodaten/geoinformation/geodaten/wasser/statistik-der-wasserkraftanlagen.html
"Schattenhalb 1+",,,,Schattenhalb,CH,2.3,Hydro,Run-of-river,,2017,,,,,"Renewable energy",Hydro,,,"- Schattenhalb 1 wurde ertsmals 1907 in Betrieb genommen; ",https://www.bfe.admin.ch/bfe/de/home/versorgung/statistik-und-geodaten/geoinformation/geodaten/wasser/statistik-der-wasserkraftanlagen.html
"Schattenhalb 3",,,,Schattenhalb,CH,9.7,Hydro,Run-of-river,,2010,,46.7194470022,8.18458296836,,"Renewable energy",Hydro,,,,https://www.bfe.admin.ch/bfe/de/home/versorgung/statistik-und-geodaten/geoinformation/geodaten/wasser/statistik-der-wasserkraftanlagen.html
Giessbach,,,,Brienz,CH,0.9,Hydro,Run-of-river,,2005,,46.7344427309,8.01888764388,,"Renewable energy",Hydro,,,,https://www.bfe.admin.ch/bfe/de/home/versorgung/statistik-und-geodaten/geoinformation/geodaten/wasser/statistik-der-wasserkraftanlagen.html
Grindelwald,,,,Grindelwald,CH,1.4,Hydro,Reservoir,,1960,,46.6264198282,8.05024233615,,"Renewable energy",Hydro,,,,https://www.bfe.admin.ch/bfe/de/home/versorgung/statistik-und-geodaten/geoinformation/geodaten/wasser/statistik-der-wasserkraftanlagen.html
Burglauenen-Lütschental,,,,Lütschental,CH,11.9,Hydro,Run-of-river,,2011,,46.6373283443,7.95450426806,,"Renewable energy",Hydro,,,,https://www.bfe.admin.ch/bfe/de/home/versorgung/statistik-und-geodaten/geoinformation/geodaten/wasser/statistik-der-wasserkraftanlagen.html
Stechelberg,,,,"Lauterbrunnen, Stechelberg",CH,4.3,Hydro,Run-of-river,,1979,,46.544726438,7.89990747896,,"Renewable energy",Hydro,,,,https://www.bfe.admin.ch/bfe/de/home/versorgung/statistik-und-geodaten/geoinformation/geodaten/wasser/statistik-der-wasserkraftanlagen.html
Saxettal-Geissbrunnen,,,,Saxeten,CH,0.48,Hydro,Run-of-river,,1999,,46.6283781404,7.82997757095,,"Renewable energy",Hydro,,,"#NAME?; ",https://www.bfe.admin.ch/bfe/de/home/versorgung/statistik-und-geodaten/geoinformation/geodaten/wasser/statistik-der-wasserkraftanlagen.html
Saxettal-Kammri,,,,Wilderswil,CH,0.8,Hydro,Run-of-river,,1998,,46.65762105,7.853444546,,"Renewable energy",Hydro,,,"#NAME?; ",https://www.bfe.admin.ch/bfe/de/home/versorgung/statistik-und-geodaten/geoinformation/geodaten/wasser/statistik-der-wasserkraftanlagen.html
Interlaken,,,,"Interlaken, Kanal",CH,0.82,Hydro,Run-of-river,,1932,,46.6826409841,7.85010729942,,"Renewable energy",Hydro,,,,https://www.bfe.admin.ch/bfe/de/home/versorgung/statistik-und-geodaten/geoinformation/geodaten/wasser/statistik-der-wasserkraftanlagen.html
Interlaken,,,,Unterseen,CH,0.3,Hydro,Run-of-river,,1996,,46.6826409841,7.85010729942,,"Renewable energy",Hydro,,,,https://www.bfe.admin.ch/bfe/de/home/versorgung/statistik-und-geodaten/geoinformation/geodaten/wasser/statistik-der-wasserkraftanlagen.html
"Kandersteg (Eggeschwand)",,,,"Kandersteg, Eggeschwand",CH,2.1,Hydro,Run-of-river,,2009,,46.4750989753,7.66012339529,,"Renewable energy",Hydro,,,,https://www.bfe.admin.ch/bfe/de/home/versorgung/statistik-und-geodaten/geoinformation/geodaten/wasser/statistik-der-wasserkraftanlagen.html
"Kandersteg (Zilfuri)",,,,"Kandersteg, Zilfuri",CH,1.09,Hydro,Run-of-river,,1958,,46.4956334904,7.69159893354,,"Renewable energy",Hydro,,,"#NAME?; ",https://www.bfe.admin.ch/bfe/de/home/versorgung/statistik-und-geodaten/geoinformation/geodaten/wasser/statistik-der-wasserkraftanlagen.html
"Kandersteg (Dorf)",,,,"Kandersteg, Dorf",CH,1.03,Hydro,Run-of-river,,2012,,46.4959386063,7.67518789714,,"Renewable energy",Hydro,,,,https://www.bfe.admin.ch/bfe/de/home/versorgung/statistik-und-geodaten/geoinformation/geodaten/wasser/statistik-der-wasserkraftanlagen.html
Kandergrund,,,,Inner-Kandergrund,CH,19,Hydro,Run-of-river,,1991,,46.5427473984,7.65948659951,12W-0000000031-O,"Renewable energy",Hydro,,,,https://www.bfe.admin.ch/bfe/de/home/versorgung/statistik-und-geodaten/geoinformation/geodaten/wasser/statistik-der-wasserkraftanlagen.html
Engstligenalp,,,,"Adelboden, Engstligenalp",CH,0.6,Hydro,Run-of-river,,2011,,46.4491601982,7.56175847554,,"Renewable energy",Hydro,,,,https://www.bfe.admin.ch/bfe/de/home/versorgung/statistik-und-geodaten/geoinformation/geodaten/wasser/statistik-der-wasserkraftanlagen.html
"WKA Spiggenbach Reichenbach",,,,"Reichenbach, Losplatte",CH,2.75,Hydro,Run-of-river,,2017,,,,,"Renewable energy",Hydro,,,,https://www.bfe.admin.ch/bfe/de/home/versorgung/statistik-und-geodaten/geoinformation/geodaten/wasser/statistik-der-wasserkraftanlagen.html
Moosweid,,,,"Adelboden, Moosweid",CH,0.35,Hydro,Run-of-river,,2014,,46.4961001155,7.57684401786,,"Renewable energy",Hydro,,,,https://www.bfe.admin.ch/bfe/de/home/versorgung/statistik-und-geodaten/geoinformation/geodaten/wasser/statistik-der-wasserkraftanlagen.html
Engstlige,,,,Adelboden,CH,0.9,Hydro,Run-of-river,,1996,,46.5068875836,7.58273413036,,"Renewable energy",Hydro,,,,https://www.bfe.admin.ch/bfe/de/home/versorgung/statistik-und-geodaten/geoinformation/geodaten/wasser/statistik-der-wasserkraftanlagen.html
Spiez,,,,"Längmad am Thunersee",CH,18.66,Hydro,Run-of-river,,1986,,46.6966510403,7.6649514724,,"Renewable energy",Hydro,,,"- Ausbauwassermenge:	Bezogen auf die Zuleitungskapazität ab Weiher Spiezmoos       ; - Nutzungsdauer: 		Bezogen auf die Zuleitungskapazität ab Simme- und Kanderwehr bis Weiher Spiezmoos;                                              ;         			12 m3/s + 14 m3/s = 26 m3/s;                          ;                               ; ",https://www.bfe.admin.ch/bfe/de/home/versorgung/statistik-und-geodaten/geoinformation/geodaten/wasser/statistik-der-wasserkraftanlagen.html
"Färmelbach, St. Stephan",,,,"St. Stephan, Matten",CH,2.09,Hydro,Run-of-river,,2016,,,,,"Renewable energy",Hydro,,,,https://www.bfe.admin.ch/bfe/de/home/versorgung/statistik-und-geodaten/geoinformation/geodaten/wasser/statistik-der-wasserkraftanlagen.html
"KW Simelemoos",,,,"St. Stephan",CH,0.35,Hydro,Run-of-river,,2016,,,,,"Renewable energy",Hydro,,,,https://www.bfe.admin.ch/bfe/de/home/versorgung/statistik-und-geodaten/geoinformation/geodaten/wasser/statistik-der-wasserkraftanlagen.html
"Laubegg (Garstatt)",,,,"Boltigen, Garstatt",CH,2.6,Hydro,Run-of-river,,2016,,,,,"Renewable energy",Hydro,,,,https://www.bfe.admin.ch/bfe/de/home/versorgung/statistik-und-geodaten/geoinformation/geodaten/wasser/statistik-der-wasserkraftanlagen.html
"Berner Green Power GmbH",,,,Weissenburg,CH,0.37,Hydro,Run-of-river,,1999,,46.6669162637,7.46411851171,,"Renewable energy",Hydro,,,,https://www.bfe.admin.ch/bfe/de/home/versorgung/statistik-und-geodaten/geoinformation/geodaten/wasser/statistik-der-wasserkraftanlagen.html
Klusi,,,,Erlenbach,CH,1.3,Hydro,Reservoir,,1996,,46.6638985262,7.54826368379,,"Renewable energy",Hydro,,,"#NAME?; - Ersatz alte Zentrale Klusi im Jahr 1996                                        ; ",https://www.bfe.admin.ch/bfe/de/home/versorgung/statistik-und-geodaten/geoinformation/geodaten/wasser/statistik-der-wasserkraftanlagen.html
Erlenbach,,,,Erlenbach,CH,18,Hydro,Run-of-river,,2005,,46.6568821564,7.54811891222,,"Renewable energy",Hydro,,,,https://www.bfe.admin.ch/bfe/de/home/versorgung/statistik-und-geodaten/geoinformation/geodaten/wasser/statistik-der-wasserkraftanlagen.html
Simmenfluh,,,,"Simmenfluh (Wimmis)",CH,9,Hydro,Run-of-river,,2000,,46.6727987868,7.62264084059,,"Renewable energy",Hydro,,,,https://www.bfe.admin.ch/bfe/de/home/versorgung/statistik-und-geodaten/geoinformation/geodaten/wasser/statistik-der-wasserkraftanlagen.html
"AAREwerk 62 Thun",,,,Thun,CH,6.32,Hydro,Run-of-river,,1962,,46.7616886927,7.61338717639,,"Renewable energy",Hydro,,,,https://www.bfe.admin.ch/bfe/de/home/versorgung/statistik-und-geodaten/geoinformation/geodaten/wasser/statistik-der-wasserkraftanlagen.html
"AAREwerk 94 Thun",,,,Thun,CH,2.83,Hydro,Run-of-river,,1994,,46.7616779127,7.62032482826,,"Renewable energy",Hydro,,,"- Ersatz Zentrale Thun-Aare 1917 am Gewerbekanal im Jahr 1994                                ; ",https://www.bfe.admin.ch/bfe/de/home/versorgung/statistik-und-geodaten/geoinformation/geodaten/wasser/statistik-der-wasserkraftanlagen.html
"Thun (Eidg.)",,,,"Thun, Kanal (Uttigenstr.)",CH,0.44,Hydro,Run-of-river,,1937,,46.761596737,7.61469587515,,"Renewable energy",Hydro,,,,https://www.bfe.admin.ch/bfe/de/home/versorgung/statistik-und-geodaten/geoinformation/geodaten/wasser/statistik-der-wasserkraftanlagen.html
Blumenstein,,,,Blumenstein,CH,0.64,Hydro,Run-of-river,,1990,,46.727704518,7.51333335379,,"Renewable energy",Hydro,,,"#NAME?; ",https://www.bfe.admin.ch/bfe/de/home/versorgung/statistik-und-geodaten/geoinformation/geodaten/wasser/statistik-der-wasserkraftanlagen.html
Matte,,,,"Bern, Matte",CH,1.16,Hydro,Run-of-river,,1986,,46.9464934587,7.45675932783,,"Renewable energy",Hydro,,,,https://www.bfe.admin.ch/bfe/de/home/versorgung/statistik-und-geodaten/geoinformation/geodaten/wasser/statistik-der-wasserkraftanlagen.html
Felsenau,,,,Engehalde,CH,0.44,Hydro,Run-of-river,,1998,,46.9684429408,7.43942106448,,"Renewable energy",Hydro,,,,https://www.bfe.admin.ch/bfe/de/home/versorgung/statistik-und-geodaten/geoinformation/geodaten/wasser/statistik-der-wasserkraftanlagen.html
Felsenau,,,,Felsenau,CH,11.5,Hydro,Run-of-river,,1989,,46.9684429408,7.43942106448,,"Renewable energy",Hydro,,,,https://www.bfe.admin.ch/bfe/de/home/versorgung/statistik-und-geodaten/geoinformation/geodaten/wasser/statistik-der-wasserkraftanlagen.html
Mühleberg,,,,Buttenried,CH,44.59,Hydro,Run-of-river,,1965,,46.9691475017,7.28449397374,,"Renewable energy",Hydro,,,,https://www.bfe.admin.ch/bfe/de/home/versorgung/statistik-und-geodaten/geoinformation/geodaten/wasser/statistik-der-wasserkraftanlagen.html
Sanetsch,,,,Innergsteig,CH,18,Hydro,Reservoir,,1966,,46.3764261319,7.27799985349,,"Renewable energy",Hydro,,,,https://www.bfe.admin.ch/bfe/de/home/versorgung/statistik-und-geodaten/geoinformation/geodaten/wasser/statistik-der-wasserkraftanlagen.html
"Lauenen (Louibach)",,,,"Lauenen bei Gstaad",CH,0.9,Hydro,Run-of-river,,2014,,46.4241533318,7.31831395313,,"Renewable energy",Hydro,,,,https://www.bfe.admin.ch/bfe/de/home/versorgung/statistik-und-geodaten/geoinformation/geodaten/wasser/statistik-der-wasserkraftanlagen.html
Gsteig,,,,"Gsteig b.Gstaad",CH,0.72,Hydro,Run-of-river,,2015,,46.3852280895,7.26861425605,,"Renewable energy",Hydro,,,,https://www.bfe.admin.ch/bfe/de/home/versorgung/statistik-und-geodaten/geoinformation/geodaten/wasser/statistik-der-wasserkraftanlagen.html
"Gérignoz - La Pontia",,,,"Château d'Oex, Gérignoz",CH,0.45,Hydro,Run-of-river,,1996,,46.4732724541,7.165215604,,"Renewable energy",Hydro,,,,https://www.bfe.admin.ch/bfe/de/home/versorgung/statistik-und-geodaten/geoinformation/geodaten/wasser/statistik-der-wasserkraftanlagen.html
Montbovon,,,,Montbovon,CH,31,Hydro,Run-of-river,,1972,,46.4879524618,7.04831690495,,"Renewable energy",Hydro,,,,https://www.bfe.admin.ch/bfe/de/home/versorgung/statistik-und-geodaten/geoinformation/geodaten/wasser/statistik-der-wasserkraftanlagen.html
Lessoc,,,,Lessoc,CH,8.56,Hydro,Run-of-river,,1973,,46.5060508043,7.05326712822,,"Renewable energy",Hydro,,,,https://www.bfe.admin.ch/bfe/de/home/versorgung/statistik-und-geodaten/geoinformation/geodaten/wasser/statistik-der-wasserkraftanlagen.html
"Sainte - Anne",,,,Grandvillard,CH,2.9,Hydro,Run-of-river,,1999,,46.5351297566,7.08799404019,,"Renewable energy",Hydro,,,,https://www.bfe.admin.ch/bfe/de/home/versorgung/statistik-und-geodaten/geoinformation/geodaten/wasser/statistik-der-wasserkraftanlagen.html
Jaun,,,,Jaun,CH,0.38,Hydro,Run-of-river,,1982,,46.6085004996,7.26934360331,,"Renewable energy",Hydro,,,,https://www.bfe.admin.ch/bfe/de/home/versorgung/statistik-und-geodaten/geoinformation/geodaten/wasser/statistik-der-wasserkraftanlagen.html
"Charmey (La Tzintre)",,,,"Charmey, La Tzintre",CH,0.86,Hydro,Run-of-river,,2012,,46.6118329212,7.17691300027,,"Renewable energy",Hydro,,,,https://www.bfe.admin.ch/bfe/de/home/versorgung/statistik-und-geodaten/geoinformation/geodaten/wasser/statistik-der-wasserkraftanlagen.html
"Charmey (La Perré)",,,,"Charmey, Le Perré",CH,5.27,Hydro,Run-of-river,,1982,,46.6145855566,7.16175653751,,"Renewable energy",Hydro,,,,https://www.bfe.admin.ch/bfe/de/home/versorgung/statistik-und-geodaten/geoinformation/geodaten/wasser/statistik-der-wasserkraftanlagen.html
Broc,,,,Broc,CH,25,Hydro,Run-of-river,,1988,,46.6098576224,7.10930675272,,"Renewable energy",Hydro,,,,https://www.bfe.admin.ch/bfe/de/home/versorgung/statistik-und-geodaten/geoinformation/geodaten/wasser/statistik-der-wasserkraftanlagen.html
"Am.de dotation d'Hauterive 1",,,,Rossens,CH,0.7,Hydro,Run-of-river,,1976,,46.7179036853,7.1124380045,,"Renewable energy",Hydro,,,"- La centrale est hors fonction pendant l'hiver; ",https://www.bfe.admin.ch/bfe/de/home/versorgung/statistik-und-geodaten/geoinformation/geodaten/wasser/statistik-der-wasserkraftanlagen.html
"Am. de dotation d'Hauterive 2",,,,Rossens,CH,1.7,Hydro,Run-of-river,,2005,,46.7179036853,7.1124380045,,"Renewable energy",Hydro,,,,https://www.bfe.admin.ch/bfe/de/home/versorgung/statistik-und-geodaten/geoinformation/geodaten/wasser/statistik-der-wasserkraftanlagen.html
Hauterive,,,,Hauterive,CH,60,Hydro,Reservoir,,1948,,46.7689506687,7.1275763544,,"Renewable energy",Hydro,,,,https://www.bfe.admin.ch/bfe/de/home/versorgung/statistik-und-geodaten/geoinformation/geodaten/wasser/statistik-der-wasserkraftanlagen.html
"Am.de dotation d'Oelberg",,,,"Fribourg, Maigrauge",CH,0.58,Hydro,Run-of-river,,1952,,46.7987340488,7.16591494327,,"Renewable energy",Hydro,,,,https://www.bfe.admin.ch/bfe/de/home/versorgung/statistik-und-geodaten/geoinformation/geodaten/wasser/statistik-der-wasserkraftanlagen.html
Oelberg,,,,"Fribourg, Oelberg",CH,18.3,Hydro,Reservoir,,1980,,46.8017059504,7.1673408094,,"Renewable energy",Hydro,,,,https://www.bfe.admin.ch/bfe/de/home/versorgung/statistik-und-geodaten/geoinformation/geodaten/wasser/statistik-der-wasserkraftanlagen.html
Schiffenen,,,,Schiffenen,CH,71,Hydro,Reservoir,,1964,,46.8827252047,7.19421903622,,"Renewable energy",Hydro,,,,https://www.bfe.admin.ch/bfe/de/home/versorgung/statistik-und-geodaten/geoinformation/geodaten/wasser/statistik-der-wasserkraftanlagen.html
Niederried,,,,"Niederried, Radelfingen",CH,15,Hydro,Run-of-river,,1992,,47.0031721765,7.24113567118,,"Renewable energy",Hydro,,,"- Nutzungsdauer: 	Bezogen auf die Ausbauwassermenge von 215 m3/s  (Zentralen Niederried und Kallnach); - Ersatzenergie: 	Siehe Zentrale Aarberg                            ;                          ; ",https://www.bfe.admin.ch/bfe/de/home/versorgung/statistik-und-geodaten/geoinformation/geodaten/wasser/statistik-der-wasserkraftanlagen.html
Aarberg,,,,Aarberg,CH,15.2,Hydro,Run-of-river,,1994,,47.0378523989,7.27192721071,,"Renewable energy",Hydro,,,"- Nutzungsdauer: 	Bezogen auf die Ausbauwassermenge von 215 m3/s (Zentralen Niederried, Aarberg und Kallnach); - Ersatzenergie: 	Die Angabe bezieht sich auf die Zentralen Niederried, Aarberg, Kallnach und Hagneck. Einzelwerte ;                      	der Zentralen nicht bekannt ; Das Dotierkraftwerk Aaberg erzeugt mit 210 kW Leistung und 3.5 m3/s Wasserdurchsatz eine Jahresproduktion von 1.5 GWh;; diese wird dem KW Aarberg zugerechnet. Mit einer Erneuerung des Dotierkraftwekes wird die 300 kW Leistung erreicht und; wird somit als eigene Anlage in der WASTA aufgenommen.;                   ;  ;                          	; ",https://www.bfe.admin.ch/bfe/de/home/versorgung/statistik-und-geodaten/geoinformation/geodaten/wasser/statistik-der-wasserkraftanlagen.html
Kallnach,,,,Kallnach,CH,8.3,Hydro,Run-of-river,,1980,,47.0214990152,7.22817749023,,"Renewable energy",Hydro,,,"- Die konzedierte Ausbauwassermenge beträgt 70 m3/s            ; - Ersatzenergie: 	Bezug von Forces Motrices Hongrin-Léman SA bereits unter Zentrale Aarberg aufgeführt    ;                      	Einzelwerte der Zentralen nicht bekannt;                         ; ",https://www.bfe.admin.ch/bfe/de/home/versorgung/statistik-und-geodaten/geoinformation/geodaten/wasser/statistik-der-wasserkraftanlagen.html
"Hagneck 1",,,,Hagneck,CH,2.91,Hydro,Run-of-river,,2016,,,,,"Renewable energy",Hydro,,,"- Ersatzenergie: 	Bezug von Forces Motrices Hongrin-Léman SA  bereits unter Zentrale Aarberg aufgeführt    ;                     	Einzelwerte der Zentralen nicht bekannt; #NAME?;  ;  ;                  	        ; ",https://www.bfe.admin.ch/bfe/de/home/versorgung/statistik-und-geodaten/geoinformation/geodaten/wasser/statistik-der-wasserkraftanlagen.html
"Hagneck 2",,,,Hagneck,CH,20.96,Hydro,Run-of-river,,2015,,47.0596245726,7.17800844643,,"Renewable energy",Hydro,,,"- Ersatzenergie: 	Bezug von Forces Motrices Hongrin-Léman SA  bereits unter Zentrale Aarberg aufgeführt    ;                     	Einzelwerte der Zentralen nicht bekannt;  ;  ; ",https://www.bfe.admin.ch/bfe/de/home/versorgung/statistik-und-geodaten/geoinformation/geodaten/wasser/statistik-der-wasserkraftanlagen.html
"La Dernier",,,,"La Dernier",CH,28,Hydro,Reservoir,,1988,,46.7020995589,6.34993754477,,"Renewable energy",Hydro,,,,https://www.bfe.admin.ch/bfe/de/home/versorgung/statistik-und-geodaten/geoinformation/geodaten/wasser/statistik-der-wasserkraftanlagen.html
"La Jougnenaz",,,,Vallorbe,CH,2.35,Hydro,Run-of-river,,1970,,46.7232276398,6.39660508601,,"Renewable energy",Hydro,,,,https://www.bfe.admin.ch/bfe/de/home/versorgung/statistik-und-geodaten/geoinformation/geodaten/wasser/statistik-der-wasserkraftanlagen.html
"Les Clées",,,,"Les Clées",CH,30,Hydro,Run-of-river,,1955,,46.7311268769,6.44499252092,,"Renewable energy",Hydro,,,,https://www.bfe.admin.ch/bfe/de/home/versorgung/statistik-und-geodaten/geoinformation/geodaten/wasser/statistik-der-wasserkraftanlagen.html
Montcherand,,,,Montcherand,CH,15.5,Hydro,Run-of-river,,1950,,46.7272057233,6.51348662252,,"Renewable energy",Hydro,,,,https://www.bfe.admin.ch/bfe/de/home/versorgung/statistik-und-geodaten/geoinformation/geodaten/wasser/statistik-der-wasserkraftanlagen.html
"Le Chalet",,,,Orbe,CH,2.6,Hydro,Run-of-river,,1988,,46.7277263163,6.52224302381,,"Renewable energy",Hydro,,,,https://www.bfe.admin.ch/bfe/de/home/versorgung/statistik-und-geodaten/geoinformation/geodaten/wasser/statistik-der-wasserkraftanlagen.html
"Moulinets sur l'Orbe",,,,Orbe,CH,0.77,Hydro,Run-of-river,,2013,,46.7209697782,6.53229949585,,"Renewable energy",Hydro,,,,https://www.bfe.admin.ch/bfe/de/home/versorgung/statistik-und-geodaten/geoinformation/geodaten/wasser/statistik-der-wasserkraftanlagen.html
St.Sulpice,,,,St.Sulpice,CH,3.9,Hydro,Run-of-river,,1988,,46.9106213602,6.55745141266,,"Renewable energy",Hydro,,,"- La nouvelle centrale de St.Sulpice remplace entre autres la centrale de La Doux (205800);                                    ; ",https://www.bfe.admin.ch/bfe/de/home/versorgung/statistik-und-geodaten/geoinformation/geodaten/wasser/statistik-der-wasserkraftanlagen.html
"Le Furcil",,,,"Noiraigue, Le Furcil",CH,0.68,Hydro,Run-of-river,,1956,,46.9536626014,6.73186608774,,"Renewable energy",Hydro,,,,https://www.bfe.admin.ch/bfe/de/home/versorgung/statistik-und-geodaten/geoinformation/geodaten/wasser/statistik-der-wasserkraftanlagen.html
"Les Moyats",,,,"Brot-Dessous, Les Moyats",CH,1.6,Hydro,Run-of-river,,1940,,46.9529131011,6.75657368575,,"Renewable energy",Hydro,,,,https://www.bfe.admin.ch/bfe/de/home/versorgung/statistik-und-geodaten/geoinformation/geodaten/wasser/statistik-der-wasserkraftanlagen.html
Combe-Garot,,,,"Boudry, Combe-Garot",CH,4.86,Hydro,Run-of-river,,1961,,46.9623191064,6.79639758751,,"Renewable energy",Hydro,,,,https://www.bfe.admin.ch/bfe/de/home/versorgung/statistik-und-geodaten/geoinformation/geodaten/wasser/statistik-der-wasserkraftanlagen.html
"Usine du Chanet",,,,Boudry,CH,4.4,Hydro,Run-of-river,,1972,,46.9592586149,6.82888645291,,"Renewable energy",Hydro,,,,https://www.bfe.admin.ch/bfe/de/home/versorgung/statistik-und-geodaten/geoinformation/geodaten/wasser/statistik-der-wasserkraftanlagen.html
"Boudry (les Essert)",,,,Boudry,CH,0.5,Hydro,Run-of-river,,2014,,46.9508768262,6.84290644242,,"Renewable energy",Hydro,,,,https://www.bfe.admin.ch/bfe/de/home/versorgung/statistik-und-geodaten/geoinformation/geodaten/wasser/statistik-der-wasserkraftanlagen.html
"La Serrière",,,,"La Serrière, Neuchâtel",CH,1.3,Hydro,Run-of-river,,2016,,,,,"Renewable energy",Hydro,,,,https://www.bfe.admin.ch/bfe/de/home/versorgung/statistik-und-geodaten/geoinformation/geodaten/wasser/statistik-der-wasserkraftanlagen.html
"Sous les Roches",,,,Sonceboz,CH,0.39,Hydro,Run-of-river,,2005,,47.1896143522,7.18396966384,,"Renewable energy",Hydro,,,,https://www.bfe.admin.ch/bfe/de/home/versorgung/statistik-und-geodaten/geoinformation/geodaten/wasser/statistik-der-wasserkraftanlagen.html
Rondchâtel,,,,"Péry, Rondchâtel",CH,3,Hydro,Run-of-river,,2013,,47.1710326223,7.24974576351,,"Renewable energy",Hydro,,,,https://www.bfe.admin.ch/bfe/de/home/versorgung/statistik-und-geodaten/geoinformation/geodaten/wasser/statistik-der-wasserkraftanlagen.html
Frinvillier,,,,Frinvillier,CH,0.35,Hydro,Run-of-river,,2005,,47.1683406671,7.25371218143,,"Renewable energy",Hydro,,,,https://www.bfe.admin.ch/bfe/de/home/versorgung/statistik-und-geodaten/geoinformation/geodaten/wasser/statistik-der-wasserkraftanlagen.html
Taubenloch,,,,Biel-Bözingen,CH,0.32,Hydro,Run-of-river,,2006,,47.1607076521,7.26165130183,,"Renewable energy",Hydro,,,,https://www.bfe.admin.ch/bfe/de/home/versorgung/statistik-und-geodaten/geoinformation/geodaten/wasser/statistik-der-wasserkraftanlagen.html
Bözingen,,,,Bözingen,CH,3.25,Hydro,Run-of-river,,2013,,47.1545087131,7.26655078925,,"Renewable energy",Hydro,,,,https://www.bfe.admin.ch/bfe/de/home/versorgung/statistik-und-geodaten/geoinformation/geodaten/wasser/statistik-der-wasserkraftanlagen.html
Brügg,,,,Brügg,CH,5.2,Hydro,Run-of-river,,1995,,47.1191458966,7.2580998136,,"Renewable energy",Hydro,,,,https://www.bfe.admin.ch/bfe/de/home/versorgung/statistik-und-geodaten/geoinformation/geodaten/wasser/statistik-der-wasserkraftanlagen.html
Wannenfluh,,,,Rüderswil,CH,0.42,Hydro,Run-of-river,,1999,,46.9973291774,7.7219601987,,"Renewable energy",Hydro,,,,https://www.bfe.admin.ch/bfe/de/home/versorgung/statistik-und-geodaten/geoinformation/geodaten/wasser/statistik-der-wasserkraftanlagen.html
"Gohlhaus, Lützelflüh",,,,"Gohlhusbrügg, Lützelflüh",CH,0.42,Hydro,Run-of-river,,2016,,,,,"Renewable energy",Hydro,,,,https://www.bfe.admin.ch/bfe/de/home/versorgung/statistik-und-geodaten/geoinformation/geodaten/wasser/statistik-der-wasserkraftanlagen.html
Hagerhüsli,,,,Bätterkinden,CH,0.5,Hydro,Run-of-river,,2002,,47.1209582677,7.53548691316,,"Renewable energy",Hydro,,,,https://www.bfe.admin.ch/bfe/de/home/versorgung/statistik-und-geodaten/geoinformation/geodaten/wasser/statistik-der-wasserkraftanlagen.html
Bätterkinden,,,,Bätterkinden,CH,0.4,Hydro,Run-of-river,,2002,,47.1330038883,7.54407602098,,"Renewable energy",Hydro,,,,https://www.bfe.admin.ch/bfe/de/home/versorgung/statistik-und-geodaten/geoinformation/geodaten/wasser/statistik-der-wasserkraftanlagen.html
Utzenstorf,,,,Utzenstorf,CH,0.38,Hydro,Run-of-river,,1949,,47.1458646634,7.54607873841,,"Renewable energy",Hydro,,,,https://www.bfe.admin.ch/bfe/de/home/versorgung/statistik-und-geodaten/geoinformation/geodaten/wasser/statistik-der-wasserkraftanlagen.html
"Gerlafingen 1",,,,"Wiler bei Utzenstorf",CH,0.5,Hydro,Run-of-river,,1995,,47.1558500995,7.54477997909,,"Renewable energy",Hydro,,,,https://www.bfe.admin.ch/bfe/de/home/versorgung/statistik-und-geodaten/geoinformation/geodaten/wasser/statistik-der-wasserkraftanlagen.html
Biberist,,,,Biberist,CH,0.5,Hydro,Run-of-river,,1985,,47.1835291625,7.56911004647,,"Renewable energy",Hydro,,,,https://www.bfe.admin.ch/bfe/de/home/versorgung/statistik-und-geodaten/geoinformation/geodaten/wasser/statistik-der-wasserkraftanlagen.html
Emmenhof,,,,Derendingen,CH,0.33,Hydro,Run-of-river,,1986,,47.1948463818,7.582729415,,"Renewable energy",Hydro,,,,https://www.bfe.admin.ch/bfe/de/home/versorgung/statistik-und-geodaten/geoinformation/geodaten/wasser/statistik-der-wasserkraftanlagen.html
"Untere Emmengasse",,,,Luterbach,CH,0.86,Hydro,Run-of-river,,2001,,47.2045650167,7.57919186742,,"Renewable energy",Hydro,,,,https://www.bfe.admin.ch/bfe/de/home/versorgung/statistik-und-geodaten/geoinformation/geodaten/wasser/statistik-der-wasserkraftanlagen.html
Luterbach,,,,Luterbach,CH,0.32,Hydro,Run-of-river,,1988,,47.2141946615,7.57472874781,,"Renewable energy",Hydro,,,,https://www.bfe.admin.ch/bfe/de/home/versorgung/statistik-und-geodaten/geoinformation/geodaten/wasser/statistik-der-wasserkraftanlagen.html
Flumenthal,,,,Riedholz,CH,23.4,Hydro,Run-of-river,,2009,,47.2291069149,7.58995168618,,"Renewable energy",Hydro,,,,https://www.bfe.admin.ch/bfe/de/home/versorgung/statistik-und-geodaten/geoinformation/geodaten/wasser/statistik-der-wasserkraftanlagen.html
Bannwil,,,,Bannwil,CH,28.5,Hydro,Run-of-river,,2000,,47.2293726093,7.73229827172,,"Renewable energy",Hydro,,,,https://www.bfe.admin.ch/bfe/de/home/versorgung/statistik-und-geodaten/geoinformation/geodaten/wasser/statistik-der-wasserkraftanlagen.html
"Wynau I",,,,Oberwynau,CH,12,Hydro,Run-of-river,,1996,,47.2556656529,7.78674041559,,"Renewable energy",Hydro,,,"- Nutzungsdauer:	Bezogen auf die Ausbauwassermenge von 420 m3/s  (Zentralen Wynau und Schwarzhäusern); - Die Konzession wird ab der Kollaudation im Sommer 2016 zu laufen beginnen und beträgt 80 Jahre;                        ;                                         ; ",https://www.bfe.admin.ch/bfe/de/home/versorgung/statistik-und-geodaten/geoinformation/geodaten/wasser/statistik-der-wasserkraftanlagen.html
"Wynau II",,,,Schwarzhäusern,CH,8.2,Hydro,Run-of-river,,1979,,47.2568389099,7.78542689694,,"Renewable energy",Hydro,,,"- Nutzungsdauer: 	Bezogen auf die Ausbauwassermenge von 420 m3/s  (Zentralen Wynau und Schwarzhäusern); - Die Konzession wird ab der Kollaudation 2016 zu laufen beginnen und beträgt 80 Jahre;                           ; ",https://www.bfe.admin.ch/bfe/de/home/versorgung/statistik-und-geodaten/geoinformation/geodaten/wasser/statistik-der-wasserkraftanlagen.html
Ruppoldingen,,,,Boningen,CH,23,Hydro,Run-of-river,,2000,,47.3122915561,7.87770217417,,"Renewable energy",Hydro,,,"- Erste Zentrale Ruppoldingen stand seit 1896 in Betrieb und wurde 1925 erneuert; - Der Ersatz und Neubau der ersten Zentrale wurde im Jahre 2000 in Betrieb genommen;                                ; ",https://www.bfe.admin.ch/bfe/de/home/versorgung/statistik-und-geodaten/geoinformation/geodaten/wasser/statistik-der-wasserkraftanlagen.html
Aarburg,,,,Aarburg,CH,0.42,Hydro,Run-of-river,,2006,,47.3191178376,7.90315413711,,"Renewable energy",Hydro,,,,https://www.bfe.admin.ch/bfe/de/home/versorgung/statistik-und-geodaten/geoinformation/geodaten/wasser/statistik-der-wasserkraftanlagen.html
"Dünnern, Olten",,,,Olten,CH,0.37,Hydro,Run-of-river,,2015,,47.3486379073,7.89864659258,,"Renewable energy",Hydro,,,,https://www.bfe.admin.ch/bfe/de/home/versorgung/statistik-und-geodaten/geoinformation/geodaten/wasser/statistik-der-wasserkraftanlagen.html
Gösgen,,,,Niedergösgen,CH,51.3,Hydro,Run-of-river,,2000,,47.3694251427,7.97945465498,,"Renewable energy",Hydro,,,,https://www.bfe.admin.ch/bfe/de/home/versorgung/statistik-und-geodaten/geoinformation/geodaten/wasser/statistik-der-wasserkraftanlagen.html
"Aarau Stadt",,,,Aarau,CH,16.93,Hydro,Run-of-river,,1964,,47.3947817334,8.03587458337,,"Renewable energy",Hydro,,,,https://www.bfe.admin.ch/bfe/de/home/versorgung/statistik-und-geodaten/geoinformation/geodaten/wasser/statistik-der-wasserkraftanlagen.html
"Rüchlig - HKW",,,,Aarau,CH,9.2,Hydro,Run-of-river,,2014,,47.3997456678,8.0498397695,,"Renewable energy",Hydro,,,,https://www.bfe.admin.ch/bfe/de/home/versorgung/statistik-und-geodaten/geoinformation/geodaten/wasser/statistik-der-wasserkraftanlagen.html
Rüchlig-Dotierzentrale,,,,Aarau,CH,1.2,Hydro,Run-of-river,,2014,,47.3991034678,8.05221688004,,"Renewable energy",Hydro,,,,https://www.bfe.admin.ch/bfe/de/home/versorgung/statistik-und-geodaten/geoinformation/geodaten/wasser/statistik-der-wasserkraftanlagen.html
Rupperswil-Auenstein,,,,Auenstein,CH,40,Hydro,Run-of-river,,1993,,47.411796663,8.1147717897,,"Renewable energy",Hydro,,,"- Ein Synchrongenerator für Bahnstrom 16,7 Hertz; - Ein Synchrongenerator für 50 Hertz ; ",https://www.bfe.admin.ch/bfe/de/home/versorgung/statistik-und-geodaten/geoinformation/geodaten/wasser/statistik-der-wasserkraftanlagen.html
Rupperswil-Auenstein,,,,Rupperswil,CH,1.74,Hydro,Run-of-river,,2010,,47.411796663,8.1147717897,,"Renewable energy",Hydro,,,"- Ersatz alte Zentrale Rupperswil-Dotierzentrale im Jahr 2010;  ; ",https://www.bfe.admin.ch/bfe/de/home/versorgung/statistik-und-geodaten/geoinformation/geodaten/wasser/statistik-der-wasserkraftanlagen.html
Niederlenz,,,,Niederlenz,CH,0.4,Hydro,Run-of-river,,1943,,47.3991885281,8.17621146751,,"Renewable energy",Hydro,,,"- Rechtsgrundlage: Das ehehafte Recht umfasst rd. 18% der Nutzung   ; ",https://www.bfe.admin.ch/bfe/de/home/versorgung/statistik-und-geodaten/geoinformation/geodaten/wasser/statistik-der-wasserkraftanlagen.html
Wildegg-Brugg,,,,Schinznach-Dorf,CH,0.65,Hydro,Run-of-river,,1953,,47.4688460177,8.1698811311,,"Renewable energy",Hydro,,,,https://www.bfe.admin.ch/bfe/de/home/versorgung/statistik-und-geodaten/geoinformation/geodaten/wasser/statistik-der-wasserkraftanlagen.html
Wildegg-Brugg,,,,Villnachern,CH,51.25,Hydro,Run-of-river,,1997,,47.4688460177,8.1698811311,,"Renewable energy",Hydro,,,,https://www.bfe.admin.ch/bfe/de/home/versorgung/statistik-und-geodaten/geoinformation/geodaten/wasser/statistik-der-wasserkraftanlagen.html
Beznau,,,,Döttingen,CH,6.2,Hydro,Run-of-river,,2001,,47.557805126,8.23714123041,,"Renewable energy",Hydro,,,,https://www.bfe.admin.ch/bfe/de/home/versorgung/statistik-und-geodaten/geoinformation/geodaten/wasser/statistik-der-wasserkraftanlagen.html
Beznau,,,,Döttingen,CH,19.5,Hydro,Run-of-river,,1927,,47.557805126,8.23714123041,,"Renewable energy",Hydro,,,,https://www.bfe.admin.ch/bfe/de/home/versorgung/statistik-und-geodaten/geoinformation/geodaten/wasser/statistik-der-wasserkraftanlagen.html
Klingnau,,,,"Klingnau, Gippingen",CH,42.6,Hydro,Run-of-river,,1935,,47.5945791001,8.22572773348,,"Renewable energy",Hydro,,,"#NAME?; ",https://www.bfe.admin.ch/bfe/de/home/versorgung/statistik-und-geodaten/geoinformation/geodaten/wasser/statistik-der-wasserkraftanlagen.html
Hospental,,,,Hospental,CH,2,Hydro,Run-of-river,,1977,,46.6205638209,8.56904462908,,"Renewable energy",Hydro,,,,https://www.bfe.admin.ch/bfe/de/home/versorgung/statistik-und-geodaten/geoinformation/geodaten/wasser/statistik-der-wasserkraftanlagen.html
Realp,,,,Realp,CH,0.9,Hydro,Run-of-river,,2008,,46.5993455879,8.50229746755,,"Renewable energy",Hydro,,,,https://www.bfe.admin.ch/bfe/de/home/versorgung/statistik-und-geodaten/geoinformation/geodaten/wasser/statistik-der-wasserkraftanlagen.html
"Kraftwerk Realp II",,,,Realp,CH,2.81,Hydro,Run-of-river,,2017,,,,,"Renewable energy",Hydro,,,,https://www.bfe.admin.ch/bfe/de/home/versorgung/statistik-und-geodaten/geoinformation/geodaten/wasser/statistik-der-wasserkraftanlagen.html
Oberalp,,,,Andermatt,CH,2.9,Hydro,Run-of-river,,2002,,46.6329580099,8.60678648212,,"Renewable energy",Hydro,,,,https://www.bfe.admin.ch/bfe/de/home/versorgung/statistik-und-geodaten/geoinformation/geodaten/wasser/statistik-der-wasserkraftanlagen.html
"Göschenen (Göscheneralp)",,,,Göschenen,CH,164.8,Hydro,Reservoir,,1962,,46.6673628552,8.5853141019,,"Renewable energy",Hydro,,,"#NAME?; - Zentrale Göschenen (Göscheneralp) produziert mit zwei Maschinen 16,7 Hertz Strom und mit zwei Maschinen;   Dreiphasendrehstrom ;                                                ; ",https://www.bfe.admin.ch/bfe/de/home/versorgung/statistik-und-geodaten/geoinformation/geodaten/wasser/statistik-der-wasserkraftanlagen.html
"Göschenen (Andermatt)",,,,Göschenen,CH,33.26,Hydro,Run-of-river,,1961,,46.6673628552,8.5853141019,,"Renewable energy",Hydro,,,"#NAME?;                                                ; ",https://www.bfe.admin.ch/bfe/de/home/versorgung/statistik-und-geodaten/geoinformation/geodaten/wasser/statistik-der-wasserkraftanlagen.html
"Göschenen (Unterdorf)",,,,Göschenen,CH,1.62,Hydro,Run-of-river,,1969,,46.6678191535,8.58467035968,,"Renewable energy",Hydro,,,,https://www.bfe.admin.ch/bfe/de/home/versorgung/statistik-und-geodaten/geoinformation/geodaten/wasser/statistik-der-wasserkraftanlagen.html
Wassen,,,,Pfaffensprung,CH,58,Hydro,Run-of-river,,1992,,46.7156913962,8.61014697239,,"Renewable energy",Hydro,,,,https://www.bfe.admin.ch/bfe/de/home/versorgung/statistik-und-geodaten/geoinformation/geodaten/wasser/statistik-der-wasserkraftanlagen.html
Amsteg,,,,"Wassen, Pfaffensprung",CH,0.72,Hydro,Run-of-river,,1998,,46.7667596543,8.67292336359,,"Renewable energy",Hydro,,,,https://www.bfe.admin.ch/bfe/de/home/versorgung/statistik-und-geodaten/geoinformation/geodaten/wasser/statistik-der-wasserkraftanlagen.html
"Kraftwerk Gurtnellen",,,,Gurtnellen,CH,10,Hydro,Run-of-river,,2017,,,,,"Renewable energy",Hydro,,,,https://www.bfe.admin.ch/bfe/de/home/versorgung/statistik-und-geodaten/geoinformation/geodaten/wasser/statistik-der-wasserkraftanlagen.html
Stäubenwald,,,,Gurtnellen,CH,0.31,Hydro,Run-of-river,,2007,,46.7281811232,8.62036146626,,"Renewable energy",Hydro,,,,https://www.bfe.admin.ch/bfe/de/home/versorgung/statistik-und-geodaten/geoinformation/geodaten/wasser/statistik-der-wasserkraftanlagen.html
"KW Gurtnellen",,,,Gurtnellen,CH,2.3,Hydro,Run-of-river,,2018,,,,,"Renewable energy",Hydro,,,,https://www.bfe.admin.ch/bfe/de/home/versorgung/statistik-und-geodaten/geoinformation/geodaten/wasser/statistik-der-wasserkraftanlagen.html
"Kraftwerk Bristen",,,,Bristen,CH,4.3,Hydro,Run-of-river,,2016,,,,,"Renewable energy",Hydro,,,,https://www.bfe.admin.ch/bfe/de/home/versorgung/statistik-und-geodaten/geoinformation/geodaten/wasser/statistik-der-wasserkraftanlagen.html
Amsteg,,,,Amsteg,CH,120,Hydro,Run-of-river,,1998,,46.7667596543,8.67292336359,,"Renewable energy",Hydro,,,"- Ersatz alte Zentrale Amsteg im Jahr 1998; - Erzeugt Bahnstrom 16,7 Hertz                                        ; ",https://www.bfe.admin.ch/bfe/de/home/versorgung/statistik-und-geodaten/geoinformation/geodaten/wasser/statistik-der-wasserkraftanlagen.html
Amsteg,,,,Amsteg,CH,1.73,Hydro,Run-of-river,,1998,,46.7667596543,8.67292336359,,"Renewable energy",Hydro,,,,https://www.bfe.admin.ch/bfe/de/home/versorgung/statistik-und-geodaten/geoinformation/geodaten/wasser/statistik-der-wasserkraftanlagen.html
Arniberg,,,,Amsteg,CH,13,Hydro,Run-of-river,,1969,,46.7689944794,8.66590412922,,"Renewable energy",Hydro,,,,https://www.bfe.admin.ch/bfe/de/home/versorgung/statistik-und-geodaten/geoinformation/geodaten/wasser/statistik-der-wasserkraftanlagen.html
"Bocki 2",,,,"Erstfeld, Ripshusen",CH,7,Hydro,Run-of-river,,1997,,46.8409637891,8.63214556041,,"Renewable energy",Hydro,,,"- Zentralen Bocki 1 und Bocki 2 in einem Gebäude              ; ",https://www.bfe.admin.ch/bfe/de/home/versorgung/statistik-und-geodaten/geoinformation/geodaten/wasser/statistik-der-wasserkraftanlagen.html
"Bocki 1",,,,"Erstfeld, Ripshusen",CH,1.7,Hydro,Run-of-river,,1997,,46.8409637891,8.63214556041,,"Renewable energy",Hydro,,,"- Zentralen Bocki 1 und Bocki 2 in einem Gebäude              ; ",https://www.bfe.admin.ch/bfe/de/home/versorgung/statistik-und-geodaten/geoinformation/geodaten/wasser/statistik-der-wasserkraftanlagen.html
Äsch,,,,Unterschächen,CH,0.52,Hydro,Run-of-river,,1996,,46.8652358009,8.81028683203,,"Renewable energy",Hydro,,,,https://www.bfe.admin.ch/bfe/de/home/versorgung/statistik-und-geodaten/geoinformation/geodaten/wasser/statistik-der-wasserkraftanlagen.html
Schächental,,,,Unterschächen,CH,2.2,Hydro,Run-of-river,,2005,,46.8632677495,8.76354152909,,"Renewable energy",Hydro,,,,https://www.bfe.admin.ch/bfe/de/home/versorgung/statistik-und-geodaten/geoinformation/geodaten/wasser/statistik-der-wasserkraftanlagen.html
"Bürglen (Unterschächen)",,,,Bürglen,CH,20.8,Hydro,Run-of-river,,1967,,46.8765292426,8.6633716678,,"Renewable energy",Hydro,,,"#NAME?;                                                  ; ",https://www.bfe.admin.ch/bfe/de/home/versorgung/statistik-und-geodaten/geoinformation/geodaten/wasser/statistik-der-wasserkraftanlagen.html
"Bürglen (Loreto)",,,,Bürglen,CH,1.5,Hydro,Run-of-river,,1967,,46.8765292426,8.6633716678,,"Renewable energy",Hydro,,,"#NAME?;                                                   ; ",https://www.bfe.admin.ch/bfe/de/home/versorgung/statistik-und-geodaten/geoinformation/geodaten/wasser/statistik-der-wasserkraftanlagen.html
Bannwald,,,,Altdorf,CH,0.3,Hydro,Run-of-river,,2002,,46.8868282361,8.64234852845,,"Renewable energy",Hydro,,,"#NAME?; ",https://www.bfe.admin.ch/bfe/de/home/versorgung/statistik-und-geodaten/geoinformation/geodaten/wasser/statistik-der-wasserkraftanlagen.html
"Kleintal (Isenthal)",,,,Isenthal,CH,1.18,Hydro,Run-of-river,,2009,,46.9100429809,8.56226516908,,"Renewable energy",Hydro,,,,https://www.bfe.admin.ch/bfe/de/home/versorgung/statistik-und-geodaten/geoinformation/geodaten/wasser/statistik-der-wasserkraftanlagen.html
"Bolzbach, Seedorf Chuchib. Q.",,,,Seedorf,CH,0.38,Hydro,Run-of-river,,2012,,,,,"Renewable energy",Hydro,,,"#NAME?; ",https://www.bfe.admin.ch/bfe/de/home/versorgung/statistik-und-geodaten/geoinformation/geodaten/wasser/statistik-der-wasserkraftanlagen.html
"Isenthal (Bolzbach)",,,,Seedorf,CH,12,Hydro,Run-of-river,,2009,,46.8992075573,8.59340713177,,"Renewable energy",Hydro,,,"- Zentralen  Isenthal (Bolzbach) und Seedorf (Bolzbach)) in einem Gebäude; ",https://www.bfe.admin.ch/bfe/de/home/versorgung/statistik-und-geodaten/geoinformation/geodaten/wasser/statistik-der-wasserkraftanlagen.html
Ruosalp,,,,"Bisisthal, Sahli",CH,4.7,Hydro,Run-of-river,,1962,,46.9176188126,8.84549886362,,"Renewable energy",Hydro,,,"#NAME?; ",https://www.bfe.admin.ch/bfe/de/home/versorgung/statistik-und-geodaten/geoinformation/geodaten/wasser/statistik-der-wasserkraftanlagen.html
Glattalp,,,,"Bisisthal, Sahli",CH,9.3,Hydro,Run-of-river,,1970,,46.9176188126,8.84549886362,,"Renewable energy",Hydro,,,"#NAME?; ",https://www.bfe.admin.ch/bfe/de/home/versorgung/statistik-und-geodaten/geoinformation/geodaten/wasser/statistik-der-wasserkraftanlagen.html
Bisisthal,,,,Bisisthal,CH,15.8,Hydro,Run-of-river,,1962,,46.9466216843,8.82799774611,,"Renewable energy",Hydro,,,,https://www.bfe.admin.ch/bfe/de/home/versorgung/statistik-und-geodaten/geoinformation/geodaten/wasser/statistik-der-wasserkraftanlagen.html
Muota,,,,Muotathal,CH,8.8,Hydro,Run-of-river,,1960,,46.9710051496,8.78249669152,,"Renewable energy",Hydro,,,"#NAME?; ",https://www.bfe.admin.ch/bfe/de/home/versorgung/statistik-und-geodaten/geoinformation/geodaten/wasser/statistik-der-wasserkraftanlagen.html
Hüribach,,,,Muotathal,CH,4.7,Hydro,Run-of-river,,1960,,46.9710051496,8.78249669152,,"Renewable energy",Hydro,,,"#NAME?; ",https://www.bfe.admin.ch/bfe/de/home/versorgung/statistik-und-geodaten/geoinformation/geodaten/wasser/statistik-der-wasserkraftanlagen.html
Wernisberg,,,,Ibach,CH,20.4,Hydro,Run-of-river,,1966,,46.9962188228,8.65124425665,,"Renewable energy",Hydro,,,,https://www.bfe.admin.ch/bfe/de/home/versorgung/statistik-und-geodaten/geoinformation/geodaten/wasser/statistik-der-wasserkraftanlagen.html
Ibach,,,,Ibach,CH,0.32,Hydro,Run-of-river,,2004,,47.0071473786,8.64715120305,,"Renewable energy",Hydro,,,,https://www.bfe.admin.ch/bfe/de/home/versorgung/statistik-und-geodaten/geoinformation/geodaten/wasser/statistik-der-wasserkraftanlagen.html
"Kleinwasserkraftwerk Steineraa",,,,"Steinen, Müliacher",CH,2.2,Hydro,Run-of-river,,2016,,,,,"Renewable energy",Hydro,,,,https://www.bfe.admin.ch/bfe/de/home/versorgung/statistik-und-geodaten/geoinformation/geodaten/wasser/statistik-der-wasserkraftanlagen.html
Sustli,,,,Beckenried,CH,1.63,Hydro,Run-of-river,,1998,,46.963776447,8.48336356408,,"Renewable energy",Hydro,,,,https://www.bfe.admin.ch/bfe/de/home/versorgung/statistik-und-geodaten/geoinformation/geodaten/wasser/statistik-der-wasserkraftanlagen.html
Tagenstal,,,,"Engelberg, Stalden",CH,1.27,Hydro,Run-of-river,,1941,,46.8056049248,8.44557705375,,"Renewable energy",Hydro,,,,https://www.bfe.admin.ch/bfe/de/home/versorgung/statistik-und-geodaten/geoinformation/geodaten/wasser/statistik-der-wasserkraftanlagen.html
Trüebsee,,,,Engelberg,CH,8.5,Hydro,Reservoir,,1967,,,,,"Renewable energy",Hydro,,,,https://www.bfe.admin.ch/bfe/de/home/versorgung/statistik-und-geodaten/geoinformation/geodaten/wasser/statistik-der-wasserkraftanlagen.html
"Arni, Engelberg",,,,Engelberg,CH,3.07,Hydro,Run-of-river,,1966,,,,,"Renewable energy",Hydro,,,,https://www.bfe.admin.ch/bfe/de/home/versorgung/statistik-und-geodaten/geoinformation/geodaten/wasser/statistik-der-wasserkraftanlagen.html
Obermatt,,,,Grafenort,CH,31.95,Hydro,Run-of-river,,1963,,46.8421091009,8.3737585174,,"Renewable energy",Hydro,,,,https://www.bfe.admin.ch/bfe/de/home/versorgung/statistik-und-geodaten/geoinformation/geodaten/wasser/statistik-der-wasserkraftanlagen.html
"Obermatt (Nebenkraftwerk)",,,,Grafenort,CH,1.97,Hydro,Run-of-river,,1963,,46.8429378906,8.37141299362,,"Renewable energy",Hydro,,,,https://www.bfe.admin.ch/bfe/de/home/versorgung/statistik-und-geodaten/geoinformation/geodaten/wasser/statistik-der-wasserkraftanlagen.html
Dallenwil,,,,Wolfenschiessen,CH,17.75,Hydro,Run-of-river,,1987,,46.9116636808,8.39360887478,,"Renewable energy",Hydro,,,,https://www.bfe.admin.ch/bfe/de/home/versorgung/statistik-und-geodaten/geoinformation/geodaten/wasser/statistik-der-wasserkraftanlagen.html
"Buoholzbach Wolfenschiessen",,,,"Wolfenschiessen, Flüglisloo",CH,2,Hydro,Run-of-river,,2013,,46.9270904029,8.3991353836,,"Renewable energy",Hydro,,,,https://www.bfe.admin.ch/bfe/de/home/versorgung/statistik-und-geodaten/geoinformation/geodaten/wasser/statistik-der-wasserkraftanlagen.html
Bannalp,,,,Oberrickenbach,CH,8.7,Hydro,Reservoir,,1991,,46.8803037351,8.42125996207,,"Renewable energy",Hydro,,,"- Rechtsgrundlage: Eigenversorgungsgesetz vom 29.4.1934         ; ",https://www.bfe.admin.ch/bfe/de/home/versorgung/statistik-und-geodaten/geoinformation/geodaten/wasser/statistik-der-wasserkraftanlagen.html
Wolfenschiessen,,,,Wolfenschiessen,CH,6.6,Hydro,Run-of-river,,1983,,46.9012025691,8.39670437623,,"Renewable energy",Hydro,,,"- Rechtsgrundlage: Eigenversorgungsgesetz vom 29.4.1934         ; ",https://www.bfe.admin.ch/bfe/de/home/versorgung/statistik-und-geodaten/geoinformation/geodaten/wasser/statistik-der-wasserkraftanlagen.html
Schild,,,,Lungern,CH,1.2,Hydro,Run-of-river,,2003,,46.7798141191,8.15569252116,,"Renewable energy",Hydro,,,,https://www.bfe.admin.ch/bfe/de/home/versorgung/statistik-und-geodaten/geoinformation/geodaten/wasser/statistik-der-wasserkraftanlagen.html
"Unteraa - Melchaa",,,,Giswil,CH,12,Hydro,Reservoir,,2013,,46.8214351941,8.1744623486,,"Renewable energy",Hydro,,,"#NAME?;  ; ",https://www.bfe.admin.ch/bfe/de/home/versorgung/statistik-und-geodaten/geoinformation/geodaten/wasser/statistik-der-wasserkraftanlagen.html
"Unteraa - Lungerersee",,,,Giswil,CH,54,Hydro,Reservoir,,1994,,46.8214351941,8.1744623486,,"Renewable energy",Hydro,,,"- Ersatz alte Zentrale Unteraa im Jahr 1994; #NAME?; - Maschinengruppe 4 mit 6MW Leistung erzeugt Bahnstrom (SBB)                                       ; ",https://www.bfe.admin.ch/bfe/de/home/versorgung/statistik-und-geodaten/geoinformation/geodaten/wasser/statistik-der-wasserkraftanlagen.html
"Obflue, Sachseln",,,,"Sachseln, Obflue",CH,0.3,Hydro,Run-of-river,,2005,,46.857050951,8.22950231798,,"Renewable energy",Hydro,,,"- Das Quellenrecht beinhaltet die Nutzung des Wasser für Trink- und Brauchzwecke, sowie der Turbinierung;   zur Stromproduktion.;  ; ",https://www.bfe.admin.ch/bfe/de/home/versorgung/statistik-und-geodaten/geoinformation/geodaten/wasser/statistik-der-wasserkraftanlagen.html
Melchsee-Frutt,,,,"Kerns, Stöckalp",CH,14,Hydro,Reservoir,,1960,,46.799646307,8.28145261421,,"Renewable energy",Hydro,,,"- Genutzte Gewässer:  Henglibach wird nur vom 16.Mai bis 31.Juli genutzt;                                                          ; ",https://www.bfe.admin.ch/bfe/de/home/versorgung/statistik-und-geodaten/geoinformation/geodaten/wasser/statistik-der-wasserkraftanlagen.html
Wisserlen,,,,"Kerns, Wisserlen",CH,1.15,Hydro,Run-of-river,,1997,,46.9102736664,8.29644423422,,"Renewable energy",Hydro,,,,https://www.bfe.admin.ch/bfe/de/home/versorgung/statistik-und-geodaten/geoinformation/geodaten/wasser/statistik-der-wasserkraftanlagen.html
Eichi,,,,"Alpnach, Eichibrücke",CH,2.4,Hydro,Run-of-river,,1957,,46.9407431769,8.28786773153,,"Renewable energy",Hydro,,,,https://www.bfe.admin.ch/bfe/de/home/versorgung/statistik-und-geodaten/geoinformation/geodaten/wasser/statistik-der-wasserkraftanlagen.html
Rotzloch,,,,"Stansstad, Rotzloch",CH,0.3,Hydro,Run-of-river,,1935,,46.9648831886,8.33108666537,,"Renewable energy",Hydro,,,,https://www.bfe.admin.ch/bfe/de/home/versorgung/statistik-und-geodaten/geoinformation/geodaten/wasser/statistik-der-wasserkraftanlagen.html
Mühlenplatz,,,,Luzern,CH,0.93,Hydro,Run-of-river,,1998,,47.0517337725,8.30199665485,,"Renewable energy",Hydro,,,,https://www.bfe.admin.ch/bfe/de/home/versorgung/statistik-und-geodaten/geoinformation/geodaten/wasser/statistik-der-wasserkraftanlagen.html
"Wolhusen (Geistlich)",,,,Wolhusen,CH,0.33,Hydro,Run-of-river,,2003,,47.0550001861,8.07763365713,,"Renewable energy",Hydro,,,,https://www.bfe.admin.ch/bfe/de/home/versorgung/statistik-und-geodaten/geoinformation/geodaten/wasser/statistik-der-wasserkraftanlagen.html
Malters-Ettisbühl,,,,Malters,CH,0.87,Hydro,Run-of-river,,2011,,47.0382855313,8.16559322075,,"Renewable energy",Hydro,,,,https://www.bfe.admin.ch/bfe/de/home/versorgung/statistik-und-geodaten/geoinformation/geodaten/wasser/statistik-der-wasserkraftanlagen.html
Stollen,,,,Kriens/Obernau,CH,0.71,Hydro,Run-of-river,,1999,,47.0337616233,8.23723761716,,"Renewable energy",Hydro,,,"#NAME?; ",https://www.bfe.admin.ch/bfe/de/home/versorgung/statistik-und-geodaten/geoinformation/geodaten/wasser/statistik-der-wasserkraftanlagen.html
Thorenberg,,,,Littau,CH,0.79,Hydro,Run-of-river,,2000,,47.0525764602,8.24804704827,,"Renewable energy",Hydro,,,,https://www.bfe.admin.ch/bfe/de/home/versorgung/statistik-und-geodaten/geoinformation/geodaten/wasser/statistik-der-wasserkraftanlagen.html
Emmenweid,,,,Emmenbrücke,CH,1.08,Hydro,Run-of-river,,2003,,47.0670379793,8.26366866258,,"Renewable energy",Hydro,,,,https://www.bfe.admin.ch/bfe/de/home/versorgung/statistik-und-geodaten/geoinformation/geodaten/wasser/statistik-der-wasserkraftanlagen.html
Rathausen,,,,Emmen,CH,2.1,Hydro,Run-of-river,,1980,,47.0817753951,8.3143325152,,"Renewable energy",Hydro,,,,https://www.bfe.admin.ch/bfe/de/home/versorgung/statistik-und-geodaten/geoinformation/geodaten/wasser/statistik-der-wasserkraftanlagen.html
"Perlen 1 (WTA HF)",,,,"Perlen, Buchrain",CH,1,Hydro,Run-of-river,,1981,,47.1071639177,8.35769882857,,"Renewable energy",Hydro,,,,https://www.bfe.admin.ch/bfe/de/home/versorgung/statistik-und-geodaten/geoinformation/geodaten/wasser/statistik-der-wasserkraftanlagen.html
"Perlen 2 (WTA PF)",,,,"Perlen, Root",CH,1.15,Hydro,Run-of-river,,2000,,47.111127653,8.36817610462,,"Renewable energy",Hydro,,,,https://www.bfe.admin.ch/bfe/de/home/versorgung/statistik-und-geodaten/geoinformation/geodaten/wasser/statistik-der-wasserkraftanlagen.html
"Innere Spinnerei",,,,Unterägeri,CH,0.45,Hydro,Run-of-river,,1981,,47.1403291209,8.57250348397,,"Renewable energy",Hydro,,,,https://www.bfe.admin.ch/bfe/de/home/versorgung/statistik-und-geodaten/geoinformation/geodaten/wasser/statistik-der-wasserkraftanlagen.html
"WKW Neuägeri, Gmde Menzingen",,,,"Neuägeri, Gmde Menzingen",CH,0.34,Hydro,Run-of-river,,2015,,47.1528364463,8.56301002572,,"Renewable energy",Hydro,,,,https://www.bfe.admin.ch/bfe/de/home/versorgung/statistik-und-geodaten/geoinformation/geodaten/wasser/statistik-der-wasserkraftanlagen.html
"Lorzentobel 2",,,,"Lorzentobel, Nidfuren",CH,1.9,Hydro,Run-of-river,,1943,,47.1720203925,8.56064287994,,"Renewable energy",Hydro,,,,https://www.bfe.admin.ch/bfe/de/home/versorgung/statistik-und-geodaten/geoinformation/geodaten/wasser/statistik-der-wasserkraftanlagen.html
"Lorzentobel 1",,,,Lorzentobel,CH,1.67,Hydro,Run-of-river,,2005,,47.1803537205,8.55474850407,,"Renewable energy",Hydro,,,,https://www.bfe.admin.ch/bfe/de/home/versorgung/statistik-und-geodaten/geoinformation/geodaten/wasser/statistik-der-wasserkraftanlagen.html
"Lorzentobel 3",,,,Baar,CH,2.17,Hydro,Run-of-river,,2005,,47.1957044664,8.53936374921,,"Renewable energy",Hydro,,,,https://www.bfe.admin.ch/bfe/de/home/versorgung/statistik-und-geodaten/geoinformation/geodaten/wasser/statistik-der-wasserkraftanlagen.html
Untermühle,,,,"Friesencham, Cham",CH,0.6,Hydro,Run-of-river,,2010,,47.1964928952,8.44330123323,,"Renewable energy",Hydro,,,,https://www.bfe.admin.ch/bfe/de/home/versorgung/statistik-und-geodaten/geoinformation/geodaten/wasser/statistik-der-wasserkraftanlagen.html
Hagendorn,,,,Hagendorn,CH,0.58,Hydro,Run-of-river,,2010,,47.2016699737,8.43759101386,,"Renewable energy",Hydro,,,,https://www.bfe.admin.ch/bfe/de/home/versorgung/statistik-und-geodaten/geoinformation/geodaten/wasser/statistik-der-wasserkraftanlagen.html
Bremgarten-Zufikon,,,,Bremgarten,CH,20,Hydro,Run-of-river,,1975,,47.3436544275,8.34562802508,,"Renewable energy",Hydro,,,,https://www.bfe.admin.ch/bfe/de/home/versorgung/statistik-und-geodaten/geoinformation/geodaten/wasser/statistik-der-wasserkraftanlagen.html
Bruggmühle,,,,Bremgarten,CH,0.54,Hydro,Run-of-river,,1998,,47.3497309812,8.33924607379,,"Renewable energy",Hydro,,,,https://www.bfe.admin.ch/bfe/de/home/versorgung/statistik-und-geodaten/geoinformation/geodaten/wasser/statistik-der-wasserkraftanlagen.html
Windisch,,,,Windisch,CH,2.09,Hydro,Run-of-river,,2016,,47.4813098091,8.23042079077,,"Renewable energy",Hydro,,,"- 2016: Maschinengruppe 3 und Kanaltore erneuert; - 1918/1919: Bau eines neuen Turbinenhauses; - 1927 Anbau Maschinenhaus und Einbau einer Propellerturbine; ",https://www.bfe.admin.ch/bfe/de/home/versorgung/statistik-und-geodaten/geoinformation/geodaten/wasser/statistik-der-wasserkraftanlagen.html
Limmern,,,,"Linthal, Ochsenstafel",CH,1000,Hydro,"Pumped storage",,2016,,,,,"Renewable energy",Hydro,,,"#NAME?;  ;  ; ",https://www.bfe.admin.ch/bfe/de/home/versorgung/statistik-und-geodaten/geoinformation/geodaten/wasser/statistik-der-wasserkraftanlagen.html
"Tierfehd (Limmern)",,,,"Linthal, Tierfehd",CH,306,Hydro,Reservoir,,1964,,46.8761153436,8.98702934899,12W-0000000018-B,"Renewable energy",Hydro,,,"#NAME?; #NAME?;  ;                                     ; ",https://www.bfe.admin.ch/bfe/de/home/versorgung/statistik-und-geodaten/geoinformation/geodaten/wasser/statistik-der-wasserkraftanlagen.html
"Tierfehd (Umwälzwerk)",,,,"Linthal, Tierfehd",CH,137.9,Hydro,"Pumped storage with natural inflow",,2010,,46.8787500802,8.98513704227,12W-0000000018-B,"Renewable energy",Hydro,,,"#NAME?;  ; ",https://www.bfe.admin.ch/bfe/de/home/versorgung/statistik-und-geodaten/geoinformation/geodaten/wasser/statistik-der-wasserkraftanlagen.html
"Tierfehd (Hintersand)",,,,"Linthal, Tierfehd",CH,46,Hydro,Run-of-river,,1968,,46.8761153436,8.98702934899,12W-0000000018-B,"Renewable energy",Hydro,,,"#NAME?; #NAME?;     ;   ; ",https://www.bfe.admin.ch/bfe/de/home/versorgung/statistik-und-geodaten/geoinformation/geodaten/wasser/statistik-der-wasserkraftanlagen.html
Linthal,,,,Linthal,CH,34,Hydro,Run-of-river,,1964,,46.915510447,8.98790156154,12W-0000000018-B,"Renewable energy",Hydro,,,"#NAME?; ",https://www.bfe.admin.ch/bfe/de/home/versorgung/statistik-und-geodaten/geoinformation/geodaten/wasser/statistik-der-wasserkraftanlagen.html
Fätschbach,,,,Linthal,CH,15,Hydro,Run-of-river,,1950,,46.915510447,8.98790156154,12W-0000000018-B,"Renewable energy",Hydro,,,"#NAME?; ",https://www.bfe.admin.ch/bfe/de/home/versorgung/statistik-und-geodaten/geoinformation/geodaten/wasser/statistik-der-wasserkraftanlagen.html
"Linthkraft (Stiftung)",,,,Linthal,CH,0.5,Hydro,Run-of-river,,2004,,46.9200748442,8.99630573219,,"Renewable energy",Hydro,,,,https://www.bfe.admin.ch/bfe/de/home/versorgung/statistik-und-geodaten/geoinformation/geodaten/wasser/statistik-der-wasserkraftanlagen.html
Linthwerk,,,,Linthal,CH,1.6,Hydro,Run-of-river,,2012,,46.9260539645,8.99989350898,,"Renewable energy",Hydro,,,,https://www.bfe.admin.ch/bfe/de/home/versorgung/statistik-und-geodaten/geoinformation/geodaten/wasser/statistik-der-wasserkraftanlagen.html
"Brummbach, Linthal",,,,"Linthal, Stachelberg",CH,3.9,Hydro,Run-of-river,,2010,,46.9276405378,9.00230354147,,"Renewable energy",Hydro,,,,https://www.bfe.admin.ch/bfe/de/home/versorgung/statistik-und-geodaten/geoinformation/geodaten/wasser/statistik-der-wasserkraftanlagen.html
"Brummbach, Braunwald",,,,Braunwald,CH,0.93,Hydro,Run-of-river,,2014,,46.9386081948,8.98305061474,,"Renewable energy",Hydro,,,,https://www.bfe.admin.ch/bfe/de/home/versorgung/statistik-und-geodaten/geoinformation/geodaten/wasser/statistik-der-wasserkraftanlagen.html
"Kraftwerk Cotlan",,,,"Rüti, Gmde Glarus Süd",CH,2.53,Hydro,Run-of-river,,2017,,,,,"Renewable energy",Hydro,,,,https://www.bfe.admin.ch/bfe/de/home/versorgung/statistik-und-geodaten/geoinformation/geodaten/wasser/statistik-der-wasserkraftanlagen.html
"Diesbach (Linth)",,,,Diesbach,CH,0.93,Hydro,Run-of-river,,1997,,46.9511277567,9.02808233474,,"Renewable energy",Hydro,,,,https://www.bfe.admin.ch/bfe/de/home/versorgung/statistik-und-geodaten/geoinformation/geodaten/wasser/statistik-der-wasserkraftanlagen.html
Hefti,,,,Hätzingen,CH,1.05,Hydro,Run-of-river,,2007,,46.9646347789,9.04017863032,,"Renewable energy",Hydro,,,,https://www.bfe.admin.ch/bfe/de/home/versorgung/statistik-und-geodaten/geoinformation/geodaten/wasser/statistik-der-wasserkraftanlagen.html
Luchsingen,,,,Luchsingen,CH,3.5,Hydro,Run-of-river,,1976,,46.9660497748,9.0354895251,,"Renewable energy",Hydro,,,,https://www.bfe.admin.ch/bfe/de/home/versorgung/statistik-und-geodaten/geoinformation/geodaten/wasser/statistik-der-wasserkraftanlagen.html
Leuggelbach,,,,Leuggelbach,CH,1,Hydro,Run-of-river,,1993,,46.9774012894,9.04726356888,,"Renewable energy",Hydro,,,,https://www.bfe.admin.ch/bfe/de/home/versorgung/statistik-und-geodaten/geoinformation/geodaten/wasser/statistik-der-wasserkraftanlagen.html
Haslen,,,,Haslen,CH,0.92,Hydro,Run-of-river,,2012,,46.9838748007,9.06034155135,,"Renewable energy",Hydro,,,"- Ehehaftes Wassernutzungsrecht. Die energierechtliche Bewilligung wurde vom Kanton für 80 Jahre erteilt.; ",https://www.bfe.admin.ch/bfe/de/home/versorgung/statistik-und-geodaten/geoinformation/geodaten/wasser/statistik-der-wasserkraftanlagen.html
"Schwanden (F.Blumer)",,,,Schwanden,CH,0.9,Hydro,Run-of-river,,1999,,46.9937940839,9.07773551203,,"Renewable energy",Hydro,,,,https://www.bfe.admin.ch/bfe/de/home/versorgung/statistik-und-geodaten/geoinformation/geodaten/wasser/statistik-der-wasserkraftanlagen.html
Empächli,,,,Elm,CH,0.33,Hydro,Run-of-river,,1995,,46.9223429911,9.15841990058,,"Renewable energy",Hydro,,,,https://www.bfe.admin.ch/bfe/de/home/versorgung/statistik-und-geodaten/geoinformation/geodaten/wasser/statistik-der-wasserkraftanlagen.html
Krauchbachwerk,,,,Matt,CH,0.64,Hydro,Run-of-river,,1999,,46.9561528371,9.15976534811,,"Renewable energy",Hydro,,,,https://www.bfe.admin.ch/bfe/de/home/versorgung/statistik-und-geodaten/geoinformation/geodaten/wasser/statistik-der-wasserkraftanlagen.html
"Engi, Hinterdorf (Sernf)",,,,"Engi (Glarus Süd)",CH,0.53,Hydro,Run-of-river,,2012,,46.9744263563,9.159168101,,"Renewable energy",Hydro,,,,https://www.bfe.admin.ch/bfe/de/home/versorgung/statistik-und-geodaten/geoinformation/geodaten/wasser/statistik-der-wasserkraftanlagen.html
Engi,,,,"Engi, Vorderdorf (Glarus Süd)",CH,3.75,Hydro,Run-of-river,,2009,,46.9850426515,9.15319754055,,"Renewable energy",Hydro,,,"- Zentrale Bergen mit 150 KW befindet sich auch in der Zentrale Engi, Vorderdorf (Mühlebach); ",https://www.bfe.admin.ch/bfe/de/home/versorgung/statistik-und-geodaten/geoinformation/geodaten/wasser/statistik-der-wasserkraftanlagen.html
"Kraftwerk Mühlebach AG",,,,"Engi, Unter Engi",CH,0.53,Hydro,Run-of-river,,2018,,,,,"Renewable energy",Hydro,,,,https://www.bfe.admin.ch/bfe/de/home/versorgung/statistik-und-geodaten/geoinformation/geodaten/wasser/statistik-der-wasserkraftanlagen.html
Sernf,,,,Schwanden,CH,15.7,Hydro,Run-of-river,,2003,,46.9957286985,9.08713105463,,"Renewable energy",Hydro,,,"- Zentralen Schwanden (Sernf), Schwanden (Niederenbach) und Schwanden (Gemeinde) in einem Gebäude      ;                           ;  ; ",https://www.bfe.admin.ch/bfe/de/home/versorgung/statistik-und-geodaten/geoinformation/geodaten/wasser/statistik-der-wasserkraftanlagen.html
Niederenbach,,,,Schwanden,CH,28.2,Hydro,Reservoir,,2004,,46.9957286985,9.08713105463,,"Renewable energy",Hydro,,,"- Zentralen Schwanden (Sernf), Schwanden (Niederenbach) und Schwanden (Gemeinde) in einem Gebäude; ",https://www.bfe.admin.ch/bfe/de/home/versorgung/statistik-und-geodaten/geoinformation/geodaten/wasser/statistik-der-wasserkraftanlagen.html
"Schwanden (Gemeinde)",,,,Schwanden,CH,1.8,Hydro,Run-of-river,,2005,,46.9956406573,9.08699685101,,"Renewable energy",Hydro,,,"- Zentralen Schwanden (Sernf), Schwanden (Niederenbach) und Schwanden (Gemeinde) in einem Gebäude       ;                           ; ",https://www.bfe.admin.ch/bfe/de/home/versorgung/statistik-und-geodaten/geoinformation/geodaten/wasser/statistik-der-wasserkraftanlagen.html
"Schwanden (SNE)",,,,Schwanden,CH,0.5,Hydro,Run-of-river,,2000,,46.994725001,9.08184034492,,"Renewable energy",Hydro,,,,https://www.bfe.admin.ch/bfe/de/home/versorgung/statistik-und-geodaten/geoinformation/geodaten/wasser/statistik-der-wasserkraftanlagen.html
"Mitlödi (Seidendruckerei)",,,,"Mitlödi (Glarus Süd)",CH,0.85,Hydro,Run-of-river,,2016,,,,,"Renewable energy",Hydro,,,,https://www.bfe.admin.ch/bfe/de/home/versorgung/statistik-und-geodaten/geoinformation/geodaten/wasser/statistik-der-wasserkraftanlagen.html
Mühlefuhr,,,,Ennenda,CH,0.82,Hydro,Run-of-river,,2010,,47.0265624558,9.08268411153,,"Renewable energy",Hydro,,,,https://www.bfe.admin.ch/bfe/de/home/versorgung/statistik-und-geodaten/geoinformation/geodaten/wasser/statistik-der-wasserkraftanlagen.html
"Holenstein Wehrkraftw. Glarus",,,,"Mitlödi, Gmde. Glarus Süd",CH,0.55,Hydro,Run-of-river,,2016,,,,,"Renewable energy",Hydro,,,,https://www.bfe.admin.ch/bfe/de/home/versorgung/statistik-und-geodaten/geoinformation/geodaten/wasser/statistik-der-wasserkraftanlagen.html
"Walzmühle 2",,,,"Ennenda, Alpenbrüggli",CH,0.32,Hydro,Run-of-river,,2011,,47.0493657979,9.067192771,,"Renewable energy",Hydro,,,,https://www.bfe.admin.ch/bfe/de/home/versorgung/statistik-und-geodaten/geoinformation/geodaten/wasser/statistik-der-wasserkraftanlagen.html
"Elggiskraft, Netstal",,,,Netstal,CH,0.8,Hydro,Run-of-river,,1983,,47.063765377,9.0605203259,,"Renewable energy",Hydro,,,,https://www.bfe.admin.ch/bfe/de/home/versorgung/statistik-und-geodaten/geoinformation/geodaten/wasser/statistik-der-wasserkraftanlagen.html
"Am Löntsch",,,,Netstal,CH,89.1,Hydro,Reservoir,,1975,,47.0566384819,9.04911463355,,"Renewable energy",Hydro,,,,https://www.bfe.admin.ch/bfe/de/home/versorgung/statistik-und-geodaten/geoinformation/geodaten/wasser/statistik-der-wasserkraftanlagen.html
"Linthkraft, Netstal",,,,Netstal,CH,1.42,Hydro,Run-of-river,,1960,,47.0737495147,9.06069079857,,"Renewable energy",Hydro,,,,https://www.bfe.admin.ch/bfe/de/home/versorgung/statistik-und-geodaten/geoinformation/geodaten/wasser/statistik-der-wasserkraftanlagen.html
"Mels (Tobel)",,,,Mels,CH,0.99,Hydro,Run-of-river,,1995,,47.0382556599,9.3927198108,,"Renewable energy",Hydro,,,,https://www.bfe.admin.ch/bfe/de/home/versorgung/statistik-und-geodaten/geoinformation/geodaten/wasser/statistik-der-wasserkraftanlagen.html
"Mels (KW Stoffel)",,,,"Mels, Steigs",CH,3.3,Hydro,Run-of-river,,1989,,47.0432633834,9.41554241732,,"Renewable energy",Hydro,,,"#NAME?; #NAME?;  ;                               ; ",https://www.bfe.admin.ch/bfe/de/home/versorgung/statistik-und-geodaten/geoinformation/geodaten/wasser/statistik-der-wasserkraftanlagen.html
"Mels (Halde)",,,,Mels,CH,0.55,Hydro,Run-of-river,,2003,,47.0445449435,9.4142733533,,"Renewable energy",Hydro,,,"- Ersatzenergie:	Bezug wird in Franken abgegolten infolge  Wasserableitung der Seez durch KSL       ;                              ; ",https://www.bfe.admin.ch/bfe/de/home/versorgung/statistik-und-geodaten/geoinformation/geodaten/wasser/statistik-der-wasserkraftanlagen.html
"KW Weissenstein",,,,"Mels, Plons",CH,0.64,Hydro,Run-of-river,,2018,,,,,"Renewable energy",Hydro,,,,https://www.bfe.admin.ch/bfe/de/home/versorgung/statistik-und-geodaten/geoinformation/geodaten/wasser/statistik-der-wasserkraftanlagen.html
"Kraftwerk Mädems-Parmort",,,,Mels,CH,1.76,Hydro,Run-of-river,,2018,,,,,"Renewable energy",Hydro,,,,https://www.bfe.admin.ch/bfe/de/home/versorgung/statistik-und-geodaten/geoinformation/geodaten/wasser/statistik-der-wasserkraftanlagen.html
"Flums (Pravizin 1 (Bruggwiti))",,,,Flums,CH,5.07,Hydro,Run-of-river,,1988,,47.0865591822,9.33454317319,,"Renewable energy",Hydro,,,"#NAME?;                                              ;     ;                                                         ; ",https://www.bfe.admin.ch/bfe/de/home/versorgung/statistik-und-geodaten/geoinformation/geodaten/wasser/statistik-der-wasserkraftanlagen.html
"Flums (Pravizin 2 (Äuli))",,,,Flums,CH,0.7,Hydro,Run-of-river,,1943,,47.0862894131,9.33453362605,,"Renewable energy",Hydro,,,"#NAME?;                                               ;       ;                                                      ; ",https://www.bfe.admin.ch/bfe/de/home/versorgung/statistik-und-geodaten/geoinformation/geodaten/wasser/statistik-der-wasserkraftanlagen.html
"Röllbach, Flums",,,,"Flums, Rüfi",CH,0.34,Hydro,Run-of-river,,1963,,47.0823099655,9.3520435321,,"Renewable energy",Hydro,,,,https://www.bfe.admin.ch/bfe/de/home/versorgung/statistik-und-geodaten/geoinformation/geodaten/wasser/statistik-der-wasserkraftanlagen.html
"Flums (Felsen)",,,,Flums,CH,1.48,Hydro,Run-of-river,,1993,,47.0880841876,9.34026178488,,"Renewable energy",Hydro,,,"#NAME?;                                              ; ",https://www.bfe.admin.ch/bfe/de/home/versorgung/statistik-und-geodaten/geoinformation/geodaten/wasser/statistik-der-wasserkraftanlagen.html
"Flums (Neues Sägengüetli)",,,,Flums,CH,1.19,Hydro,Run-of-river,,1974,,47.0886280848,9.34001761784,,"Renewable energy",Hydro,,,"#NAME?; ",https://www.bfe.admin.ch/bfe/de/home/versorgung/statistik-und-geodaten/geoinformation/geodaten/wasser/statistik-der-wasserkraftanlagen.html
Töbeli,,,,Töbeli,CH,0.6,Hydro,Run-of-river,,1992,,47.1248957041,9.32865044802,,"Renewable energy",Hydro,,,"#NAME?; ",https://www.bfe.admin.ch/bfe/de/home/versorgung/statistik-und-geodaten/geoinformation/geodaten/wasser/statistik-der-wasserkraftanlagen.html
Talbach,,,,"Mols, Tal",CH,0.75,Hydro,Run-of-river,,1954,,47.1105410978,9.27055175592,,"Renewable energy",Hydro,,,,https://www.bfe.admin.ch/bfe/de/home/versorgung/statistik-und-geodaten/geoinformation/geodaten/wasser/statistik-der-wasserkraftanlagen.html
Oberterzen,,,,Oberterzen,CH,1.16,Hydro,Run-of-river,,1927,,47.1005471458,9.25966883654,,"Renewable energy",Hydro,,,,https://www.bfe.admin.ch/bfe/de/home/versorgung/statistik-und-geodaten/geoinformation/geodaten/wasser/statistik-der-wasserkraftanlagen.html
"Murg (Plätz)",,,,"Murgtal, Unter Plätz",CH,6.5,Hydro,Run-of-river,,2003,,47.0924492274,9.20788224569,,"Renewable energy",Hydro,,,"- Ersatz Zentralen Plätz 1 (403100) und Plätz 2 (403200) im Jahr 1994       ; ",https://www.bfe.admin.ch/bfe/de/home/versorgung/statistik-und-geodaten/geoinformation/geodaten/wasser/statistik-der-wasserkraftanlagen.html
"Murg (Gödis)",,,,"Murg, unterhalb Gödis",CH,2.8,Hydro,Run-of-river,,1990,,47.1084484412,9.21473631193,,"Renewable energy",Hydro,,,,https://www.bfe.admin.ch/bfe/de/home/versorgung/statistik-und-geodaten/geoinformation/geodaten/wasser/statistik-der-wasserkraftanlagen.html
"Murg (Säge)",,,,Murg,CH,2.32,Hydro,Run-of-river,,1990,,47.113504883,9.21938501334,,"Renewable energy",Hydro,,,,https://www.bfe.admin.ch/bfe/de/home/versorgung/statistik-und-geodaten/geoinformation/geodaten/wasser/statistik-der-wasserkraftanlagen.html
Muslen,,,,"Amden, Muslen",CH,1.63,Hydro,Run-of-river,,1982,,47.1380756597,9.13555309657,,"Renewable energy",Hydro,,,,https://www.bfe.admin.ch/bfe/de/home/versorgung/statistik-und-geodaten/geoinformation/geodaten/wasser/statistik-der-wasserkraftanlagen.html
"Rütiberg (Obersee)",,,,"Rütiberg / Näfels",CH,0.89,Hydro,Run-of-river,,2007,,47.0936004244,9.0373154401,,"Renewable energy",Hydro,,,"#NAME?;                                                  ; ",https://www.bfe.admin.ch/bfe/de/home/versorgung/statistik-und-geodaten/geoinformation/geodaten/wasser/statistik-der-wasserkraftanlagen.html
"Rütiberg (Brändbach)",,,,"Rütiberg / Näfels",CH,0.85,Hydro,Run-of-river,,1977,,47.0936004244,9.0373154401,,"Renewable energy",Hydro,,,"#NAME?;                                                   ; ",https://www.bfe.admin.ch/bfe/de/home/versorgung/statistik-und-geodaten/geoinformation/geodaten/wasser/statistik-der-wasserkraftanlagen.html
Risi,,,,Näfels,CH,4.5,Hydro,Run-of-river,,2011,,47.0946783225,9.05671355608,,"Renewable energy",Hydro,,,,https://www.bfe.admin.ch/bfe/de/home/versorgung/statistik-und-geodaten/geoinformation/geodaten/wasser/statistik-der-wasserkraftanlagen.html
Niederurnen,,,,Niederurnen,CH,2.22,Hydro,Run-of-river,,1980,,47.1235820231,9.04216502354,,"Renewable energy",Hydro,,,"#NAME?; ",https://www.bfe.admin.ch/bfe/de/home/versorgung/statistik-und-geodaten/geoinformation/geodaten/wasser/statistik-der-wasserkraftanlagen.html
Ziegelbrücke,,,,Ziegelbrücke,CH,0.58,Hydro,Run-of-river,,2011,,47.1331874754,9.06288735926,,"Renewable energy",Hydro,,,"- Ersatz der Zentrale Ziegelbrücke 2 im Jahre 2011; ",https://www.bfe.admin.ch/bfe/de/home/versorgung/statistik-und-geodaten/geoinformation/geodaten/wasser/statistik-der-wasserkraftanlagen.html
"Uznaberg, Uznach",,,,Uznach,CH,0.51,Hydro,Run-of-river,,2015,,47.2311598929,8.96429863072,,"Renewable energy",Hydro,,,,https://www.bfe.admin.ch/bfe/de/home/versorgung/statistik-und-geodaten/geoinformation/geodaten/wasser/statistik-der-wasserkraftanlagen.html
"Wägital (Rempen)",,,,"Vorderthal, Rempen",CH,66.24,Hydro,"Pumped storage",,2012,,47.1383731791,8.89757736059,12W-0000000013-Q,"Renewable energy",Hydro,,,"#NAME?; ",https://www.bfe.admin.ch/bfe/de/home/versorgung/statistik-und-geodaten/geoinformation/geodaten/wasser/statistik-der-wasserkraftanlagen.html
"Wägital (Siebnen)",,,,Siebnen,CH,51.52,Hydro,Reservoir,,1984,,47.1716280522,8.90006739911,12W-0000000013-Q,"Renewable energy",Hydro,,,,https://www.bfe.admin.ch/bfe/de/home/versorgung/statistik-und-geodaten/geoinformation/geodaten/wasser/statistik-der-wasserkraftanlagen.html
"Spreitenbach, Galgenen Kistler",,,,"Galgenen, Vorauen",CH,0.3,Hydro,Run-of-river,,1985,,47.1809763388,8.85757157445,,"Renewable energy",Hydro,,,,https://www.bfe.admin.ch/bfe/de/home/versorgung/statistik-und-geodaten/geoinformation/geodaten/wasser/statistik-der-wasserkraftanlagen.html
Pilgersteg,,,,Rüti,CH,0.56,Hydro,Run-of-river,,2013,,47.2688671863,8.87219842017,,"Renewable energy",Hydro,,,,https://www.bfe.admin.ch/bfe/de/home/versorgung/statistik-und-geodaten/geoinformation/geodaten/wasser/statistik-der-wasserkraftanlagen.html
Etzelwerk,,,,Altendorf,CH,135,Hydro,"Pumped storage",,1992,,47.1941128968,8.81291517067,,"Renewable energy",Hydro,,,"#NAME?; - Wasserkraftanteile: Hoheitsanteile nicht festgelegt;;   Annahme: Verteilung wie für Wasserzins ; - Übergangskonzession bis 2022 ; - Erzeugt Bahnstrom 16,7 Hertz        ;       ; ",https://www.bfe.admin.ch/bfe/de/home/versorgung/statistik-und-geodaten/geoinformation/geodaten/wasser/statistik-der-wasserkraftanlagen.html
Bäch,,,,Bäch,CH,0.3,Hydro,Run-of-river,,1957,,47.2003433021,8.72530004013,,"Renewable energy",Hydro,,,,https://www.bfe.admin.ch/bfe/de/home/versorgung/statistik-und-geodaten/geoinformation/geodaten/wasser/statistik-der-wasserkraftanlagen.html
Feusisberg,,,,Schindellegi,CH,0.87,Hydro,Run-of-river,,1989,,47.173583302,8.71291509258,,"Renewable energy",Hydro,,,,https://www.bfe.admin.ch/bfe/de/home/versorgung/statistik-und-geodaten/geoinformation/geodaten/wasser/statistik-der-wasserkraftanlagen.html
Sihl-Höfe,,,,Wollerau,CH,1.45,Hydro,Run-of-river,,1961,,47.1773356908,8.68239576491,,"Renewable energy",Hydro,,,,https://www.bfe.admin.ch/bfe/de/home/versorgung/statistik-und-geodaten/geoinformation/geodaten/wasser/statistik-der-wasserkraftanlagen.html
Waldhalde,,,,Schönenberg,CH,2.8,Hydro,Run-of-river,,1967,,47.1791652701,8.62847586729,,"Renewable energy",Hydro,,,,https://www.bfe.admin.ch/bfe/de/home/versorgung/statistik-und-geodaten/geoinformation/geodaten/wasser/statistik-der-wasserkraftanlagen.html
Letten,,,,Zürich,CH,5,Hydro,Run-of-river,,2004,,47.3870125904,8.53232193345,,"Renewable energy",Hydro,,,,https://www.bfe.admin.ch/bfe/de/home/versorgung/statistik-und-geodaten/geoinformation/geodaten/wasser/statistik-der-wasserkraftanlagen.html
Höngg,,,,Zürich,CH,1.4,Hydro,Run-of-river,,1988,,47.4014693207,8.48651399019,,"Renewable energy",Hydro,,,,https://www.bfe.admin.ch/bfe/de/home/versorgung/statistik-und-geodaten/geoinformation/geodaten/wasser/statistik-der-wasserkraftanlagen.html
Wettingen-Dotieranlage,,,,Wettingen,CH,2.1,Hydro,Run-of-river,,2007,,47.4563663935,8.32142281949,,"Renewable energy",Hydro,,,,https://www.bfe.admin.ch/bfe/de/home/versorgung/statistik-und-geodaten/geoinformation/geodaten/wasser/statistik-der-wasserkraftanlagen.html
Wettingen,,,,Wettingen,CH,25.35,Hydro,Run-of-river,,1964,,47.457089915,8.3209043409,,"Renewable energy",Hydro,,,,https://www.bfe.admin.ch/bfe/de/home/versorgung/statistik-und-geodaten/geoinformation/geodaten/wasser/statistik-der-wasserkraftanlagen.html
Aue-Dotierzentrale,,,,Baden,CH,0.5,Hydro,Run-of-river,,2013,,47.4685180209,8.30835960616,,"Renewable energy",Hydro,,,,https://www.bfe.admin.ch/bfe/de/home/versorgung/statistik-und-geodaten/geoinformation/geodaten/wasser/statistik-der-wasserkraftanlagen.html
Aue,,,,Baden,CH,5.2,Hydro,Run-of-river,,2014,,47.4703876782,8.31091055866,,"Renewable energy",Hydro,,,,https://www.bfe.admin.ch/bfe/de/home/versorgung/statistik-und-geodaten/geoinformation/geodaten/wasser/statistik-der-wasserkraftanlagen.html
Kappelerhof,,,,"Baden, Chappelerhof",CH,7,Hydro,Run-of-river,,2006,,47.4845539139,8.29283192528,,"Renewable energy",Hydro,,,,https://www.bfe.admin.ch/bfe/de/home/versorgung/statistik-und-geodaten/geoinformation/geodaten/wasser/statistik-der-wasserkraftanlagen.html
"Schiffmühle - Dotierzentrale",,,,"Untersiggenthal, Schiffmüli",CH,0.38,Hydro,Run-of-river,,2013,,47.4874209022,8.2696564317,,"Renewable energy",Hydro,,,,https://www.bfe.admin.ch/bfe/de/home/versorgung/statistik-und-geodaten/geoinformation/geodaten/wasser/statistik-der-wasserkraftanlagen.html
Schiffmühle,,,,"Untersiggenthal, Schiffmüli",CH,3.3,Hydro,Run-of-river,,2013,,47.4887141635,8.26489952614,,"Renewable energy",Hydro,,,,https://www.bfe.admin.ch/bfe/de/home/versorgung/statistik-und-geodaten/geoinformation/geodaten/wasser/statistik-der-wasserkraftanlagen.html
Turgi,,,,Turgi,CH,1,Hydro,Run-of-river,,1986,,47.4960768989,8.25399849275,,"Renewable energy",Hydro,,,,https://www.bfe.admin.ch/bfe/de/home/versorgung/statistik-und-geodaten/geoinformation/geodaten/wasser/statistik-der-wasserkraftanlagen.html
"BAG Turgi",,,,Turgi,CH,0.9,Hydro,Run-of-river,,2000,,47.4981499556,8.24049276547,,"Renewable energy",Hydro,,,,https://www.bfe.admin.ch/bfe/de/home/versorgung/statistik-und-geodaten/geoinformation/geodaten/wasser/statistik-der-wasserkraftanlagen.html
"Stroppel, Untersiggenthal",,,,Untersiggenthal,CH,0.8,Hydro,Run-of-river,,2010,,47.5027384384,8.24029647654,,"Renewable energy",Hydro,,,,https://www.bfe.admin.ch/bfe/de/home/versorgung/statistik-und-geodaten/geoinformation/geodaten/wasser/statistik-der-wasserkraftanlagen.html
"Rufi, Hätzingen",,,,Hätzingen,CH,1.06,Hydro,Run-of-river,,2016,,,,,"Renewable energy",Hydro,,,,https://www.bfe.admin.ch/bfe/de/home/versorgung/statistik-und-geodaten/geoinformation/geodaten/wasser/statistik-der-wasserkraftanlagen.html
Aegina,,,,"Ulrichen, Altstafel",CH,9.67,Hydro,Reservoir,,1967,,46.4681741373,8.36952330442,,"Renewable energy",Hydro,,,,https://www.bfe.admin.ch/bfe/de/home/versorgung/statistik-und-geodaten/geoinformation/geodaten/wasser/statistik-der-wasserkraftanlagen.html
Gletsch-Oberwald,,,,"Oberwald, St. Niklaus",CH,15.11,Hydro,Run-of-river,,2018,,,,,"Renewable energy",Hydro,,,,https://www.bfe.admin.ch/bfe/de/home/versorgung/statistik-und-geodaten/geoinformation/geodaten/wasser/statistik-der-wasserkraftanlagen.html
"KW Ulrichen",,,,"Ulrichen, zum Loch",CH,2.35,Hydro,Run-of-river,,2014,,46.5031259385,8.31853164755,,"Renewable energy",Hydro,,,,https://www.bfe.admin.ch/bfe/de/home/versorgung/statistik-und-geodaten/geoinformation/geodaten/wasser/statistik-der-wasserkraftanlagen.html
Merezenbach,,,,"Münster, Moos ",CH,1.99,Hydro,Run-of-river,,1959,,46.4857148879,8.27735361119,,"Renewable energy",Hydro,,,,https://www.bfe.admin.ch/bfe/de/home/versorgung/statistik-und-geodaten/geoinformation/geodaten/wasser/statistik-der-wasserkraftanlagen.html
"Kraftwerk Niderbach",,,,"Wiler, Münster-Geschinen",CH,0.86,Hydro,Run-of-river,,2016,,,,,"Renewable energy",Hydro,,,,https://www.bfe.admin.ch/bfe/de/home/versorgung/statistik-und-geodaten/geoinformation/geodaten/wasser/statistik-der-wasserkraftanlagen.html
Blinne,,,,Reckingen,CH,2.13,Hydro,Run-of-river,,2012,,46.4652885047,8.25334304008,,"Renewable energy",Hydro,,,,https://www.bfe.admin.ch/bfe/de/home/versorgung/statistik-und-geodaten/geoinformation/geodaten/wasser/statistik-der-wasserkraftanlagen.html
"Kraftwerk Walibach",,,,Grafschaft,CH,3.64,Hydro,Run-of-river,,2013,,46.4521519549,8.21513948705,,"Renewable energy",Hydro,,,"#NAME?;    Kantonsanteil an den Seitenzuflüssen der Rhone.; ",https://www.bfe.admin.ch/bfe/de/home/versorgung/statistik-und-geodaten/geoinformation/geodaten/wasser/statistik-der-wasserkraftanlagen.html
Rappental,,,,Rappental,CH,1.2,Hydro,Run-of-river,,2003,,46.3945542547,8.17817050918,,"Renewable energy",Hydro,,,,https://www.bfe.admin.ch/bfe/de/home/versorgung/statistik-und-geodaten/geoinformation/geodaten/wasser/statistik-der-wasserkraftanlagen.html
Neubrigg,,,,Neubrigg,CH,26,Hydro,Run-of-river,,2003,,46.3961814647,8.13424492723,,"Renewable energy",Hydro,,,,https://www.bfe.admin.ch/bfe/de/home/versorgung/statistik-und-geodaten/geoinformation/geodaten/wasser/statistik-der-wasserkraftanlagen.html
Fieschertal,,,,Fieschertal,CH,64,Hydro,Run-of-river,,1999,,46.4260956687,8.14113296389,,"Renewable energy",Hydro,,,,https://www.bfe.admin.ch/bfe/de/home/versorgung/statistik-und-geodaten/geoinformation/geodaten/wasser/statistik-der-wasserkraftanlagen.html
Fiesch,,,,Fiesch,CH,3.1,Hydro,Run-of-river,,2012,,46.39645212,8.13411837029,,"Renewable energy",Hydro,,,,https://www.bfe.admin.ch/bfe/de/home/versorgung/statistik-und-geodaten/geoinformation/geodaten/wasser/statistik-der-wasserkraftanlagen.html
Ernen,,,,Niederernen,CH,33,Hydro,Run-of-river,,1954,,46.3911687446,8.13015040964,,"Renewable energy",Hydro,,,,https://www.bfe.admin.ch/bfe/de/home/versorgung/statistik-und-geodaten/geoinformation/geodaten/wasser/statistik-der-wasserkraftanlagen.html
Saflisch,,,,"Heiligkreuz, Längtal",CH,1.25,Hydro,Run-of-river,,2005,,46.342857005,8.17357038389,,"Renewable energy",Hydro,,,,https://www.bfe.admin.ch/bfe/de/home/versorgung/statistik-und-geodaten/geoinformation/geodaten/wasser/statistik-der-wasserkraftanlagen.html
Heiligkreuz,,,,Heiligkreuz,CH,41,Hydro,Run-of-river,,1989,,46.347614362,8.17519358557,,"Renewable energy",Hydro,,,,https://www.bfe.admin.ch/bfe/de/home/versorgung/statistik-und-geodaten/geoinformation/geodaten/wasser/statistik-der-wasserkraftanlagen.html
Aletsch,,,,Mörel,CH,35.3,Hydro,Run-of-river,,1965,,46.3539748841,8.04276023491,,"Renewable energy",Hydro,,,"- Die Ausbauwassermenge von 7 m3/s wird aufgrund einer Teilungsregelung mit der Electra-Massa AG erst bei einem          ;   Massa-Dargebot von 16.25 m3/s erreicht       ;                           ; ",https://www.bfe.admin.ch/bfe/de/home/versorgung/statistik-und-geodaten/geoinformation/geodaten/wasser/statistik-der-wasserkraftanlagen.html
Mörel,,,,Mörel,CH,54.9,Hydro,Run-of-river,,1943,,46.3521806524,8.04183088725,,"Renewable energy",Hydro,,,,https://www.bfe.admin.ch/bfe/de/home/versorgung/statistik-und-geodaten/geoinformation/geodaten/wasser/statistik-der-wasserkraftanlagen.html
Massaboden,,,,Bitsch,CH,7.2,Hydro,Run-of-river,,1959,,46.3329975315,8.01135847344,,"Renewable energy",Hydro,,,"- Aufnahme des Normalbetriebs: Stromproduktion erst 1906 (Vorher Kompressoretrieb)        ;                                    ; ",https://www.bfe.admin.ch/bfe/de/home/versorgung/statistik-und-geodaten/geoinformation/geodaten/wasser/statistik-der-wasserkraftanlagen.html
Bitsch,,,,"Bitsch, Biel",CH,340,Hydro,Reservoir,,1980,,46.3336461722,8.0075990397,12W-0000000105-J,"Renewable energy",Hydro,,,,https://www.bfe.admin.ch/bfe/de/home/versorgung/statistik-und-geodaten/geoinformation/geodaten/wasser/statistik-der-wasserkraftanlagen.html
"Wässerwasserkraftwerk Mund",,,,"Mund, In de Fäldu (Gem.Naters)",CH,1.44,Hydro,Run-of-river,,2015,,46.3142389389,7.94572953313,,"Renewable energy",Hydro,,,,https://www.bfe.admin.ch/bfe/de/home/versorgung/statistik-und-geodaten/geoinformation/geodaten/wasser/statistik-der-wasserkraftanlagen.html
Bortel-Oberstufe,,,,Ried-Brig,CH,2.35,Hydro,"Pumped storage",,1990,,46.2934511663,8.08815887117,,"Renewable energy",Hydro,,,,https://www.bfe.admin.ch/bfe/de/home/versorgung/statistik-und-geodaten/geoinformation/geodaten/wasser/statistik-der-wasserkraftanlagen.html
"TWKW Nessel u. Mittubäch",,,,Ried-Brig,CH,0.55,Hydro,Run-of-river,,2015,,46.2892989196,8.02478361542,,"Renewable energy",Hydro,,,"#NAME?; - TWKW Nessel ging im 2013 in Betrieb; - TWKW Mittubäch ging im 2015 in Betrieb; #NAME?;  ; ",https://www.bfe.admin.ch/bfe/de/home/versorgung/statistik-und-geodaten/geoinformation/geodaten/wasser/statistik-der-wasserkraftanlagen.html
Bortel-Mittelstufe,,,,Ried-Brig,CH,5.01,Hydro,Reservoir,,1990,,46.297742733,8.06082520919,,"Renewable energy",Hydro,,,,https://www.bfe.admin.ch/bfe/de/home/versorgung/statistik-und-geodaten/geoinformation/geodaten/wasser/statistik-der-wasserkraftanlagen.html
Ganterbach-Saltina,,,,Brig-Glis,CH,6.1,Hydro,Run-of-river,,1980,,46.3044267487,8.00417833469,,"Renewable energy",Hydro,,,,https://www.bfe.admin.ch/bfe/de/home/versorgung/statistik-und-geodaten/geoinformation/geodaten/wasser/statistik-der-wasserkraftanlagen.html
"Wässerwasserkraftwerk Mund",,,,"Badhalte, Brig-Glis",CH,1.44,Hydro,Run-of-river,,2015,,46.3142389389,7.94572953313,,"Renewable energy",Hydro,,,,https://www.bfe.admin.ch/bfe/de/home/versorgung/statistik-und-geodaten/geoinformation/geodaten/wasser/statistik-der-wasserkraftanlagen.html
"Chräjubiel Ried-Brig",,,,Ried-Brig,CH,0.3,Hydro,Run-of-river,,2016,,,,,"Renewable energy",Hydro,,,"#NAME?; ",https://www.bfe.admin.ch/bfe/de/home/versorgung/statistik-und-geodaten/geoinformation/geodaten/wasser/statistik-der-wasserkraftanlagen.html
Rosswald-Gärsterna,,,,Ried-Brig,CH,0.45,Hydro,Run-of-river,,1995,,46.3162383255,8.03403209364,,"Renewable energy",Hydro,,,"#NAME?; ",https://www.bfe.admin.ch/bfe/de/home/versorgung/statistik-und-geodaten/geoinformation/geodaten/wasser/statistik-der-wasserkraftanlagen.html
Zermeiggern,,,,"Saas Almagell, Zermeiggern",CH,74,Hydro,"Pumped storage",,1966,,46.0823690569,7.95650543167,12W-0000000033-I,"Renewable energy",Hydro,,,,https://www.bfe.admin.ch/bfe/de/home/versorgung/statistik-und-geodaten/geoinformation/geodaten/wasser/statistik-der-wasserkraftanlagen.html
Zermeiggern,,,,"Saas Almagell, Zermeiggern",CH,0,Hydro,"Pumped storage",,1987,,46.0823690569,7.95650543167,12W-0000000033-I,"Renewable energy",Hydro,,,,https://www.bfe.admin.ch/bfe/de/home/versorgung/statistik-und-geodaten/geoinformation/geodaten/wasser/statistik-der-wasserkraftanlagen.html
Saas-Fee,,,,"Saas-Fee, Wichulti",CH,1.55,Hydro,Run-of-river,,1960,,46.1162811438,7.93690667216,12W-0000000033-I,"Renewable energy",Hydro,,,"#NAME?;                                      ; ",https://www.bfe.admin.ch/bfe/de/home/versorgung/statistik-und-geodaten/geoinformation/geodaten/wasser/statistik-der-wasserkraftanlagen.html
Stalden,,,,Stalden,CH,185,Hydro,Reservoir,,1965,,46.2302203342,7.85719305844,12W-0000000033-I,"Renewable energy",Hydro,,,,https://www.bfe.admin.ch/bfe/de/home/versorgung/statistik-und-geodaten/geoinformation/geodaten/wasser/statistik-der-wasserkraftanlagen.html
"Mossjesee Kraftwerk",,,,"Mossjesee, Zermatt",CH,0.43,Hydro,Run-of-river,,2015,,46.0100902184,7.77882470311,,"Renewable energy",Hydro,,,,https://www.bfe.admin.ch/bfe/de/home/versorgung/statistik-und-geodaten/geoinformation/geodaten/wasser/statistik-der-wasserkraftanlagen.html
Mutt,,,,Zermatt,CH,11.3,Hydro,Run-of-river,,2002,,46.0114638208,7.73855316305,,"Renewable energy",Hydro,,,,https://www.bfe.admin.ch/bfe/de/home/versorgung/statistik-und-geodaten/geoinformation/geodaten/wasser/statistik-der-wasserkraftanlagen.html
Wiesti,,,,Zermatt,CH,3.4,Hydro,Run-of-river,,1990,,46.0243792554,7.75257026538,,"Renewable energy",Hydro,,,,https://www.bfe.admin.ch/bfe/de/home/versorgung/statistik-und-geodaten/geoinformation/geodaten/wasser/statistik-der-wasserkraftanlagen.html
Täschbach,,,,Täsch,CH,1.65,Hydro,Run-of-river,,1992,,46.0672050805,7.78111832736,,"Renewable energy",Hydro,,,,https://www.bfe.admin.ch/bfe/de/home/versorgung/statistik-und-geodaten/geoinformation/geodaten/wasser/statistik-der-wasserkraftanlagen.html
"KW Jungbach",,,,"St. Niklaus",CH,4.7,Hydro,Run-of-river,,2015,,46.1875857555,7.80376246261,,"Renewable energy",Hydro,,,,https://www.bfe.admin.ch/bfe/de/home/versorgung/statistik-und-geodaten/geoinformation/geodaten/wasser/statistik-der-wasserkraftanlagen.html
"KW Siwibach (Eisten, VS)",,,,"Eisten, VS",CH,1,Hydro,Run-of-river,,2014,,46.1797220622,7.91106743398,,"Renewable energy",Hydro,,,,https://www.bfe.admin.ch/bfe/de/home/versorgung/statistik-und-geodaten/geoinformation/geodaten/wasser/statistik-der-wasserkraftanlagen.html
"Törbel (Gappil)",,,,"Törbel, Gappil",CH,0.49,Hydro,Run-of-river,,2010,,46.2347493762,7.84867201981,,"Renewable energy",Hydro,,,"#NAME?; ",https://www.bfe.admin.ch/bfe/de/home/versorgung/statistik-und-geodaten/geoinformation/geodaten/wasser/statistik-der-wasserkraftanlagen.html
"Ackersand 1",,,,"Stalden, Ackersand",CH,29.2,Hydro,Run-of-river,,1999,,46.239778934,7.87489823485,,"Renewable energy",Hydro,,,,https://www.bfe.admin.ch/bfe/de/home/versorgung/statistik-und-geodaten/geoinformation/geodaten/wasser/statistik-der-wasserkraftanlagen.html
"Ackersand 2",,,,"Stalden, Ackersand",CH,64.4,Hydro,Run-of-river,,1959,,46.240231203,7.87425362084,,"Renewable energy",Hydro,,,,https://www.bfe.admin.ch/bfe/de/home/versorgung/statistik-und-geodaten/geoinformation/geodaten/wasser/statistik-der-wasserkraftanlagen.html
"Kraftwerk Heidadorf",,,,"Visperterminen, Chrizji",CH,3,Hydro,Run-of-river,,2018,,,,,"Renewable energy",Hydro,,,,https://www.bfe.admin.ch/bfe/de/home/versorgung/statistik-und-geodaten/geoinformation/geodaten/wasser/statistik-der-wasserkraftanlagen.html
"Kraftwerk Heidadorf",,,,"Vispenterminen, Stundhüs",CH,2.32,Hydro,Run-of-river,,2018,,,,,"Renewable energy",Hydro,,,,https://www.bfe.admin.ch/bfe/de/home/versorgung/statistik-und-geodaten/geoinformation/geodaten/wasser/statistik-der-wasserkraftanlagen.html
Baltschieder,,,,Baltschieder,CH,0.33,Hydro,Run-of-river,,1994,,46.3075293023,7.87167668529,,"Renewable energy",Hydro,,,"#NAME?; ",https://www.bfe.admin.ch/bfe/de/home/versorgung/statistik-und-geodaten/geoinformation/geodaten/wasser/statistik-der-wasserkraftanlagen.html
"Kalter Brunnen",,,,Tscherggen,CH,0.5,Hydro,Run-of-river,,2000,,46.3124055348,7.81615308604,,"Renewable energy",Hydro,,,"#NAME?; ",https://www.bfe.admin.ch/bfe/de/home/versorgung/statistik-und-geodaten/geoinformation/geodaten/wasser/statistik-der-wasserkraftanlagen.html
Ginals,,,,Unterbäch,CH,1.3,Hydro,Run-of-river,,2010,,46.2659175633,7.78158838307,,"Renewable energy",Hydro,,,,https://www.bfe.admin.ch/bfe/de/home/versorgung/statistik-und-geodaten/geoinformation/geodaten/wasser/statistik-der-wasserkraftanlagen.html
"KWKW Bachtoli",,,,Eischoll,CH,0.98,Hydro,Run-of-river,,2014,,46.2926424983,7.77903138525,,"Renewable energy",Hydro,,,,https://www.bfe.admin.ch/bfe/de/home/versorgung/statistik-und-geodaten/geoinformation/geodaten/wasser/statistik-der-wasserkraftanlagen.html
Unterbäch,,,,Unterbäch,CH,0.85,Hydro,Run-of-river,,1995,,46.2857490893,7.79741347619,,"Renewable energy",Hydro,,,,https://www.bfe.admin.ch/bfe/de/home/versorgung/statistik-und-geodaten/geoinformation/geodaten/wasser/statistik-der-wasserkraftanlagen.html
Turtig,,,,Raron,CH,1.06,Hydro,Run-of-river,,2007,,46.3012328337,7.79388128295,,"Renewable energy",Hydro,,,,https://www.bfe.admin.ch/bfe/de/home/versorgung/statistik-und-geodaten/geoinformation/geodaten/wasser/statistik-der-wasserkraftanlagen.html
Chriz,,,,"Niedergesteln, Turtig",CH,0.55,Hydro,Run-of-river,,2011,,46.3017818766,7.79089962744,,"Renewable energy",Hydro,,,,https://www.bfe.admin.ch/bfe/de/home/versorgung/statistik-und-geodaten/geoinformation/geodaten/wasser/statistik-der-wasserkraftanlagen.html
Niedergesteln,,,,Niedergesteln,CH,0.33,Hydro,Run-of-river,,2008,,46.3142105265,7.78617657396,,"Renewable energy",Hydro,,,"#NAME?; ",https://www.bfe.admin.ch/bfe/de/home/versorgung/statistik-und-geodaten/geoinformation/geodaten/wasser/statistik-der-wasserkraftanlagen.html
Niedergesteln,,,,Niedergesteln,CH,0.58,Hydro,Run-of-river,,2008,,46.3142105265,7.78617657396,,"Renewable energy",Hydro,,,"#NAME?;  ; ",https://www.bfe.admin.ch/bfe/de/home/versorgung/statistik-und-geodaten/geoinformation/geodaten/wasser/statistik-der-wasserkraftanlagen.html
Fafleralp,,,,Blatten,CH,1.25,Hydro,Run-of-river,,2012,,46.4296977536,7.84571987097,,"Renewable energy",Hydro,,,,https://www.bfe.admin.ch/bfe/de/home/versorgung/statistik-und-geodaten/geoinformation/geodaten/wasser/statistik-der-wasserkraftanlagen.html
Blatten,,,,Blatten,CH,0.45,Hydro,Run-of-river,,1994,,46.4229430636,7.82212420241,,"Renewable energy",Hydro,,,"#NAME?; ",https://www.bfe.admin.ch/bfe/de/home/versorgung/statistik-und-geodaten/geoinformation/geodaten/wasser/statistik-der-wasserkraftanlagen.html
Wiler,,,,"Wiler (Lötschen)",CH,1.4,Hydro,Run-of-river,,2010,,46.4069461254,7.78950019889,,"Renewable energy",Hydro,,,,https://www.bfe.admin.ch/bfe/de/home/versorgung/statistik-und-geodaten/geoinformation/geodaten/wasser/statistik-der-wasserkraftanlagen.html
"KWKW Dornbach",,,,Ferden,CH,0.99,Hydro,Run-of-river,,2013,,46.3912093026,7.75702702489,,"Renewable energy",Hydro,,,,https://www.bfe.admin.ch/bfe/de/home/versorgung/statistik-und-geodaten/geoinformation/geodaten/wasser/statistik-der-wasserkraftanlagen.html
Lötschen,,,,Steg-Hohtenn,CH,122,Hydro,Run-of-river,,2008,,46.3197285465,7.74427490433,,"Renewable energy",Hydro,,,"- Nutzungsdauer:  Die Anlage ist auf eine hohe Leistung ausgelegt. Die Nutzungsdauer ist entsprechend kurz  (0 - 10 Tage im Jahr)  ;                    ;                                           ; ",https://www.bfe.admin.ch/bfe/de/home/versorgung/statistik-und-geodaten/geoinformation/geodaten/wasser/statistik-der-wasserkraftanlagen.html
"Oberems (Borterbach)",,,,Oberems,CH,0.75,Hydro,Run-of-river,,2009,,46.2480316908,7.70938258125,,"Renewable energy",Hydro,,,,https://www.bfe.admin.ch/bfe/de/home/versorgung/statistik-und-geodaten/geoinformation/geodaten/wasser/statistik-der-wasserkraftanlagen.html
Illsee,,,,Oberems,CH,8.2,Hydro,"Pumped storage",,1942,,46.2832519814,7.68879773306,,"Renewable energy",Hydro,,,"#NAME?; #NAME?; #NAME?;                    ; ",https://www.bfe.admin.ch/bfe/de/home/versorgung/statistik-und-geodaten/geoinformation/geodaten/wasser/statistik-der-wasserkraftanlagen.html
Illsee,,,,"Oberems, Meretschialp",CH,0,Hydro,"Pumped storage",,1955,,46.2832519814,7.68879773306,,"Renewable energy",Hydro,,,"#NAME?; ",https://www.bfe.admin.ch/bfe/de/home/versorgung/statistik-und-geodaten/geoinformation/geodaten/wasser/statistik-der-wasserkraftanlagen.html
Turtmann,,,,"Turtmann, Müllacheren",CH,23.9,Hydro,Reservoir,,1954,,46.2954022598,7.68599836405,,"Renewable energy",Hydro,,,"#NAME?; ",https://www.bfe.admin.ch/bfe/de/home/versorgung/statistik-und-geodaten/geoinformation/geodaten/wasser/statistik-der-wasserkraftanlagen.html
Dala,,,,"Dalaloch, Leuk-Stadt",CH,13,Hydro,Run-of-river,,2014,,46.3187294651,7.62378458261,,"Renewable energy",Hydro,,,,https://www.bfe.admin.ch/bfe/de/home/versorgung/statistik-und-geodaten/geoinformation/geodaten/wasser/statistik-der-wasserkraftanlagen.html
Chippis-Rhône,,,,Chippis,CH,47.84,Hydro,Run-of-river,,1998,,46.2819458712,7.54749996634,,"Renewable energy",Hydro,,,,https://www.bfe.admin.ch/bfe/de/home/versorgung/statistik-und-geodaten/geoinformation/geodaten/wasser/statistik-der-wasserkraftanlagen.html
Lona,,,,"Grimentz-Lona, Val de Moiry",CH,1.05,Hydro,Run-of-river,,1961,,46.1551994564,7.54582501443,,"Renewable energy",Hydro,,,,https://www.bfe.admin.ch/bfe/de/home/versorgung/statistik-und-geodaten/geoinformation/geodaten/wasser/statistik-der-wasserkraftanlagen.html
Mottec,,,,"Ayer, Mottec",CH,71,Hydro,"Pumped storage",,1958,,46.153036238,7.61998842797,,"Renewable energy",Hydro,,,"- Base pour les données relatives aux machines de la centrale:  ;   Débit max.turbiné:	Palier Moiry-Mottec    = 12.00 m3/s; Palier Turtmann-Mottec    =  6.00 m3/s    ;   Débit max.refoulé: Palier Moiry-Mottec    =   3.90 m3/s; Palier Turtmann-Mottec    =  6.40 m3/s ;   Ces deux turbinage ne peuvent être assurés en même temps; les turbines offrent un débit d'équipement total de 12 m3/s)           	    ;   Puissance installée totale des pompes: Palier Mottec-Moiry    = 25.10 MW; Palier Turtmann-Mottec-Moiry   =  6.60 MW     ;   Puissance maximale absorbée par les moteurs:	Palier Mottec-Moiry	=  28.00 MW; Palier Turtmann-Mottec-Moiry   =  7.50 MW; - La centrale Mottec fait pompage-turbinage                   	    ;                           ;                      	      ;                      	     ",https://www.bfe.admin.ch/bfe/de/home/versorgung/statistik-und-geodaten/geoinformation/geodaten/wasser/statistik-der-wasserkraftanlagen.html
Vissoie,,,,"Ayer, Vissoie",CH,50,Hydro,Reservoir,,1958,,46.2099376546,7.58596983367,,"Renewable energy",Hydro,,,"- Les centrales de Vissoie et Vissoie ""groupe auxiliaire"" se trouvent dans le même bâtiment    ;                                ; ",https://www.bfe.admin.ch/bfe/de/home/versorgung/statistik-und-geodaten/geoinformation/geodaten/wasser/statistik-der-wasserkraftanlagen.html
"Vissoie ""groupe auxiliaire""",,,,"Ayer, Vissoie",CH,0.68,Hydro,Run-of-river,,1958,,46.2099376546,7.58596983367,,"Renewable energy",Hydro,,,"- Les centrales de Vissoie et Vissoie ""groupe auxiliaire"" se trouvent dans le même bâtiment; - La production de Vissoie ""groupe auxiliaire"" est y compris dans la production de la centrale Vissoie;  ; Production l'été:       1.621 GWh     ; Production l'hiver:    0.713 GWh     ; Production l'année:  2.334 GWh   ;                                  ; ",https://www.bfe.admin.ch/bfe/de/home/versorgung/statistik-und-geodaten/geoinformation/geodaten/wasser/statistik-der-wasserkraftanlagen.html
Navisence,,,,Chippis,CH,52,Hydro,Reservoir,,2014,,46.2813172873,7.54633103324,,"Renewable energy",Hydro,,,"- Un groupe de réserve d'une puissance de 24.30 MW est installé (total 76.30 MW); - 11.50 m3/s limitation de la galerie Vissoi-Niouc;  ; ",https://www.bfe.admin.ch/bfe/de/home/versorgung/statistik-und-geodaten/geoinformation/geodaten/wasser/statistik-der-wasserkraftanlagen.html
Croix,,,,"Croix / Ayent",CH,66,Hydro,Reservoir,,1999,,46.3081744934,7.43410089912,,"Renewable energy",Hydro,,,,https://www.bfe.admin.ch/bfe/de/home/versorgung/statistik-und-geodaten/geoinformation/geodaten/wasser/statistik-der-wasserkraftanlagen.html
Chamarin,,,,"Chamarin / Ayent",CH,1.9,Hydro,Run-of-river,,1957,,46.3148311156,7.43176341997,,"Renewable energy",Hydro,,,,https://www.bfe.admin.ch/bfe/de/home/versorgung/statistik-und-geodaten/geoinformation/geodaten/wasser/statistik-der-wasserkraftanlagen.html
"Centrale de turb. lac d'Icogne",,,,Icogne,CH,2,Hydro,Run-of-river,,2012,,46.3059257158,7.43851437386,,"Renewable energy",Hydro,,,,https://www.bfe.admin.ch/bfe/de/home/versorgung/statistik-und-geodaten/geoinformation/geodaten/wasser/statistik-der-wasserkraftanlagen.html
St-Léonard,,,,"St-Léonard, Mangol",CH,36,Hydro,Reservoir,,1998,,46.260587705,7.44474052981,,"Renewable energy",Hydro,,,,https://www.bfe.admin.ch/bfe/de/home/versorgung/statistik-und-geodaten/geoinformation/geodaten/wasser/statistik-der-wasserkraftanlagen.html
Beulet,,,,"St. Léonard",CH,0.72,Hydro,Run-of-river,,1990,,46.2682325663,7.42100406459,,"Renewable energy",Hydro,,,,https://www.bfe.admin.ch/bfe/de/home/versorgung/statistik-und-geodaten/geoinformation/geodaten/wasser/statistik-der-wasserkraftanlagen.html
"Sauterot (Hérémence LYSA)",,,,"Hérémence, Sauterot",CH,5.1,Hydro,Run-of-river,,1977,,46.1699973881,7.40653607429,,"Renewable energy",Hydro,,,,https://www.bfe.admin.ch/bfe/de/home/versorgung/statistik-und-geodaten/geoinformation/geodaten/wasser/statistik-der-wasserkraftanlagen.html
"Sauterôt (Hérémence FMdB)",,,,Hérémence,CH,0.6,Hydro,Run-of-river,,2012,,46.1707174053,7.40783042964,,"Renewable energy",Hydro,,,,https://www.bfe.admin.ch/bfe/de/home/versorgung/statistik-und-geodaten/geoinformation/geodaten/wasser/statistik-der-wasserkraftanlagen.html
"Bramois (Groupes 1 à 4)",,,,Bramois,CH,25.2,Hydro,Run-of-river,,1915,,,,,"Renewable energy",Hydro,,,,https://www.bfe.admin.ch/bfe/de/home/versorgung/statistik-und-geodaten/geoinformation/geodaten/wasser/statistik-der-wasserkraftanlagen.html
"Bramois (Groupe 7)",,,,Bramois,CH,0.43,Hydro,Run-of-river,,1953,,,,,"Renewable energy",Hydro,,,,https://www.bfe.admin.ch/bfe/de/home/versorgung/statistik-und-geodaten/geoinformation/geodaten/wasser/statistik-der-wasserkraftanlagen.html
"La Dixence",,,,"Siviez, Cleuson",CH,0,Hydro,Reservoir,,1950,,46.1127290441,7.3218520553,,"Renewable energy",Hydro,,,,https://www.bfe.admin.ch/bfe/de/home/versorgung/statistik-und-geodaten/geoinformation/geodaten/wasser/statistik-der-wasserkraftanlagen.html
"La Zour",,,,Savièse,CH,0.46,Hydro,Run-of-river,,2004,,46.2744977933,7.35289555834,,"Renewable energy",Hydro,,,"- Turbinage de l'eau potable; ",https://www.bfe.admin.ch/bfe/de/home/versorgung/statistik-und-geodaten/geoinformation/geodaten/wasser/statistik-der-wasserkraftanlagen.html
"Arbaz I  STEP (Comba Energies)",,,,Arbaz,CH,0.59,Hydro,Run-of-river,,2010,,,,,"Renewable energy",Hydro,,,"- Turbinage de leau potable. Permission du 14.06.2010; ",https://www.bfe.admin.ch/bfe/de/home/versorgung/statistik-und-geodaten/geoinformation/geodaten/wasser/statistik-der-wasserkraftanlagen.html
"Arbaz II (Sionne Energie)",,,,Savièse,CH,0.58,Hydro,Run-of-river,,2015,,46.2464389011,7.36318337545,,"Renewable energy",Hydro,,,,https://www.bfe.admin.ch/bfe/de/home/versorgung/statistik-und-geodaten/geoinformation/geodaten/wasser/statistik-der-wasserkraftanlagen.html
Rochers,,,,Savièse,CH,0.33,Hydro,Run-of-river,,2001,,46.2633429435,7.35252424065,,"Renewable energy",Hydro,,,"-Turbinage de l'eau potable; ",https://www.bfe.admin.ch/bfe/de/home/versorgung/statistik-und-geodaten/geoinformation/geodaten/wasser/statistik-der-wasserkraftanlagen.html
"Reserv. de Péteille, Vétroz",,,,"Vétroz, Péteille",CH,0.73,Hydro,Run-of-river,,2015,,46.2269117894,7.27325930917,,"Renewable energy",Hydro,,,,https://www.bfe.admin.ch/bfe/de/home/versorgung/statistik-und-geodaten/geoinformation/geodaten/wasser/statistik-der-wasserkraftanlagen.html
Ardon,,,,Ardon,CH,52,Hydro,Run-of-river,,1996,,46.2167209401,7.25657347569,,"Renewable energy",Hydro,,,,https://www.bfe.admin.ch/bfe/de/home/versorgung/statistik-und-geodaten/geoinformation/geodaten/wasser/statistik-der-wasserkraftanlagen.html
Balavaud,,,,"Balavaud / Ardon",CH,0.48,Hydro,Run-of-river,,1971,,46.2209490674,7.2566888557,,"Renewable energy",Hydro,,,"#NAME?; ",https://www.bfe.admin.ch/bfe/de/home/versorgung/statistik-und-geodaten/geoinformation/geodaten/wasser/statistik-der-wasserkraftanlagen.html
"Grande Dixence",,,,Stafel,CH,0,Hydro,Reservoir,,1961,,46.1829790765,7.25150652126,12W-0000000902-P,"Renewable energy",Hydro,,,"- Energie restituée:	Voir la centrale de Nendaz                ; ",https://www.bfe.admin.ch/bfe/de/home/versorgung/statistik-und-geodaten/geoinformation/geodaten/wasser/statistik-der-wasserkraftanlagen.html
"Grande Dixence",,,,Z'Mutt,CH,0,Hydro,Reservoir,,1965,,46.1829790765,7.25150652126,12W-0000000902-P,"Renewable energy",Hydro,,,"- Energie restituée: 	Voir la centrale de Nendaz; - Die Pumpzentrale Z'mutt ist für den Betrieb der Grande Dixence SA von Bedeutung, sie pumpt das Wasser aus;   dem Einzugsgebiet der Gornera und des Sammelstollens Schali bis in Richtung der Grande Dixence Staumauer. Das sind im;   mehrjährigen Durchschnitt 123 Mio. Kubikmeter Wasser.          ; ",https://www.bfe.admin.ch/bfe/de/home/versorgung/statistik-und-geodaten/geoinformation/geodaten/wasser/statistik-der-wasserkraftanlagen.html
"Grande Dixence",,,,Ferpècle,CH,0,Hydro,Reservoir,,1964,,46.1829790765,7.25150652126,12W-0000000902-P,"Renewable energy",Hydro,,,"- Energie restituée: 	Voir la centrale de Nendaz                 ; ",https://www.bfe.admin.ch/bfe/de/home/versorgung/statistik-und-geodaten/geoinformation/geodaten/wasser/statistik-der-wasserkraftanlagen.html
"Grande Dixence",,,,Arolla,CH,0,Hydro,Reservoir,,1963,,46.1829790765,7.25150652126,12W-0000000902-P,"Renewable energy",Hydro,,,"- Energie restituée: 	Voir la centrale de Nendaz                 ; ",https://www.bfe.admin.ch/bfe/de/home/versorgung/statistik-und-geodaten/geoinformation/geodaten/wasser/statistik-der-wasserkraftanlagen.html
Cleuson-Dixence,,,,Riddes,CH,1285,Hydro,Reservoir,,1999,,46.1829790765,7.25150652126,,"Renewable energy",Hydro,,,"- Production moyenne: 	 L'exploitation des 3 centrales Bieudron, Fionnay(Dixence) et Nendaz alimentées par les eaux du lac; 			 des Dix a pour objectif d'obtenir le meilleur rendement possible; - Mise en fonction fin 2009, après réhabilitation du puits blindé de Cleuson-Dixence.; #NAME?;  ;                                                 ;                          ;                           ;                                             ;           ",https://www.bfe.admin.ch/bfe/de/home/versorgung/statistik-und-geodaten/geoinformation/geodaten/wasser/statistik-der-wasserkraftanlagen.html
"Grande Dixence",,,,Fionnay,CH,306,Hydro,Reservoir,,1957,,46.1829790765,7.25150652126,12W-0000000902-P,"Renewable energy",Hydro,,,"- Production moyenne: 	L'exploitation des 3 centrales Bieudron, Fionnay(Dixence) et Nendaz alimentées par les eaux ;                             		du lac des Dix a pour objectif d'obtenir le meilleur rendement possible; - Cours d'eau utilisés:  	En plus 27 cours d'eau de glacier:; 			Vallée de Zermatt est et sud; 			Val d'Arolla sud et ouest; 			Val Ferpècle est; #NAME?;                          ;                           ;                                              ",https://www.bfe.admin.ch/bfe/de/home/versorgung/statistik-und-geodaten/geoinformation/geodaten/wasser/statistik-der-wasserkraftanlagen.html
"Grande Dixence",,,,Riddes,CH,392,Hydro,Reservoir,,1960,,46.1829790765,7.25150652126,12W-0000000902-P,"Renewable energy",Hydro,,,"- Production moyenne: 	L'exploitation des 3 centrales  Bieudron, Fionnay(Dixence) et Nendaz alimentées par les eaux ;                            		du lac des Dix a pour objectif d'obtenir le meilleur rendement possible; - Cours d'eau utilisés:  	En plus 27 cours d'eau de glacier:; 			Vallée de Zermatt est et sud; 			Val d'Arolla sud et ouest; 			Val Ferpècle est; #NAME?;                          ;                           ;                                              ",https://www.bfe.admin.ch/bfe/de/home/versorgung/statistik-und-geodaten/geoinformation/geodaten/wasser/statistik-der-wasserkraftanlagen.html
"2ème Palier Isérables, Riddes",,,,Riddes,CH,0.65,Hydro,Run-of-river,,2016,,,,,"Renewable energy",Hydro,,,"- 2ème Palier Isérables - microcentrale du Pied du Mont; #NAME?; ",https://www.bfe.admin.ch/bfe/de/home/versorgung/statistik-und-geodaten/geoinformation/geodaten/wasser/statistik-der-wasserkraftanlagen.html
"1er Palier Isérables c. Arcay",,,,Isérables,CH,0.35,Hydro,Run-of-river,,2013,,46.1609354297,7.24886403999,,"Renewable energy",Hydro,,,,https://www.bfe.admin.ch/bfe/de/home/versorgung/statistik-und-geodaten/geoinformation/geodaten/wasser/statistik-der-wasserkraftanlagen.html
"Les Pontets, Com. de Riddes",,,,"Les Pontets, Riddes",CH,0.45,Hydro,Run-of-river,,2014,,46.1295458122,7.25182026579,,"Renewable energy",Hydro,,,,https://www.bfe.admin.ch/bfe/de/home/versorgung/statistik-und-geodaten/geoinformation/geodaten/wasser/statistik-der-wasserkraftanlagen.html
"Riddes (l'eau potable)",,,,"Riddes, Pied du Mont",CH,0.31,Hydro,Run-of-river,,2009,,46.1689050258,7.2283790358,,"Renewable energy",Hydro,,,,https://www.bfe.admin.ch/bfe/de/home/versorgung/statistik-und-geodaten/geoinformation/geodaten/wasser/statistik-der-wasserkraftanlagen.html
Chanrion,,,,"Fionnay, Mauvoisin",CH,30,Hydro,Run-of-river,,1964,,45.99977203,7.35062083304,12W-0000000034-F,"Renewable energy",Hydro,,,,https://www.bfe.admin.ch/bfe/de/home/versorgung/statistik-und-geodaten/geoinformation/geodaten/wasser/statistik-der-wasserkraftanlagen.html
"Fionnay (Mauvoisin)",,,,Fionnay,CH,140,Hydro,Reservoir,,1992,,46.0304047252,7.30795254991,12W-0000000034-F,"Renewable energy",Hydro,,,,https://www.bfe.admin.ch/bfe/de/home/versorgung/statistik-und-geodaten/geoinformation/geodaten/wasser/statistik-der-wasserkraftanlagen.html
Riddes,,,,"Riddes, Ecône",CH,258,Hydro,Reservoir,,1992,,46.1574432142,7.20926514067,12W-0000000034-F,"Renewable energy",Hydro,,,,https://www.bfe.admin.ch/bfe/de/home/versorgung/statistik-und-geodaten/geoinformation/geodaten/wasser/statistik-der-wasserkraftanlagen.html
"Turbinage Jora - Afforêts",,,,Leytron,CH,0.47,Hydro,Run-of-river,,2013,,46.1911570385,7.1997964841,,"Renewable energy",Hydro,,,"- Turbinage l'eau potable, permission du 16 septembre 2009; ",https://www.bfe.admin.ch/bfe/de/home/versorgung/statistik-und-geodaten/geoinformation/geodaten/wasser/statistik-der-wasserkraftanlagen.html
"Fully les Verdan",,,,Fully,CH,2.13,Hydro,Run-of-river,,2017,,,,,"Renewable energy",Hydro,,,"- Type d'utilisation: La centrale fait partie d'eaux potables et d'irrigation ; ",https://www.bfe.admin.ch/bfe/de/home/versorgung/statistik-und-geodaten/geoinformation/geodaten/wasser/statistik-der-wasserkraftanlagen.html
"Fully Les Garettes",,,,"Fully, Les Garettes",CH,0.87,Hydro,Run-of-river,,2017,,,,,"Renewable energy",Hydro,,,"- Type d'utilisation: La centrale fait partie d'eaux potables et d'irrigation ; ",https://www.bfe.admin.ch/bfe/de/home/versorgung/statistik-und-geodaten/geoinformation/geodaten/wasser/statistik-der-wasserkraftanlagen.html
Champsec,,,,Champsec,CH,8.7,Hydro,Run-of-river,,1994,,46.0571253575,7.24806388388,12W-0000000034-F,"Renewable energy",Hydro,,,,https://www.bfe.admin.ch/bfe/de/home/versorgung/statistik-und-geodaten/geoinformation/geodaten/wasser/statistik-der-wasserkraftanlagen.html
"STEP Vallée Bagnes",,,,"Le Châble, Bagnes",CH,0.4,Hydro,Run-of-river,,2007,,46.0827671918,7.20311685212,,"Renewable energy",Hydro,,,"#NAME?; ",https://www.bfe.admin.ch/bfe/de/home/versorgung/statistik-und-geodaten/geoinformation/geodaten/wasser/statistik-der-wasserkraftanlagen.html
"Eaux des torrent de Verbier",,,,"Le Châble, Profray, Com.Bagnes",CH,2.3,Hydro,Run-of-river,,2017,,,,,"Renewable energy",Hydro,,,,https://www.bfe.admin.ch/bfe/de/home/versorgung/statistik-und-geodaten/geoinformation/geodaten/wasser/statistik-der-wasserkraftanlagen.html
Pas-du-Lein,,,,"Pas-du Lein",CH,0.47,Hydro,Run-of-river,,1998,,46.1141701715,7.16702258324,,"Renewable energy",Hydro,,,"- Turbinage de l'eau potable; ",https://www.bfe.admin.ch/bfe/de/home/versorgung/statistik-und-geodaten/geoinformation/geodaten/wasser/statistik-der-wasserkraftanlagen.html
Vollèges-Cries,,,,Vollèges,CH,0.9,Hydro,Run-of-river,,2009,,46.0935060212,7.17785746662,,"Renewable energy",Hydro,,,"- Turbinage d'eau d'irrigation; ",https://www.bfe.admin.ch/bfe/de/home/versorgung/statistik-und-geodaten/geoinformation/geodaten/wasser/statistik-der-wasserkraftanlagen.html
Hospitalet,,,,L'Hospitalet,CH,1.47,Hydro,Run-of-river,,1963,,45.8860019638,7.18722185045,,"Renewable energy",Hydro,,,,https://www.bfe.admin.ch/bfe/de/home/versorgung/statistik-und-geodaten/geoinformation/geodaten/wasser/statistik-der-wasserkraftanlagen.html
"La Delise, Bourg-Saint-Pierre",,,,"Bourg-St-Pierre, La Delise",CH,2,Hydro,Run-of-river,,2016,,,,,"Renewable energy",Hydro,,,,https://www.bfe.admin.ch/bfe/de/home/versorgung/statistik-und-geodaten/geoinformation/geodaten/wasser/statistik-der-wasserkraftanlagen.html
Pallazuit,,,,Liddes,CH,33.4,Hydro,Reservoir,,1958,,45.9810884929,7.18949243196,,"Renewable energy",Hydro,,,,https://www.bfe.admin.ch/bfe/de/home/versorgung/statistik-und-geodaten/geoinformation/geodaten/wasser/statistik-der-wasserkraftanlagen.html
"Niollet 1",,,,"Le Niollet, Champex",CH,0.32,Hydro,Run-of-river,,2004,,46.0219359255,7.12138441237,,"Renewable energy",Hydro,,,"#NAME?; ",https://www.bfe.admin.ch/bfe/de/home/versorgung/statistik-und-geodaten/geoinformation/geodaten/wasser/statistik-der-wasserkraftanlagen.html
"Niollet 2",,,,Orsières,CH,1.2,Hydro,Run-of-river,,1996,,46.0211838851,7.14243628028,,"Renewable energy",Hydro,,,"- Les centrales Orsières et Niollet 2 se trouvent dans le même bâtiment  ;                                                       ; ",https://www.bfe.admin.ch/bfe/de/home/versorgung/statistik-und-geodaten/geoinformation/geodaten/wasser/statistik-der-wasserkraftanlagen.html
Orsières,,,,Orsières,CH,26.4,Hydro,Run-of-river,,1958,,46.0210935902,7.14230764616,,"Renewable energy",Hydro,,,"- Les centrales Orsières et Niollet 2 se trouvent dans le même bâtiment  ;                                                         ; ",https://www.bfe.admin.ch/bfe/de/home/versorgung/statistik-und-geodaten/geoinformation/geodaten/wasser/statistik-der-wasserkraftanlagen.html
Orsières,,,,"Pt. de la Tsi / Liddes",CH,0,Hydro,Run-of-river,,1943,,46.0210935902,7.14230764616,,"Renewable energy",Hydro,,,,https://www.bfe.admin.ch/bfe/de/home/versorgung/statistik-und-geodaten/geoinformation/geodaten/wasser/statistik-der-wasserkraftanlagen.html
Sembrancher,,,,"Sembrancher, Les Moulins",CH,11,Hydro,Run-of-river,,1929,,46.079152002,7.15672724814,,"Renewable energy",Hydro,,,,https://www.bfe.admin.ch/bfe/de/home/versorgung/statistik-und-geodaten/geoinformation/geodaten/wasser/statistik-der-wasserkraftanlagen.html
Martigny-Bourg,,,,Martigny-Bourg,CH,22,Hydro,Run-of-river,,1945,,46.0883098661,7.05906976663,,"Renewable energy",Hydro,,,,https://www.bfe.admin.ch/bfe/de/home/versorgung/statistik-und-geodaten/geoinformation/geodaten/wasser/statistik-der-wasserkraftanlagen.html
Pont-Neuf,,,,Martigny-Combe,CH,0.93,Hydro,Run-of-river,,1981,,46.073184867,7.05542701654,,"Renewable energy",Hydro,,,"- Turbinage de l'eau potable     ; ",https://www.bfe.admin.ch/bfe/de/home/versorgung/statistik-und-geodaten/geoinformation/geodaten/wasser/statistik-der-wasserkraftanlagen.html
Trient,,,,"Le Châtelard",CH,1,Hydro,Run-of-river,,1995,,46.0583372445,6.96030038614,,"Renewable energy",Hydro,,,"#NAME?; - Autorisation provisoire d'exploitation (Duldungsverfügung) bis 2022 während Konzessionserneuerung  ; ",https://www.bfe.admin.ch/bfe/de/home/versorgung/statistik-und-geodaten/geoinformation/geodaten/wasser/statistik-der-wasserkraftanlagen.html
Châtelard-Barberine,,,,"Le Châtelard",CH,112,Hydro,"Pumped storage",,1977,,46.0620181656,6.95858815009,,"Renewable energy",Hydro,,,"- Cote du plancher de la salle des machines de Châtelard-Barberine 2 = 1122.00       ; - Débit maximale turbiné: 	Châtelard-Barberine 1 =  8 m3/s                                           ;        			Châtelard-Barberine 2 = 12 m3/s; - Puissance maximale disponible aux bornes des alternateurs:                                 ;     			Châtelard-Barberine 1 = 46 MW;                           		Châtelard-Barberine 2 = 82 MW          ; - Pour la production moyenne escomptée aux bornes des alternateurs on suppose une exploitation normale de Châtelard-Barberine 1;   et Châtelard-Barberine 2; - La centrale Châtelard-Barberine 2 fait pompage-turbinage ; #NAME?",https://www.bfe.admin.ch/bfe/de/home/versorgung/statistik-und-geodaten/geoinformation/geodaten/wasser/statistik-der-wasserkraftanlagen.html
Emosson,,,,Vallorcine,CH,260.5,Hydro,Reservoir,,1978,,46.0508221655,6.94899701138,12W-0000000060-F,"Renewable energy",Hydro,,,"- Données relatives aux machines de la centrale Châtelard-Vallorcine, groupes 1 à 3 à axe vertical:     ;     Haute chute: 		Débit max.turbiné 		    	=   35.0 m3/s;     (Lac d'Emosson)      	Puissance inst.des turb.Pelton Gr.1-3	= 210.0 MW  ;                			Puissance max.disponible       Gr.1-3	= 210.0 MW  ;     Basse chute: 		Débit max.turbiné                    		=  15.0 m3/s;     (Bassin des Esserts)  	Puiss.inst.des turb.Francis axe Gr.1 	=  50.5 MW  ;                			Puissance max.disponible        Gr.1 	=  48.5 MW                    ; - Les équipements haute chute, basse chute et Centrale de pompage de Châtelard-Vallorcine se trouvent dans le même bâtiment et leur;   fonctionnement est étroitement lié;        ",https://www.bfe.admin.ch/bfe/de/home/versorgung/statistik-und-geodaten/geoinformation/geodaten/wasser/statistik-der-wasserkraftanlagen.html
Emosson,,,,"Salvan, Alpage de Barberine",CH,0,Hydro,Reservoir,,1978,,46.0508221655,6.94899701138,12W-0000000060-F,"Renewable energy",Hydro,,,,https://www.bfe.admin.ch/bfe/de/home/versorgung/statistik-und-geodaten/geoinformation/geodaten/wasser/statistik-der-wasserkraftanlagen.html
Emosson,,,,Vallorcine,CH,0,Hydro,Reservoir,,1978,,46.0508221655,6.94899701138,12W-0000000060-F,"Renewable energy",Hydro,,,"- Les équipements haute chute, basse chute et Centrale de pompage de Châtelard-Vallorcine se trouvent dans le même       ;   bâtiment et leur fonctionnement est étroitement lié        ;             ; ",https://www.bfe.admin.ch/bfe/de/home/versorgung/statistik-und-geodaten/geoinformation/geodaten/wasser/statistik-der-wasserkraftanlagen.html
"Vernayaz (CFF)",,,,Vernayaz,CH,92,Hydro,Reservoir,,1990,,46.1332077915,7.03598337007,,"Renewable energy",Hydro,,,"#NAME?; - Autorisation provisoire d'exploitation (Duldungsverfügung) bis 2022 während Konzessionserneuerung  ; ",https://www.bfe.admin.ch/bfe/de/home/versorgung/statistik-und-geodaten/geoinformation/geodaten/wasser/statistik-der-wasserkraftanlagen.html
"Turbinage Salvan et Vernayaz",,,,Vernayaz,CH,0.46,Hydro,Run-of-river,,2013,,46.1338328331,7.0346848085,,"Renewable energy",Hydro,,,,https://www.bfe.admin.ch/bfe/de/home/versorgung/statistik-und-geodaten/geoinformation/geodaten/wasser/statistik-der-wasserkraftanlagen.html
Emosson,,,,Martigny,CH,170,Hydro,Reservoir,,1978,,46.0508221655,6.94899701138,12W-0000000060-F,"Renewable energy",Hydro,,,,https://www.bfe.admin.ch/bfe/de/home/versorgung/statistik-und-geodaten/geoinformation/geodaten/wasser/statistik-der-wasserkraftanlagen.html
"Vernayaz (Pissevache)",,,,Vernayaz,CH,1.7,Hydro,Run-of-river,,2016,,,,,"Renewable energy",Hydro,,,,https://www.bfe.admin.ch/bfe/de/home/versorgung/statistik-und-geodaten/geoinformation/geodaten/wasser/statistik-der-wasserkraftanlagen.html
Salanfe,,,,"Vernayaz, Miéville",CH,70,Hydro,Reservoir,,2012,,46.1464058483,7.02889676253,,"Renewable energy",Hydro,,,"- 435.73 m.s.m. (= cote des injecteurs); ",https://www.bfe.admin.ch/bfe/de/home/versorgung/statistik-und-geodaten/geoinformation/geodaten/wasser/statistik-der-wasserkraftanlagen.html
Salanfe,,,,"Giétroz du Fond",CH,0,Hydro,Reservoir,,1965,,46.1464058483,7.02889676253,,"Renewable energy",Hydro,,,,https://www.bfe.admin.ch/bfe/de/home/versorgung/statistik-und-geodaten/geoinformation/geodaten/wasser/statistik-der-wasserkraftanlagen.html
Salanfe,,,,Clusanfe,CH,0,Hydro,Reservoir,,1963,,46.1464058483,7.02889676253,,"Renewable energy",Hydro,,,,https://www.bfe.admin.ch/bfe/de/home/versorgung/statistik-und-geodaten/geoinformation/geodaten/wasser/statistik-der-wasserkraftanlagen.html
Aboyeu,,,,Collonges,CH,3.3,Hydro,Run-of-river,,1981,,46.1819570581,7.03393846048,,"Renewable energy",Hydro,,,,https://www.bfe.admin.ch/bfe/de/home/versorgung/statistik-und-geodaten/geoinformation/geodaten/wasser/statistik-der-wasserkraftanlagen.html
"La Rasse",,,,"Evionnaz, La Rasse",CH,0.72,Hydro,Run-of-river,,1998,,46.1813257215,7.0092074642,,"Renewable energy",Hydro,,,"- Turbinage de l'eau potable; ",https://www.bfe.admin.ch/bfe/de/home/versorgung/statistik-und-geodaten/geoinformation/geodaten/wasser/statistik-der-wasserkraftanlagen.html
Lavey,,,,Lavey,CH,90,Hydro,Run-of-river,,1990,,46.2144442208,7.01296270519,,"Renewable energy",Hydro,,,"- Bases juridiques: Année d'échéance des concessions VD = 2030; VS = 2030            ;                                            ; ",https://www.bfe.admin.ch/bfe/de/home/versorgung/statistik-und-geodaten/geoinformation/geodaten/wasser/statistik-der-wasserkraftanlagen.html
"La Peuffeyre",,,,"La Peuffeyre",CH,24,Hydro,Run-of-river,,2004,,46.2659833584,7.06171756484,,"Renewable energy",Hydro,,,,https://www.bfe.admin.ch/bfe/de/home/versorgung/statistik-und-geodaten/geoinformation/geodaten/wasser/statistik-der-wasserkraftanlagen.html
"Sublin 1",,,,Bex,CH,8,Hydro,Run-of-river,,1993,,46.2650997419,7.04019258223,,"Renewable energy",Hydro,,,"- Les centrales Sublin 1 et Sublin 2 se trouvent dans le même bâtiment  ;                                                        ; ",https://www.bfe.admin.ch/bfe/de/home/versorgung/statistik-und-geodaten/geoinformation/geodaten/wasser/statistik-der-wasserkraftanlagen.html
"Sublin 2",,,,Bex,CH,2.61,Hydro,Run-of-river,,2013,,46.2650997419,7.04019258223,,"Renewable energy",Hydro,,,"- Les centrales Sublin 1 et Sublin 2 se trouvent dans le même bâtiment  ; #NAME?; - Turbinage de l'eau potable                                                        ;                                  ; ",https://www.bfe.admin.ch/bfe/de/home/versorgung/statistik-und-geodaten/geoinformation/geodaten/wasser/statistik-der-wasserkraftanlagen.html
Bevieux,,,,"Le Bévieux",CH,1.9,Hydro,Run-of-river,,1943,,46.2603811856,7.02881412738,,"Renewable energy",Hydro,,,,https://www.bfe.admin.ch/bfe/de/home/versorgung/statistik-und-geodaten/geoinformation/geodaten/wasser/statistik-der-wasserkraftanlagen.html
"Champéry Etrivouez",,,,"Etrivouez, Grand Paradis",CH,0.97,Hydro,Run-of-river,,1990,,46.161762733,6.85918766723,,"Renewable energy",Hydro,,,"#NAME?; ",https://www.bfe.admin.ch/bfe/de/home/versorgung/statistik-und-geodaten/geoinformation/geodaten/wasser/statistik-der-wasserkraftanlagen.html
"Torrent de Soi",,,,"La Frassenaye, Val d'Jlliez",CH,0.92,Hydro,Run-of-river,,2005,,46.1860308699,6.89104970296,,"Renewable energy",Hydro,,,,https://www.bfe.admin.ch/bfe/de/home/versorgung/statistik-und-geodaten/geoinformation/geodaten/wasser/statistik-der-wasserkraftanlagen.html
"Monthey (Vièze)",,,,Monthey,CH,13.6,Hydro,Run-of-river,,1999,,46.2492602077,6.94720705322,,"Renewable energy",Hydro,,,"#NAME?;                                                  ; ",https://www.bfe.admin.ch/bfe/de/home/versorgung/statistik-und-geodaten/geoinformation/geodaten/wasser/statistik-der-wasserkraftanlagen.html
"Monthey (Tine)",,,,"Monthey, Les Nants",CH,9.8,Hydro,Run-of-river,,1994,,46.2492602077,6.94720705322,,"Renewable energy",Hydro,,,"#NAME?;                                                   ; ",https://www.bfe.admin.ch/bfe/de/home/versorgung/statistik-und-geodaten/geoinformation/geodaten/wasser/statistik-der-wasserkraftanlagen.html
"Monthey (Commune)",,,,Monthey,CH,0.4,Hydro,Run-of-river,,1992,,46.2496081279,6.94448084181,,"Renewable energy",Hydro,,,,https://www.bfe.admin.ch/bfe/de/home/versorgung/statistik-und-geodaten/geoinformation/geodaten/wasser/statistik-der-wasserkraftanlagen.html
"Châble II",,,,"Vionnaz, Beffeux",CH,0.42,Hydro,Run-of-river,,2014,,,,,"Renewable energy",Hydro,,,"#NAME?; ",https://www.bfe.admin.ch/bfe/de/home/versorgung/statistik-und-geodaten/geoinformation/geodaten/wasser/statistik-der-wasserkraftanlagen.html
Diablerets,,,,"Les Diablerets, Le Plan",CH,5.4,Hydro,Reservoir,,1957,,46.3530641075,7.15465044855,,"Renewable energy",Hydro,,,"#NAME?; ",https://www.bfe.admin.ch/bfe/de/home/versorgung/statistik-und-geodaten/geoinformation/geodaten/wasser/statistik-der-wasserkraftanlagen.html
"Pont de la Tine",,,,"Ormont-Dessous, Le Pont",CH,10.6,Hydro,Run-of-river,,1991,,46.348145567,7.04451800887,,"Renewable energy",Hydro,,,,https://www.bfe.admin.ch/bfe/de/home/versorgung/statistik-und-geodaten/geoinformation/geodaten/wasser/statistik-der-wasserkraftanlagen.html
"Pont de la Tine  Coussy-Loudze",,,,"Ormont - Dessous, Le Pont",CH,0.39,Hydro,Run-of-river,,2013,,46.3474245655,7.04413354848,,"Renewable energy",Hydro,,,,https://www.bfe.admin.ch/bfe/de/home/versorgung/statistik-und-geodaten/geoinformation/geodaten/wasser/statistik-der-wasserkraftanlagen.html
"La Douve, Aigle",,,,"Aigle, En la Douve",CH,0.46,Hydro,Run-of-river,,2000,,46.3277994563,7.01531866907,,"Renewable energy",Hydro,,,"#NAME?; ",https://www.bfe.admin.ch/bfe/de/home/versorgung/statistik-und-geodaten/geoinformation/geodaten/wasser/statistik-der-wasserkraftanlagen.html
"Les Farettes",,,,"Fontanney, Les Farettes",CH,20.3,Hydro,Run-of-river,,1967,,,,,"Renewable energy",Hydro,,,,https://www.bfe.admin.ch/bfe/de/home/versorgung/statistik-und-geodaten/geoinformation/geodaten/wasser/statistik-der-wasserkraftanlagen.html
"Micro-centrale de Fontanney",,,,"Les Farettes, Aigle",CH,0.33,Hydro,Run-of-river,,1997,,46.3170626321,6.98398364412,,"Renewable energy",Hydro,,,"- Cours d'eau utilisés: La centrale utilise le trop plein du réservoir d'eau potable d'Aigle et partiellement les eaux du torrent de Fontanney; ",https://www.bfe.admin.ch/bfe/de/home/versorgung/statistik-und-geodaten/geoinformation/geodaten/wasser/statistik-der-wasserkraftanlagen.html
"Eaux du torrent du Fossau",,,,Vouvry,CH,2.3,Hydro,Run-of-river,,2018,,,,,"Renewable energy",Hydro,,,"#NAME?; ",https://www.bfe.admin.ch/bfe/de/home/versorgung/statistik-und-geodaten/geoinformation/geodaten/wasser/statistik-der-wasserkraftanlagen.html
"Croseau, Saint-Gingolph",,,,"Saint-Gingolph, Vignolles",CH,0.35,Hydro,Run-of-river,,2009,,46.3877224781,6.80580981556,,"Renewable energy",Hydro,,,,https://www.bfe.admin.ch/bfe/de/home/versorgung/statistik-und-geodaten/geoinformation/geodaten/wasser/statistik-der-wasserkraftanlagen.html
Hongrin-Léman,,,,"Veytaux, Chillon",CH,420,Hydro,"Pumped storage",,2016,,,,,"Renewable energy",Hydro,,,"#NAME?; #NAME?; - Un groupe de réserve d'une puissance de 60 MW est installé (total 480 MW); - Veytaux I: 4 machine à 60 MW (turbinage / pompage)  ; - Veytaux II: 2 machine à 120 MW (turbinage / pompage); - La production total, d'environ 969,7 GWh/a, dont 159,7 GWh proviennent des apport naturel;  ;  ;  ;  ",https://www.bfe.admin.ch/bfe/de/home/versorgung/statistik-und-geodaten/geoinformation/geodaten/wasser/statistik-der-wasserkraftanlagen.html
Sonzier,,,,"Montreux, Sonzier",CH,1.65,Hydro,Run-of-river,,1971,,46.4403231332,6.92517165399,,"Renewable energy",Hydro,,,,https://www.bfe.admin.ch/bfe/de/home/versorgung/statistik-und-geodaten/geoinformation/geodaten/wasser/statistik-der-wasserkraftanlagen.html
Taulan,,,,"Les Planches, Taulan",CH,1.2,Hydro,Run-of-river,,1996,,46.4339054895,6.91846679903,,"Renewable energy",Hydro,,,,https://www.bfe.admin.ch/bfe/de/home/versorgung/statistik-und-geodaten/geoinformation/geodaten/wasser/statistik-der-wasserkraftanlagen.html
"Rivaz (Le Forestay)",,,,Rivaz,CH,0.73,Hydro,Run-of-river,,2014,,46.4746425288,6.77770904753,,"Renewable energy",Hydro,,,,https://www.bfe.admin.ch/bfe/de/home/versorgung/statistik-und-geodaten/geoinformation/geodaten/wasser/statistik-der-wasserkraftanlagen.html
Plan-Dessous,,,,Aubonne,CH,10.7,Hydro,Run-of-river,,2001,,46.4992089696,6.3858086765,,"Renewable energy",Hydro,,,,https://www.bfe.admin.ch/bfe/de/home/versorgung/statistik-und-geodaten/geoinformation/geodaten/wasser/statistik-der-wasserkraftanlagen.html
"La Petite Vaux",,,,Lavigny,CH,3.31,Hydro,Run-of-river,,2008,,46.4888599452,6.40502679993,,"Renewable energy",Hydro,,,,https://www.bfe.admin.ch/bfe/de/home/versorgung/statistik-und-geodaten/geoinformation/geodaten/wasser/statistik-der-wasserkraftanlagen.html
Seujet,,,,Genève,CH,8.7,Hydro,Run-of-river,,1994,,46.2031197477,6.13447158551,,"Renewable energy",Hydro,,,"Fonctions de l'ouvrage du Seujet:	- Régulariser le niveau du Lac Léman; 			     	- Moduler le débit du Rhône pour l'usine de Verbois; 			        	 ; ",https://www.bfe.admin.ch/bfe/de/home/versorgung/statistik-und-geodaten/geoinformation/geodaten/wasser/statistik-der-wasserkraftanlagen.html
Vessy,,,,"Veyrier, Iles de Vessy",CH,0.32,Hydro,Run-of-river,,2007,,46.1790567398,6.17027683448,,"Renewable energy",Hydro,,,,https://www.bfe.admin.ch/bfe/de/home/versorgung/statistik-und-geodaten/geoinformation/geodaten/wasser/statistik-der-wasserkraftanlagen.html
Verbois,,,,Russin,CH,102.8,Hydro,Run-of-river,,1999,,46.1913941292,6.02735734063,,"Renewable energy",Hydro,,,,https://www.bfe.admin.ch/bfe/de/home/versorgung/statistik-und-geodaten/geoinformation/geodaten/wasser/statistik-der-wasserkraftanlagen.html
Chancy-Pougny,,,,"Avully / Chancy",CH,54,Hydro,Run-of-river,,2013,,46.1604259494,5.9764989749,,"Renewable energy",Hydro,,,,https://www.bfe.admin.ch/bfe/de/home/versorgung/statistik-und-geodaten/geoinformation/geodaten/wasser/statistik-der-wasserkraftanlagen.html
"Chancy-Pougny Dot. passe pois.",,,,Challex,CH,0.48,Hydro,Run-of-river,,2013,,46.1593164285,5.97419822603,,"Renewable energy",Hydro,,,"#NAME?; ",https://www.bfe.admin.ch/bfe/de/home/versorgung/statistik-und-geodaten/geoinformation/geodaten/wasser/statistik-der-wasserkraftanlagen.html
"La Rançonnière",,,,"Les Brenets, La Rançonnière",CH,1.6,Hydro,Run-of-river,,1984,,47.0529629931,6.71594514968,,"Renewable energy",Hydro,,,"- Cote du plancher de la salle de la machine 3 = 824.20        ; ",https://www.bfe.admin.ch/bfe/de/home/versorgung/statistik-und-geodaten/geoinformation/geodaten/wasser/statistik-der-wasserkraftanlagen.html
"Am. de dotation du Châtelot",,,,"Les Planchettes",CH,1,Hydro,Run-of-river,,2005,,47.1014437602,6.74440337669,,"Renewable energy",Hydro,,,,https://www.bfe.admin.ch/bfe/de/home/versorgung/statistik-und-geodaten/geoinformation/geodaten/wasser/statistik-der-wasserkraftanlagen.html
"Le Châtelot",,,,"Les Planchettes",CH,31.6,Hydro,Run-of-river,,1953,,47.1209584467,6.77393285741,,"Renewable energy",Hydro,,,,https://www.bfe.admin.ch/bfe/de/home/versorgung/statistik-und-geodaten/geoinformation/geodaten/wasser/statistik-der-wasserkraftanlagen.html
Refrain,,,,"Echelles de la Mort",CH,12,Hydro,Run-of-river,,1956,,47.1876938239,6.87311737175,,"Renewable energy",Hydro,,,,https://www.bfe.admin.ch/bfe/de/home/versorgung/statistik-und-geodaten/geoinformation/geodaten/wasser/statistik-der-wasserkraftanlagen.html
"La Goule",,,,"Le Noirmont",CH,5.6,Hydro,Run-of-river,,1958,,47.2287001901,6.92853835569,,"Renewable energy",Hydro,,,"- Cote du plancher de la salle de la machine 3 = 513.37        ;  ; ",https://www.bfe.admin.ch/bfe/de/home/versorgung/statistik-und-geodaten/geoinformation/geodaten/wasser/statistik-der-wasserkraftanlagen.html
Ossasco,,,,"Bedretto, Ossasco",CH,1.27,Hydro,Run-of-river,,2012,,46.5126365625,8.53838477213,,"Renewable energy",Hydro,,,,https://www.bfe.admin.ch/bfe/de/home/versorgung/statistik-und-geodaten/geoinformation/geodaten/wasser/statistik-der-wasserkraftanlagen.html
Sella,,,,"Motti della Bolla",CH,1.93,Hydro,Reservoir,,1991,,46.5524637488,8.58666190321,,"Renewable energy",Hydro,,,,https://www.bfe.admin.ch/bfe/de/home/versorgung/statistik-und-geodaten/geoinformation/geodaten/wasser/statistik-der-wasserkraftanlagen.html
Lucendro,,,,Airolo,CH,60,Hydro,Reservoir,,1947,,46.5263515901,8.59770900919,,"Renewable energy",Hydro,,,,https://www.bfe.admin.ch/bfe/de/home/versorgung/statistik-und-geodaten/geoinformation/geodaten/wasser/statistik-der-wasserkraftanlagen.html
Lucendro,,,,"Cap.dei Morti",CH,0,Hydro,Reservoir,,1947,,46.5263515901,8.59770900919,,"Renewable energy",Hydro,,,,https://www.bfe.admin.ch/bfe/de/home/versorgung/statistik-und-geodaten/geoinformation/geodaten/wasser/statistik-der-wasserkraftanlagen.html
Calcaccia,,,,"Airolo, Launc",CH,3.6,Hydro,Run-of-river,,1988,,46.5194921171,8.6345754932,,"Renewable energy",Hydro,,,"#NAME?; ",https://www.bfe.admin.ch/bfe/de/home/versorgung/statistik-und-geodaten/geoinformation/geodaten/wasser/statistik-der-wasserkraftanlagen.html
Ritom,,,,Piotta,CH,44,Hydro,Reservoir,,1958,,46.5172567651,8.67531756408,12W-0000000064-3,"Renewable energy",Hydro,,,"- Fine della concessione per l'Unteralpreuss ed il Medelserrhein 2043      ; - Die Inbetriebnahme von Ritom II ist im Jahre 2023 vorgesehen. das KW Ritom II ersetzt Ritom I;                                ; ",https://www.bfe.admin.ch/bfe/de/home/versorgung/statistik-und-geodaten/geoinformation/geodaten/wasser/statistik-der-wasserkraftanlagen.html
"Stalvedro (AET)",,,,Piotta,CH,14,Hydro,Run-of-river,,1968,,46.5174111108,8.67766693812,12W-0000000064-3,"Renewable energy",Hydro,,,,https://www.bfe.admin.ch/bfe/de/home/versorgung/statistik-und-geodaten/geoinformation/geodaten/wasser/statistik-der-wasserkraftanlagen.html
Tremorgio,,,,Rodi-Fiesso,CH,10,Hydro,Reservoir,,1925,,46.4902114363,8.73670424626,12W-0000000064-3,"Renewable energy",Hydro,,,,https://www.bfe.admin.ch/bfe/de/home/versorgung/statistik-und-geodaten/geoinformation/geodaten/wasser/statistik-der-wasserkraftanlagen.html
"Ri di Foch 2 Prato (Leventina)",,,," Prato Leventina, P. di Masc.",CH,0.31,Hydro,Run-of-river,,2008,,46.480190595,8.74753439559,12W-0000000064-3,"Renewable energy",Hydro,,,,https://www.bfe.admin.ch/bfe/de/home/versorgung/statistik-und-geodaten/geoinformation/geodaten/wasser/statistik-der-wasserkraftanlagen.html
"Ceresa 1",,,,Faido,CH,2,Hydro,Run-of-river,,1950,,46.4856544595,8.78804420318,,"Renewable energy",Hydro,,,,https://www.bfe.admin.ch/bfe/de/home/versorgung/statistik-und-geodaten/geoinformation/geodaten/wasser/statistik-der-wasserkraftanlagen.html
"Piumogna, Dalpe",,,,Dalpe,CH,1,Hydro,Run-of-river,,2000,,46.4665637849,8.76660589676,,"Renewable energy",Hydro,,,,https://www.bfe.admin.ch/bfe/de/home/versorgung/statistik-und-geodaten/geoinformation/geodaten/wasser/statistik-der-wasserkraftanlagen.html
Piottino,,,,"Lavorgo, Nivo di Chironico",CH,72.9,Hydro,Run-of-river,,1958,,46.4383309577,8.83996336006,,"Renewable energy",Hydro,,,,https://www.bfe.admin.ch/bfe/de/home/versorgung/statistik-und-geodaten/geoinformation/geodaten/wasser/statistik-der-wasserkraftanlagen.html
Ticinetto,,,,Chironico,CH,2.9,Hydro,Run-of-river,,1998,,46.4195742834,8.85066701859,,"Renewable energy",Hydro,,,,https://www.bfe.admin.ch/bfe/de/home/versorgung/statistik-und-geodaten/geoinformation/geodaten/wasser/statistik-der-wasserkraftanlagen.html
"Nuova Biaschina",,,,Personico,CH,141,Hydro,Run-of-river,,1974,,46.3649512107,8.92878536777,12W-0000000064-3,"Renewable energy",Hydro,,,,https://www.bfe.admin.ch/bfe/de/home/versorgung/statistik-und-geodaten/geoinformation/geodaten/wasser/statistik-der-wasserkraftanlagen.html
Luzzone,,,,Ghirone,CH,20,Hydro,Run-of-river,,1963,,46.565256077,8.96078316021,12W-0000000026-D,"Renewable energy",Hydro,,,,https://www.bfe.admin.ch/bfe/de/home/versorgung/statistik-und-geodaten/geoinformation/geodaten/wasser/statistik-der-wasserkraftanlagen.html
Olivone,,,,Olivone,CH,102,Hydro,Reservoir,,1962,,46.5396795136,8.94911144856,12W-0000000026-D,"Renewable energy",Hydro,,,,https://www.bfe.admin.ch/bfe/de/home/versorgung/statistik-und-geodaten/geoinformation/geodaten/wasser/statistik-der-wasserkraftanlagen.html
Biasca,,,,Biasca,CH,324,Hydro,Reservoir,,2007,,46.3349885216,8.98264959939,12W-0000000026-D,"Renewable energy",Hydro,,,,https://www.bfe.admin.ch/bfe/de/home/versorgung/statistik-und-geodaten/geoinformation/geodaten/wasser/statistik-der-wasserkraftanlagen.html
"Spina (Isola)",,,,"Mesocco, Spina",CH,20.9,Hydro,Reservoir,,1962,,46.431134362,9.20699910427,,"Renewable energy",Hydro,,,"#NAME?; ",https://www.bfe.admin.ch/bfe/de/home/versorgung/statistik-und-geodaten/geoinformation/geodaten/wasser/statistik-der-wasserkraftanlagen.html
"Spina (Valbella)",,,,"Mesocco, Spina",CH,4.2,Hydro,Run-of-river,,1963,,46.431134362,9.20699910427,,"Renewable energy",Hydro,,,"#NAME?; ",https://www.bfe.admin.ch/bfe/de/home/versorgung/statistik-und-geodaten/geoinformation/geodaten/wasser/statistik-der-wasserkraftanlagen.html
"Mesocco (Nan Ros)",,,,"Mesocco, Camou",CH,0.35,Hydro,Run-of-river,,2010,,46.4196352889,9.23446723925,,"Renewable energy",Hydro,,,"#NAME?; ",https://www.bfe.admin.ch/bfe/de/home/versorgung/statistik-und-geodaten/geoinformation/geodaten/wasser/statistik-der-wasserkraftanlagen.html
Soazza,,,,Soazza,CH,83,Hydro,Run-of-river,,1961,,46.3424239041,9.21216635065,,"Renewable energy",Hydro,,,,https://www.bfe.admin.ch/bfe/de/home/versorgung/statistik-und-geodaten/geoinformation/geodaten/wasser/statistik-der-wasserkraftanlagen.html
Lostallo,,,,"Lostallo, Rura",CH,25,Hydro,Run-of-river,,1958,,46.3219576602,9.20903078792,,"Renewable energy",Hydro,,,,https://www.bfe.admin.ch/bfe/de/home/versorgung/statistik-und-geodaten/geoinformation/geodaten/wasser/statistik-der-wasserkraftanlagen.html
Tecnicama,,,,"Piani di Verdabbio",CH,0.3,Hydro,Run-of-river,,1987,,46.2851556545,9.17421837591,,"Renewable energy",Hydro,,,,https://www.bfe.admin.ch/bfe/de/home/versorgung/statistik-und-geodaten/geoinformation/geodaten/wasser/statistik-der-wasserkraftanlagen.html
Grono,,,,"Grono, Oltra",CH,37.5,Hydro,Run-of-river,,1965,,46.2420119954,9.15352000435,,"Renewable energy",Hydro,,,,https://www.bfe.admin.ch/bfe/de/home/versorgung/statistik-und-geodaten/geoinformation/geodaten/wasser/statistik-der-wasserkraftanlagen.html
Calancasca,,,,Roveredo,CH,20.8,Hydro,Run-of-river,,1951,,46.2392079506,9.11854962054,,"Renewable energy",Hydro,,,,https://www.bfe.admin.ch/bfe/de/home/versorgung/statistik-und-geodaten/geoinformation/geodaten/wasser/statistik-der-wasserkraftanlagen.html
Morobbia,,,,Giubiasco,CH,15.5,Hydro,Run-of-river,,1970,,46.1680636081,9.01689952707,,"Renewable energy",Hydro,,,,https://www.bfe.admin.ch/bfe/de/home/versorgung/statistik-und-geodaten/geoinformation/geodaten/wasser/statistik-der-wasserkraftanlagen.html
"Verzasca (Gordola)",,,,Gordola,CH,132.5,Hydro,Reservoir,,1965,,46.1942167756,8.84910111686,,"Renewable energy",Hydro,,,,https://www.bfe.admin.ch/bfe/de/home/versorgung/statistik-und-geodaten/geoinformation/geodaten/wasser/statistik-der-wasserkraftanlagen.html
"Verzasca (Tenero)",,,,Tenero,CH,4.25,Hydro,Run-of-river,,1972,,46.1816582328,8.85330945367,,"Renewable energy",Hydro,,,,https://www.bfe.admin.ch/bfe/de/home/versorgung/statistik-und-geodaten/geoinformation/geodaten/wasser/statistik-der-wasserkraftanlagen.html
Sambuco-Peccia,,,,"Piano di Peccia",CH,54,Hydro,"Pumped storage",,1955,,46.4156418664,8.61147407012,12W-0000000925-8,"Renewable energy",Hydro,,,"#NAME?; ",https://www.bfe.admin.ch/bfe/de/home/versorgung/statistik-und-geodaten/geoinformation/geodaten/wasser/statistik-der-wasserkraftanlagen.html
Corgello-Peccia,,,,"Piano di Peccia",CH,0.98,Hydro,Run-of-river,,1991,,46.4156418664,8.61147407012,12W-0000000925-8,"Renewable energy",Hydro,,,"#NAME?; ",https://www.bfe.admin.ch/bfe/de/home/versorgung/statistik-und-geodaten/geoinformation/geodaten/wasser/statistik-der-wasserkraftanlagen.html
Robiei,,,,Robiei,CH,192,Hydro,"Pumped storage",,2016,,46.4449947898,8.50890150082,12W-0000000925-8,"Renewable energy",Hydro,,,"#NAME?; ",https://www.bfe.admin.ch/bfe/de/home/versorgung/statistik-und-geodaten/geoinformation/geodaten/wasser/statistik-der-wasserkraftanlagen.html
Bavona,,,,"San Carlo",CH,140,Hydro,Reservoir,,1966,,46.4103537646,8.53761284541,12W-0000000925-8,"Renewable energy",Hydro,,,"- Energia restituita:	 I vari beneficiari sono Stalvedro, Tremorgio, Piottino e Personico                   ;                                                        ;                                                        ;                                                         ;                                                        ; ",https://www.bfe.admin.ch/bfe/de/home/versorgung/statistik-und-geodaten/geoinformation/geodaten/wasser/statistik-der-wasserkraftanlagen.html
"Kraftwerk Tomè",,,,"Broglio, Corsgèla in Lavizarra",CH,2.12,Hydro,Run-of-river,,2016,,,,,"Renewable energy",Hydro,,,,https://www.bfe.admin.ch/bfe/de/home/versorgung/statistik-und-geodaten/geoinformation/geodaten/wasser/statistik-der-wasserkraftanlagen.html
Cavergno,,,,Cavergno,CH,114,Hydro,Reservoir,,1955,,46.3536410924,8.59532353346,12W-0000000925-8,"Renewable energy",Hydro,,,,https://www.bfe.admin.ch/bfe/de/home/versorgung/statistik-und-geodaten/geoinformation/geodaten/wasser/statistik-der-wasserkraftanlagen.html
"Verbano 1",,,,Brissago,CH,119,Hydro,Reservoir,,1953,,46.131824283,8.71678735348,12W-0000000925-8,"Renewable energy",Hydro,,,,https://www.bfe.admin.ch/bfe/de/home/versorgung/statistik-und-geodaten/geoinformation/geodaten/wasser/statistik-der-wasserkraftanlagen.html
"Verbano 2",,,,Brissago,CH,62,Hydro,Reservoir,,1973,,46.1321767287,8.71744263841,12W-0000000925-8,"Renewable energy",Hydro,,,,https://www.bfe.admin.ch/bfe/de/home/versorgung/statistik-und-geodaten/geoinformation/geodaten/wasser/statistik-der-wasserkraftanlagen.html
Cerentino,,,,"Cerentino, Collinasca",CH,1.38,Hydro,Run-of-river,,2004,,46.3065771304,8.5516126454,,"Renewable energy",Hydro,,,,https://www.bfe.admin.ch/bfe/de/home/versorgung/statistik-und-geodaten/geoinformation/geodaten/wasser/statistik-der-wasserkraftanlagen.html
Giumaglio,,,,"Someo, Giumaglio",CH,8.94,Hydro,Run-of-river,,1967,,46.2824127218,8.66971883413,,"Renewable energy",Hydro,,,,https://www.bfe.admin.ch/bfe/de/home/versorgung/statistik-und-geodaten/geoinformation/geodaten/wasser/statistik-der-wasserkraftanlagen.html
"Galleria Cavergno-Palagnedra",,,,Palagnedra,CH,2.85,Hydro,Run-of-river,,2018,,,,,"Renewable energy",Hydro,,,,https://www.bfe.admin.ch/bfe/de/home/versorgung/statistik-und-geodaten/geoinformation/geodaten/wasser/statistik-der-wasserkraftanlagen.html
"Ponte Brolla",,,,"Tegna, Ponte Brolla",CH,3.1,Hydro,Run-of-river,,1958,,46.18559009,8.75120889324,,"Renewable energy",Hydro,,,,https://www.bfe.admin.ch/bfe/de/home/versorgung/statistik-und-geodaten/geoinformation/geodaten/wasser/statistik-der-wasserkraftanlagen.html
"Cassarate - Franscinone",,,,Sonvico,CH,5,Hydro,Run-of-river,,1991,,46.047992628,8.97466556023,,"Renewable energy",Hydro,,,,https://www.bfe.admin.ch/bfe/de/home/versorgung/statistik-und-geodaten/geoinformation/geodaten/wasser/statistik-der-wasserkraftanlagen.html
"Sigirino (Monteceneri)",,,,"Sigirino (Monteceneri)",CH,0.84,Hydro,Run-of-river,,2015,,46.0774335119,8.91253368696,,"Renewable energy",Hydro,,,,https://www.bfe.admin.ch/bfe/de/home/versorgung/statistik-und-geodaten/geoinformation/geodaten/wasser/statistik-der-wasserkraftanlagen.html
Valmara,,,,Maroggia,CH,0.95,Hydro,Run-of-river,,1999,,45.9394453937,8.9776796767,,"Renewable energy",Hydro,,,"#NAME?;     ;                                                      ; ",https://www.bfe.admin.ch/bfe/de/home/versorgung/statistik-und-geodaten/geoinformation/geodaten/wasser/statistik-der-wasserkraftanlagen.html
Gabi,,,,Gabi,CH,11.33,Hydro,Run-of-river,,1986,,46.1882115335,8.0700669845,,"Renewable energy",Hydro,,,,https://www.bfe.admin.ch/bfe/de/home/versorgung/statistik-und-geodaten/geoinformation/geodaten/wasser/statistik-der-wasserkraftanlagen.html
Gondo,,,,"Gondo, San Marco",CH,61,Hydro,Run-of-river,,2017,,46.196009215,8.1506042231,,"Renewable energy",Hydro,,,,https://www.bfe.admin.ch/bfe/de/home/versorgung/statistik-und-geodaten/geoinformation/geodaten/wasser/statistik-der-wasserkraftanlagen.html
Tannuwald,,,,"Gondo, Tannuwald",CH,5.2,Hydro,Run-of-river,,1979,,46.1499409889,8.10793668693,,"Renewable energy",Hydro,,,,https://www.bfe.admin.ch/bfe/de/home/versorgung/statistik-und-geodaten/geoinformation/geodaten/wasser/statistik-der-wasserkraftanlagen.html
Palü,,,,"Poschiavo, Alpe Palü",CH,9.5,Hydro,Reservoir,,2004,,46.3724950431,10.0289744735,,"Renewable energy",Hydro,,,,https://www.bfe.admin.ch/bfe/de/home/versorgung/statistik-und-geodaten/geoinformation/geodaten/wasser/statistik-der-wasserkraftanlagen.html
Palü,,,,"Poschiavo, Bernina",CH,0,Hydro,Reservoir,,1923,,46.3724950431,10.0289744735,,"Renewable energy",Hydro,,,,https://www.bfe.admin.ch/bfe/de/home/versorgung/statistik-und-geodaten/geoinformation/geodaten/wasser/statistik-der-wasserkraftanlagen.html
Cavaglia,,,,"Poschiavo, Cavaglia",CH,7,Hydro,Reservoir,,2016,,46.3680968766,10.0363058541,,"Renewable energy",Hydro,,,"- 2016 Laufrad Erneuerung; ",https://www.bfe.admin.ch/bfe/de/home/versorgung/statistik-und-geodaten/geoinformation/geodaten/wasser/statistik-der-wasserkraftanlagen.html
Robbia,,,,"S. Carlo, Robbia",CH,27,Hydro,Reservoir,,2005,,46.3482642227,10.0610921706,,"Renewable energy",Hydro,,,,https://www.bfe.admin.ch/bfe/de/home/versorgung/statistik-und-geodaten/geoinformation/geodaten/wasser/statistik-der-wasserkraftanlagen.html
Pedecosta,,,,"San Carlo, Pedecosta",CH,0.51,Hydro,Run-of-river,,2010,,46.3576454254,10.0757152147,,"Renewable energy",Hydro,,,"#NAME?; ",https://www.bfe.admin.ch/bfe/de/home/versorgung/statistik-und-geodaten/geoinformation/geodaten/wasser/statistik-der-wasserkraftanlagen.html
"Campocologno 1",,,,Campocologno,CH,50,Hydro,Reservoir,,2003,,46.2321878892,10.1436946334,,"Renewable energy",Hydro,,,,https://www.bfe.admin.ch/bfe/de/home/versorgung/statistik-und-geodaten/geoinformation/geodaten/wasser/statistik-der-wasserkraftanlagen.html
"Campocologno 2",,,,Campocologno,CH,1.62,Hydro,Reservoir,,1950,,46.2308021117,10.1451821456,,"Renewable energy",Hydro,,,,https://www.bfe.admin.ch/bfe/de/home/versorgung/statistik-und-geodaten/geoinformation/geodaten/wasser/statistik-der-wasserkraftanlagen.html
Lizun,,,,Casaccia,CH,6.6,Hydro,Run-of-river,,1961,,46.3806401186,9.65796327585,,"Renewable energy",Hydro,,,,https://www.bfe.admin.ch/bfe/de/home/versorgung/statistik-und-geodaten/geoinformation/geodaten/wasser/statistik-der-wasserkraftanlagen.html
"Albignawerk Löbbia",,,,Casaccia,CH,86,Hydro,Reservoir,,2004,,46.3749522123,9.65890088302,,"Renewable energy",Hydro,,,"- Zentralen Löbbia (Albigna); Löbbia (Forno); Löbbia, Pumpe Maira (Pumpzentrale) und Löbbia, Pumpe Forno (Pumpzentrale);    in einem Gebäudekomplex; - Maschinendaten unter der Voraussetzung, dass Gruppe 2 für das Albignawerk Löbbia in Betrieb steht     ;                                             ;  ;                             ; ",https://www.bfe.admin.ch/bfe/de/home/versorgung/statistik-und-geodaten/geoinformation/geodaten/wasser/statistik-der-wasserkraftanlagen.html
Plancanin,,,,Plancanin,CH,0.5,Hydro,Run-of-river,,1991,,46.3638966463,9.71265622238,,"Renewable energy",Hydro,,,,https://www.bfe.admin.ch/bfe/de/home/versorgung/statistik-und-geodaten/geoinformation/geodaten/wasser/statistik-der-wasserkraftanlagen.html
"Fornowerk Löbbia",,,,Casaccia,CH,9,Hydro,Run-of-river,,1960,,46.3749522123,9.65890088302,,"Renewable energy",Hydro,,,"- Zentralen Löbbia (Albigna); Löbbia (Forno); Löbbia, Pumpe Maira (Pumpzentrale) und Löbbia, Pumpe Forno (Pumpzentrale);    in einem Gebäudekomplex  ; - Bei zugeschalteter Gruppe 2 beträgt die Ausbauwassermenge 6.10 m3/s; - Bei zugeschalteter Gruppe 2 beträgt die installierte Leistung 33 MW und die maximal mögliche Leistung 33 MW;        ;  ;       ; ",https://www.bfe.admin.ch/bfe/de/home/versorgung/statistik-und-geodaten/geoinformation/geodaten/wasser/statistik-der-wasserkraftanlagen.html
"Albignawerk Löbbia",,,,Casaccia,CH,0,Hydro,Reservoir,,1967,,46.3749522123,9.65890088302,,"Renewable energy",Hydro,,,"- Zentralen Löbbia (Albigna); Löbbia (Forno); Löbbia, Pumpe Maira (Pumpzentrale) und Löbbia, Pumpe Forno (Pumpzentrale) ;   in einem Gebäudekomplex   ; - Löbbia, Pumpe Maira = Zubringerpumpe zu Albignasee, um Wasser der Maira zu speichern                                                ;   ;             ; ",https://www.bfe.admin.ch/bfe/de/home/versorgung/statistik-und-geodaten/geoinformation/geodaten/wasser/statistik-der-wasserkraftanlagen.html
"Albignawerk Löbbia",,,,Murtaira,CH,0,Hydro,Reservoir,,1963,,46.3749522123,9.65890088302,,"Renewable energy",Hydro,,,,https://www.bfe.admin.ch/bfe/de/home/versorgung/statistik-und-geodaten/geoinformation/geodaten/wasser/statistik-der-wasserkraftanlagen.html
Molino,,,,"Promontogno, Gmde. Bregaglia",CH,0.51,Hydro,Run-of-river,,2017,,,,,"Renewable energy",Hydro,,,,https://www.bfe.admin.ch/bfe/de/home/versorgung/statistik-und-geodaten/geoinformation/geodaten/wasser/statistik-der-wasserkraftanlagen.html
Castasegna,,,,Castasegna,CH,100,Hydro,Reservoir,,1980,,46.3360981055,9.51543700775,,"Renewable energy",Hydro,,,,https://www.bfe.admin.ch/bfe/de/home/versorgung/statistik-und-geodaten/geoinformation/geodaten/wasser/statistik-der-wasserkraftanlagen.html
Silvaplana,,,,Silvaplana,CH,1.47,Hydro,Run-of-river,,1973,,46.4596242856,9.79337673204,,"Renewable energy",Hydro,,,,https://www.bfe.admin.ch/bfe/de/home/versorgung/statistik-und-geodaten/geoinformation/geodaten/wasser/statistik-der-wasserkraftanlagen.html
"Pradella - Dotierzentrale",,,,Scuol,CH,0.96,Hydro,Run-of-river,,2014,,46.8050592146,10.3289973638,12W-0000000035-C,"Renewable energy",Hydro,,,,https://www.bfe.admin.ch/bfe/de/home/versorgung/statistik-und-geodaten/geoinformation/geodaten/wasser/statistik-der-wasserkraftanlagen.html
Islas,,,,Celerina,CH,4.4,Hydro,Run-of-river,,2007,,46.5056195848,9.85728901713,,"Renewable energy",Hydro,,,,https://www.bfe.admin.ch/bfe/de/home/versorgung/statistik-und-geodaten/geoinformation/geodaten/wasser/statistik-der-wasserkraftanlagen.html
"Roseg, Samedan",,,,"Roseg, Samedan",CH,0.31,Hydro,Run-of-river,,2003,,46.5117431884,9.87815914687,,"Renewable energy",Hydro,,,"- Seit den 80er Jahren wird das Wasser nicht mehr als Trinkwasser genutzt. ; ",https://www.bfe.admin.ch/bfe/de/home/versorgung/statistik-und-geodaten/geoinformation/geodaten/wasser/statistik-der-wasserkraftanlagen.html
Morteratsch,,,,"Pontresina, Morteratsch",CH,1.6,Hydro,Run-of-river,,2016,,46.4525803371,9.94164682347,,"Renewable energy",Hydro,,,,https://www.bfe.admin.ch/bfe/de/home/versorgung/statistik-und-geodaten/geoinformation/geodaten/wasser/statistik-der-wasserkraftanlagen.html
"Champagna 1",,,,Samedan,CH,0.36,Hydro,Run-of-river,,1992,,46.5419232912,9.89347601258,,"Renewable energy",Hydro,,,,https://www.bfe.admin.ch/bfe/de/home/versorgung/statistik-und-geodaten/geoinformation/geodaten/wasser/statistik-der-wasserkraftanlagen.html
Madulain,,,,Madulain,CH,1.56,Hydro,Run-of-river,,1980,,46.5852709512,9.9363025202,,"Renewable energy",Hydro,,,,https://www.bfe.admin.ch/bfe/de/home/versorgung/statistik-und-geodaten/geoinformation/geodaten/wasser/statistik-der-wasserkraftanlagen.html
Susasca,,,,Susch,CH,5.86,Hydro,Run-of-river,,2015,,46.7551930076,10.0840366722,,"Renewable energy",Hydro,,,,https://www.bfe.admin.ch/bfe/de/home/versorgung/statistik-und-geodaten/geoinformation/geodaten/wasser/statistik-der-wasserkraftanlagen.html
"Ouvra Electrica Lavinuoz Lavin",,,,Lavin,CH,3.07,Hydro,Run-of-river,,2014,,46.7689779531,10.1143178662,,"Renewable energy",Hydro,,,,https://www.bfe.admin.ch/bfe/de/home/versorgung/statistik-und-geodaten/geoinformation/geodaten/wasser/statistik-der-wasserkraftanlagen.html
"Guarda (Ara)",,,,"Guarda-Giarsun Gmd. Scuol",CH,0.35,Hydro,Run-of-river,,1998,,46.7684823294,10.1429807693,,"Renewable energy",Hydro,,,"#NAME?; ",https://www.bfe.admin.ch/bfe/de/home/versorgung/statistik-und-geodaten/geoinformation/geodaten/wasser/statistik-der-wasserkraftanlagen.html
Tasnan,,,,Ardez,CH,6.6,Hydro,Run-of-river,,2014,,46.7776529012,10.2257209387,,"Renewable energy",Hydro,,,,https://www.bfe.admin.ch/bfe/de/home/versorgung/statistik-und-geodaten/geoinformation/geodaten/wasser/statistik-der-wasserkraftanlagen.html
"Tarasp (Ischla)",,,,Tarasp,CH,0.92,Hydro,Run-of-river,,2010,,46.7899029834,10.2837559953,,"Renewable energy",Hydro,,,"#NAME?; ",https://www.bfe.admin.ch/bfe/de/home/versorgung/statistik-und-geodaten/geoinformation/geodaten/wasser/statistik-der-wasserkraftanlagen.html
Clemgia,,,,Scuol,CH,1.9,Hydro,Run-of-river,,2001,,46.7884940361,10.296917759,,"Renewable energy",Hydro,,,,https://www.bfe.admin.ch/bfe/de/home/versorgung/statistik-und-geodaten/geoinformation/geodaten/wasser/statistik-der-wasserkraftanlagen.html
Chasura,,,,Strada,CH,0.3,Hydro,Run-of-river,,1994,,46.8702702474,10.4358013527,,"Renewable energy",Hydro,,,"#NAME?; ",https://www.bfe.admin.ch/bfe/de/home/versorgung/statistik-und-geodaten/geoinformation/geodaten/wasser/statistik-der-wasserkraftanlagen.html
"Alp Trida-Laret, Samnaun",,,,Samnaun-Compatch,CH,0.46,Hydro,Run-of-river,,2017,,,,,"Renewable energy",Hydro,,,,https://www.bfe.admin.ch/bfe/de/home/versorgung/statistik-und-geodaten/geoinformation/geodaten/wasser/statistik-der-wasserkraftanlagen.html
Schergenbach,,,,Samnaun-Compatsch,CH,0.96,Hydro,Run-of-river,,1970,,46.960384617,10.4217681589,,"Renewable energy",Hydro,,,,https://www.bfe.admin.ch/bfe/de/home/versorgung/statistik-und-geodaten/geoinformation/geodaten/wasser/statistik-der-wasserkraftanlagen.html
"Punt dal Gall-Dotieranlage",,,,Zernez,CH,2.8,Hydro,Run-of-river,,1969,,46.6234441915,10.1932036115,,"Renewable energy",Hydro,,,,https://www.bfe.admin.ch/bfe/de/home/versorgung/statistik-und-geodaten/geoinformation/geodaten/wasser/statistik-der-wasserkraftanlagen.html
"Ova Spin",,,,Zernez,CH,54,Hydro,"Pumped storage",,1970,,46.6782585306,10.1444753501,12W-0000000035-C,"Renewable energy",Hydro,,,"#NAME?; ",https://www.bfe.admin.ch/bfe/de/home/versorgung/statistik-und-geodaten/geoinformation/geodaten/wasser/statistik-der-wasserkraftanlagen.html
"Ova Spin-Dotieranlage",,,,Zernez,CH,0.47,Hydro,Run-of-river,,1969,,46.6782585306,10.1444753501,12W-0000000035-C,"Renewable energy",Hydro,,,,https://www.bfe.admin.ch/bfe/de/home/versorgung/statistik-und-geodaten/geoinformation/geodaten/wasser/statistik-der-wasserkraftanlagen.html
Pradella,,,,Scuol,CH,300,Hydro,Reservoir,,1970,,46.8045802532,10.3336910022,12W-0000000035-C,"Renewable energy",Hydro,,,,https://www.bfe.admin.ch/bfe/de/home/versorgung/statistik-und-geodaten/geoinformation/geodaten/wasser/statistik-der-wasserkraftanlagen.html
Pradella-Martina,,,,Martina,CH,84,Hydro,Reservoir,,1994,,46.8821155388,10.4645577137,12W-0000000035-C,"Renewable energy",Hydro,,,,https://www.bfe.admin.ch/bfe/de/home/versorgung/statistik-und-geodaten/geoinformation/geodaten/wasser/statistik-der-wasserkraftanlagen.html
Muranzina,,,,Sta.Maria,CH,2,Hydro,Run-of-river,,1995,,46.5965486956,10.4278045452,,"Renewable energy",Hydro,,,,https://www.bfe.admin.ch/bfe/de/home/versorgung/statistik-und-geodaten/geoinformation/geodaten/wasser/statistik-der-wasserkraftanlagen.html
Chasseras,,,,Müstair/Chasseras,CH,1.07,Hydro,Run-of-river,,1991,,46.614013798,10.4414426528,,"Renewable energy",Hydro,,,,https://www.bfe.admin.ch/bfe/de/home/versorgung/statistik-und-geodaten/geoinformation/geodaten/wasser/statistik-der-wasserkraftanlagen.html
Mühleberg,"BKW FMB Energie AG",,,Mühleberg,CH,390,Nuclear,"Steam turbine",,1972,,46.9691475017,7.28449397374,,Nuclear,,,,,"Schweizerische Eidgenossenschaft"
Gösgen,"Kernkraftwerk Gösgen-Däniken AG",,,Däniken,CH,1035,Nuclear,"Steam turbine",,1979,,47.3694251427,7.97945465498,,Nuclear,,,,,"Schweizerische Eidgenossenschaft"
"Beznau 1","Axpo AG",,,Döttingen,CH,380,Nuclear,"Steam turbine",,1969,,,,,Nuclear,,,,,"Schweizerische Eidgenossenschaft"
"Beznau 2","Axpo AG",,,Döttingen,CH,380,Nuclear,"Steam turbine",,1971,,,,,Nuclear,,,,,"Schweizerische Eidgenossenschaft"
Leibstadt,"Kernkraftwerk Leibstadt AG",,,Leibstadt,CH,1245,Nuclear,"Steam turbine",,1984,,,,,Nuclear,,,,,"Schweizerische Eidgenossenschaft"
BNA0583,"Energiedienst Holding AG",,CH-5080,Laufenburg,CH,104.4,Hydro,Run-of-river,no,1914,,47.555936,8.049404,,"Renewable energy",Hydro,,,,BNetzA/UBA
